{"type":"FeatureCollection","metadata":{"kommuneKode":"0147","kommuneNavn":"Frederiksberg","source":"https://wfs2-miljoegis.mim.dk/natur/ows","layer":"natur:ais_par3","bbox":[12.49131566922758,55.66650584334021,12.557341088932414,55.69767912853331],"fetchedAt":"2026-06-12T20:55:36.113416+00:00"},"features":[{"type":"Feature","id":"ais_par3.134931","geometry":{"type":"Polygon","coordinates":[[[12.5617,55.6863],[12.5622,55.6868],[12.5626,55.6868],[12.5628,55.6869],[12.5643,55.6864],[12.5644,55.6863],[12.5644,55.6862],[12.5643,55.6861],[12.5645,55.6857],[12.5631,55.6843],[12.5613,55.6824],[12.5606,55.6816],[12.5599,55.6819],[12.5598,55.682],[12.5592,55.6823],[12.5589,55.6822],[12.5582,55.6825],[12.5599,55.6844],[12.5617,55.6863]]]},"properties":{"sourceId":"ais_par3.134931","a_type":5120,"hectares":10.276}},{"type":"Feature","id":"ais_par3.134933","geometry":{"type":"Polygon","coordinates":[[[12.5573,55.6811],[12.5574,55.6815],[12.5577,55.6816],[12.5584,55.6815],[12.5596,55.681],[12.56,55.6809],[12.5601,55.6807],[12.5597,55.6794],[12.5597,55.6793],[12.5596,55.6788],[12.5594,55.6781],[12.5586,55.6782],[12.557,55.6783],[12.5567,55.6784],[12.5567,55.6786],[12.5567,55.6788],[12.5568,55.6792],[12.5573,55.6811]]]},"properties":{"sourceId":"ais_par3.134933","a_type":5120,"hectares":6.086}},{"type":"Feature","id":"ais_par3.134935","geometry":{"type":"Polygon","coordinates":[[[12.5592,55.6774],[12.559,55.6766],[12.5589,55.6766],[12.5589,55.6762],[12.5588,55.6761],[12.5588,55.6761],[12.5586,55.6752],[12.5585,55.6752],[12.5584,55.6751],[12.5579,55.6749],[12.5579,55.6749],[12.5575,55.6747],[12.5572,55.6743],[12.5569,55.6743],[12.556,55.6741],[12.5557,55.674],[12.5555,55.6742],[12.5557,55.6748],[12.5557,55.6748],[12.5558,55.6752],[12.5563,55.6771],[12.5565,55.6779],[12.5569,55.6779],[12.5571,55.6778],[12.5584,55.6777],[12.5586,55.6777],[12.5591,55.6777],[12.5592,55.6776],[12.5592,55.6774]]]},"properties":{"sourceId":"ais_par3.134935","a_type":5120,"hectares":6.495}},{"type":"Feature","id":"ais_par3.134954","geometry":{"type":"Polygon","coordinates":[[[12.5042,55.7001],[12.5049,55.7004],[12.5053,55.7007],[12.5057,55.7008],[12.506,55.7008],[12.5061,55.7006],[12.5054,55.7001],[12.5045,55.699],[12.504,55.6987],[12.5038,55.6987],[12.5038,55.6996],[12.5039,55.6998],[12.5042,55.7001]]]},"properties":{"sourceId":"ais_par3.134954","a_type":5120,"hectares":1.427}}]}
