{"type":"FeatureCollection","metadata":{"kommuneKode":"0153","kommuneNavn":"Brøndby","source":"https://wfs2-miljoegis.mim.dk/natur/ows","layer":"natur:ais_par3","bbox":[12.3634244037558,55.60665715501005,12.45995499788564,55.671529851279054],"fetchedAt":"2026-06-12T20:55:36.165644+00:00"},"features":[{"type":"Feature","id":"ais_par3.135142","geometry":{"type":"Polygon","coordinates":[[[12.3656,55.6367],[12.3657,55.6368],[12.366,55.6369],[12.3662,55.6369],[12.3664,55.6369],[12.3664,55.6368],[12.3662,55.6367],[12.3661,55.6366],[12.3659,55.6366],[12.3657,55.6366],[12.3656,55.6367]]]},"properties":{"sourceId":"ais_par3.135142","a_type":5120,"hectares":0.112}},{"type":"Feature","id":"ais_par3.135144","geometry":{"type":"Polygon","coordinates":[[[12.369,55.6436],[12.3692,55.6436],[12.3696,55.6436],[12.3699,55.6436],[12.3701,55.6437],[12.3703,55.6437],[12.3708,55.6436],[12.3708,55.6435],[12.3707,55.6433],[12.3706,55.6432],[12.3702,55.6432],[12.3698,55.6432],[12.3694,55.6433],[12.3691,55.6433],[12.3689,55.6434],[12.3688,55.6435],[12.3688,55.6436],[12.369,55.6436]]]},"properties":{"sourceId":"ais_par3.135144","a_type":5120,"hectares":0.528}},{"type":"Feature","id":"ais_par3.135328","geometry":{"type":"Polygon","coordinates":[[[12.3656,55.6637],[12.3656,55.6638],[12.3659,55.6638],[12.3662,55.6638],[12.3664,55.6638],[12.3667,55.6638],[12.3669,55.6638],[12.367,55.6638],[12.3667,55.6637],[12.3664,55.6637],[12.3661,55.6637],[12.3658,55.6637],[12.3657,55.6637],[12.3656,55.6637]]]},"properties":{"sourceId":"ais_par3.135328","a_type":5120,"hectares":0.088}},{"type":"Feature","id":"ais_par3.135349","geometry":{"type":"Polygon","coordinates":[[[12.3725,55.6701],[12.3725,55.6702],[12.3726,55.6703],[12.3727,55.6704],[12.373,55.6704],[12.3733,55.6704],[12.3737,55.6703],[12.374,55.6703],[12.3745,55.6703],[12.3745,55.6702],[12.3745,55.6701],[12.3742,55.67],[12.3735,55.6699],[12.3728,55.6698],[12.3726,55.6698],[12.3725,55.6699],[12.3725,55.6701]]]},"properties":{"sourceId":"ais_par3.135349","a_type":5120,"hectares":0.614}},{"type":"Feature","id":"ais_par3.135560","geometry":{"type":"Polygon","coordinates":[[[12.3996,55.6571],[12.3999,55.657],[12.4,55.6568],[12.4,55.6567],[12.3999,55.6566],[12.3997,55.6565],[12.3994,55.6565],[12.3993,55.6566],[12.3992,55.6567],[12.3991,55.6568],[12.3992,55.6569],[12.3992,55.657],[12.3995,55.6571],[12.3996,55.657],[12.3996,55.6571]]]},"properties":{"sourceId":"ais_par3.135560","a_type":5120,"hectares":0.246}},{"type":"Feature","id":"ais_par3.135553","geometry":{"type":"Polygon","coordinates":[[[12.4369,55.6512],[12.437,55.6511],[12.437,55.651],[12.4369,55.651],[12.4368,55.651],[12.4367,55.6511],[12.4367,55.6512],[12.4369,55.6512],[12.4369,55.6512]]]},"properties":{"sourceId":"ais_par3.135553","a_type":5120,"hectares":0.034}},{"type":"Feature","id":"ais_par3.135554","geometry":{"type":"Polygon","coordinates":[[[12.4367,55.6542],[12.4366,55.6544],[12.4366,55.6544],[12.4368,55.6545],[12.4369,55.6545],[12.4369,55.6544],[12.4369,55.6543],[12.4368,55.6542],[12.4367,55.6542]]]},"properties":{"sourceId":"ais_par3.135554","a_type":5120,"hectares":0.041}},{"type":"Feature","id":"ais_par3.135555","geometry":{"type":"Polygon","coordinates":[[[12.4233,55.6667],[12.4235,55.6667],[12.423,55.6663],[12.423,55.6666],[12.423,55.6667],[12.4233,55.6667]]]},"properties":{"sourceId":"ais_par3.135555","a_type":5120,"hectares":0.07}},{"type":"Feature","id":"ais_par3.135556","geometry":{"type":"Polygon","coordinates":[[[12.3687,55.6593],[12.3688,55.6593],[12.3688,55.6592],[12.3686,55.6591],[12.3684,55.6591],[12.3683,55.6591],[12.3682,55.6591],[12.3681,55.6591],[12.3682,55.6592],[12.3682,55.6593],[12.3684,55.6593],[12.3685,55.6593],[12.3686,55.6593],[12.3687,55.6593],[12.3687,55.6593]]]},"properties":{"sourceId":"ais_par3.135556","a_type":5120,"hectares":0.084}},{"type":"Feature","id":"ais_par3.135558","geometry":{"type":"Polygon","coordinates":[[[12.4501,55.6491],[12.4502,55.649],[12.4503,55.649],[12.4502,55.6489],[12.4497,55.6489],[12.4494,55.6489],[12.4493,55.6489],[12.4493,55.649],[12.4493,55.649],[12.4494,55.6491],[12.4495,55.6491],[12.4498,55.6491],[12.4499,55.6491],[12.45,55.6491],[12.4501,55.6491]]]},"properties":{"sourceId":"ais_par3.135558","a_type":5120,"hectares":0.108}},{"type":"Feature","id":"ais_par3.135561","geometry":{"type":"Polygon","coordinates":[[[12.4434,55.6476],[12.4432,55.6476],[12.443,55.6475],[12.4428,55.6474],[12.4426,55.6474],[12.4425,55.6475],[12.4426,55.6475],[12.4427,55.6477],[12.4428,55.648],[12.443,55.648],[12.4432,55.648],[12.4433,55.648],[12.4436,55.648],[12.4436,55.6479],[12.4437,55.6478],[12.4434,55.6476]]]},"properties":{"sourceId":"ais_par3.135561","a_type":5120,"hectares":0.295}},{"type":"Feature","id":"ais_par3.135562","geometry":{"type":"Polygon","coordinates":[[[12.4447,55.6536],[12.4448,55.6536],[12.4449,55.6536],[12.4451,55.6537],[12.4453,55.6537],[12.4455,55.6537],[12.4455,55.6535],[12.4456,55.6533],[12.4455,55.6531],[12.4453,55.6531],[12.445,55.653],[12.4448,55.6531],[12.4447,55.6532],[12.4447,55.6534],[12.4447,55.6535],[12.4447,55.6535],[12.4447,55.6536]]]},"properties":{"sourceId":"ais_par3.135562","a_type":5120,"hectares":0.32}},{"type":"Feature","id":"ais_par3.135563","geometry":{"type":"Polygon","coordinates":[[[12.3849,55.6525],[12.3852,55.6526],[12.3856,55.6526],[12.3859,55.6527],[12.3861,55.6528],[12.3863,55.6528],[12.3865,55.6527],[12.3864,55.6526],[12.3863,55.6525],[12.3859,55.6524],[12.3856,55.6523],[12.3852,55.6523],[12.385,55.6523],[12.3848,55.6523],[12.3847,55.6524],[12.3848,55.6525],[12.3849,55.6525],[12.3849,55.6525]]]},"properties":{"sourceId":"ais_par3.135563","a_type":5120,"hectares":0.337}},{"type":"Feature","id":"ais_par3.135706","geometry":{"type":"Polygon","coordinates":[[[12.3949,55.6607],[12.395,55.6607],[12.3951,55.6608],[12.3952,55.6607],[12.3952,55.6606],[12.3951,55.6606],[12.395,55.6606],[12.3949,55.6606],[12.3949,55.6607],[12.3949,55.6607]]]},"properties":{"sourceId":"ais_par3.135706","a_type":5120,"hectares":0.03}},{"type":"Feature","id":"ais_par3.135710","geometry":{"type":"Polygon","coordinates":[[[12.3738,55.6691],[12.3739,55.6691],[12.3739,55.669],[12.3737,55.669],[12.3735,55.669],[12.3733,55.6691],[12.3733,55.6691],[12.3733,55.6692],[12.3734,55.6692],[12.3736,55.6692],[12.3738,55.6692],[12.3738,55.6691],[12.3738,55.6691]]]},"properties":{"sourceId":"ais_par3.135710","a_type":5120,"hectares":0.067}},{"type":"Feature","id":"ais_par3.135713","geometry":{"type":"Polygon","coordinates":[[[12.4131,55.6654],[12.4133,55.6653],[12.4133,55.6652],[12.4133,55.6652],[12.4132,55.6651],[12.4131,55.6651],[12.4129,55.6651],[12.4128,55.6652],[12.4128,55.6653],[12.4128,55.6654],[12.4129,55.6654],[12.413,55.6655],[12.4131,55.6655],[12.4131,55.6654],[12.4131,55.6654]]]},"properties":{"sourceId":"ais_par3.135713","a_type":5120,"hectares":0.083}},{"type":"Feature","id":"ais_par3.135716","geometry":{"type":"Polygon","coordinates":[[[12.3683,55.6681],[12.3686,55.6682],[12.3688,55.6682],[12.369,55.6681],[12.3688,55.668],[12.3686,55.6678],[12.3684,55.668],[12.3682,55.6681],[12.3683,55.6681]]]},"properties":{"sourceId":"ais_par3.135716","a_type":5120,"hectares":0.103}},{"type":"Feature","id":"ais_par3.135805","geometry":{"type":"Polygon","coordinates":[[[12.4554,55.6335],[12.4555,55.6335],[12.4556,55.6336],[12.4557,55.6335],[12.4557,55.6334],[12.4557,55.6334],[12.4557,55.6333],[12.4556,55.6333],[12.4555,55.6333],[12.4554,55.6333],[12.4554,55.6333],[12.4553,55.6334],[12.4554,55.6335],[12.4554,55.6335]]]},"properties":{"sourceId":"ais_par3.135805","a_type":5120,"hectares":0.054}},{"type":"Feature","id":"ais_par3.135811","geometry":{"type":"Polygon","coordinates":[[[12.4292,55.6337],[12.4294,55.6336],[12.4295,55.6335],[12.4295,55.6335],[12.4294,55.6334],[12.4293,55.6334],[12.4292,55.6334],[12.429,55.6334],[12.4289,55.6335],[12.4289,55.6335],[12.4289,55.6336],[12.429,55.6337],[12.4291,55.6337],[12.4293,55.6337],[12.4292,55.6337]]]},"properties":{"sourceId":"ais_par3.135811","a_type":5120,"hectares":0.094}},{"type":"Feature","id":"ais_par3.135803","geometry":{"type":"Polygon","coordinates":[[[12.4269,55.6399],[12.4269,55.6399],[12.4269,55.6399],[12.4269,55.6398],[12.4269,55.6398],[12.4268,55.6398],[12.4267,55.6397],[12.4266,55.6398],[12.4266,55.6398],[12.4266,55.6399],[12.4266,55.6399],[12.4267,55.64],[12.4267,55.64],[12.4268,55.64],[12.4269,55.6399]]]},"properties":{"sourceId":"ais_par3.135803","a_type":5120,"hectares":0.043}},{"type":"Feature","id":"ais_par3.135816","geometry":{"type":"Polygon","coordinates":[[[12.4359,55.6368],[12.4361,55.6369],[12.4362,55.6369],[12.4364,55.6369],[12.4365,55.637],[12.4367,55.6369],[12.4368,55.6369],[12.4368,55.6368],[12.4367,55.6368],[12.4366,55.6367],[12.4365,55.6367],[12.4363,55.6366],[12.436,55.6366],[12.4359,55.6366],[12.4359,55.6367],[12.4359,55.6368],[12.4359,55.6368],[12.4359,55.6368]]]},"properties":{"sourceId":"ais_par3.135816","a_type":5120,"hectares":0.153}},{"type":"Feature","id":"ais_par3.135819","geometry":{"type":"Polygon","coordinates":[[[12.444,55.6437],[12.444,55.6436],[12.4441,55.6435],[12.4441,55.6432],[12.444,55.6431],[12.4438,55.6431],[12.4436,55.6431],[12.4435,55.6433],[12.4434,55.6433],[12.4434,55.6434],[12.4434,55.6434],[12.4434,55.6435],[12.4436,55.6436],[12.4437,55.6437],[12.4438,55.6437],[12.4439,55.6437],[12.444,55.6437]]]},"properties":{"sourceId":"ais_par3.135819","a_type":5120,"hectares":0.232}},{"type":"Feature","id":"ais_par3.135820","geometry":{"type":"Polygon","coordinates":[[[12.4398,55.6327],[12.4399,55.6328],[12.4401,55.6327],[12.4403,55.6326],[12.4404,55.6326],[12.4404,55.6325],[12.4404,55.6324],[12.4403,55.6323],[12.4402,55.6322],[12.44,55.6321],[12.4398,55.6321],[12.4398,55.6321],[12.4396,55.6322],[12.4395,55.6323],[12.4394,55.6323],[12.4393,55.6324],[12.4393,55.6325],[12.4394,55.6326],[12.4396,55.6326],[12.4397,55.6327],[12.4398,55.6328],[12.4398,55.6327]]]},"properties":{"sourceId":"ais_par3.135820","a_type":5120,"hectares":0.339}},{"type":"Feature","id":"ais_par3.135822","geometry":{"type":"Polygon","coordinates":[[[12.4618,55.6611],[12.4618,55.661],[12.4618,55.6609],[12.4617,55.6609],[12.4614,55.6608],[12.4606,55.6606],[12.4602,55.6605],[12.4598,55.6604],[12.4596,55.6603],[12.4593,55.6602],[12.459,55.6601],[12.4587,55.6601],[12.4585,55.6601],[12.4583,55.6601],[12.458,55.6599],[12.4578,55.6598],[12.4576,55.6598],[12.4574,55.6598],[12.4573,55.6598],[12.4572,55.66],[12.4573,55.6601],[12.4576,55.6602],[12.4579,55.6603],[12.458,55.6604],[12.4581,55.6605],[12.4582,55.6607],[12.4583,55.6608],[12.4584,55.6608],[12.4586,55.6609],[12.4587,55.6609],[12.4588,55.6609],[12.4589,55.661],[12.459,55.661],[12.4592,55.6611],[12.4594,55.6611],[12.4596,55.6612],[12.4603,55.6611],[12.4607,55.6611],[12.461,55.6611],[12.4612,55.6611],[12.4614,55.6611],[12.4617,55.6611],[12.4617,55.6611],[12.4618,55.6611]]]},"properties":{"sourceId":"ais_par3.135822","a_type":5120,"hectares":1.853}},{"type":"Feature","id":"ais_par3.136427","geometry":{"type":"Polygon","coordinates":[[[12.4437,55.6717],[12.4438,55.6716],[12.4438,55.6715],[12.4438,55.6714],[12.4438,55.6713],[12.444,55.6713],[12.4441,55.6712],[12.4442,55.6712],[12.4441,55.671],[12.444,55.671],[12.4438,55.671],[12.4436,55.671],[12.4434,55.6711],[12.4433,55.6713],[12.4432,55.6714],[12.4432,55.6715],[12.4433,55.6716],[12.4434,55.6717],[12.4436,55.6717],[12.4437,55.6716],[12.4437,55.6717]]]},"properties":{"sourceId":"ais_par3.136427","a_type":5120,"hectares":0.306}},{"type":"Feature","id":"ais_par3.137046","geometry":{"type":"Polygon","coordinates":[[[12.4485,55.6493],[12.4493,55.6493],[12.4498,55.6493],[12.4505,55.6489],[12.4498,55.6488],[12.4493,55.6488],[12.4489,55.649],[12.4485,55.6493],[12.4485,55.6493]],[[12.4501,55.6491],[12.45,55.6491],[12.4499,55.6491],[12.4498,55.6491],[12.4495,55.6491],[12.4494,55.6491],[12.4493,55.649],[12.4493,55.649],[12.4493,55.6489],[12.4494,55.6489],[12.4497,55.6489],[12.4502,55.6489],[12.4503,55.649],[12.4502,55.649],[12.4501,55.6491]]]},"properties":{"sourceId":"ais_par3.137046","a_type":4120,"hectares":0.317}},{"type":"Feature","id":"ais_par3.135139","geometry":{"type":"Polygon","coordinates":[[[12.3799,55.6235],[12.3799,55.6235],[12.3801,55.6234],[12.3804,55.6233],[12.3801,55.6233],[12.3799,55.6233],[12.3799,55.6234],[12.3799,55.6235]]]},"properties":{"sourceId":"ais_par3.135139","a_type":5120,"hectares":0.041}},{"type":"Feature","id":"ais_par3.135140","geometry":{"type":"Polygon","coordinates":[[[12.3902,55.6243],[12.3903,55.6241],[12.3904,55.624],[12.3905,55.6239],[12.3904,55.6238],[12.3902,55.6238],[12.3902,55.6239],[12.3902,55.624],[12.3901,55.6242],[12.3901,55.6243],[12.3902,55.6243]]]},"properties":{"sourceId":"ais_par3.135140","a_type":5120,"hectares":0.065}},{"type":"Feature","id":"ais_par3.135141","geometry":{"type":"Polygon","coordinates":[[[12.3854,55.6229],[12.3852,55.6229],[12.385,55.6229],[12.385,55.623],[12.3853,55.623],[12.3856,55.623],[12.3859,55.6231],[12.3861,55.6231],[12.3861,55.623],[12.386,55.623],[12.3858,55.6229],[12.3856,55.6229],[12.3855,55.6229],[12.3854,55.6229]]]},"properties":{"sourceId":"ais_par3.135141","a_type":5120,"hectares":0.103}},{"type":"Feature","id":"ais_par3.135559","geometry":{"type":"Polygon","coordinates":[[[12.4111,55.6304],[12.4113,55.6304],[12.4114,55.6303],[12.4113,55.6302],[12.4111,55.6302],[12.411,55.6302],[12.4108,55.6302],[12.4107,55.6302],[12.4105,55.6302],[12.4105,55.6303],[12.4105,55.6303],[12.4106,55.6304],[12.4107,55.6304],[12.4108,55.6304],[12.4109,55.6304],[12.4111,55.6304]]]},"properties":{"sourceId":"ais_par3.135559","a_type":5120,"hectares":0.125}},{"type":"Feature","id":"ais_par3.135551","geometry":{"type":"Polygon","coordinates":[[[12.4305,55.6302],[12.4304,55.6302],[12.4304,55.6303],[12.4306,55.6303],[12.4306,55.6303],[12.4308,55.6303],[12.4308,55.6302],[12.4307,55.6301],[12.4305,55.6302]]]},"properties":{"sourceId":"ais_par3.135551","a_type":5120,"hectares":0.031}},{"type":"Feature","id":"ais_par3.135552","geometry":{"type":"Polygon","coordinates":[[[12.4125,55.628],[12.4126,55.6281],[12.4127,55.628],[12.4127,55.628],[12.4126,55.6279],[12.4124,55.6279],[12.4123,55.6279],[12.4123,55.628],[12.4124,55.628],[12.4124,55.628],[12.4125,55.628],[12.4125,55.628]]]},"properties":{"sourceId":"ais_par3.135552","a_type":5120,"hectares":0.031}},{"type":"Feature","id":"ais_par3.135557","geometry":{"type":"Polygon","coordinates":[[[12.4342,55.6277],[12.434,55.6276],[12.4339,55.6277],[12.4339,55.6278],[12.434,55.6279],[12.434,55.6279],[12.4341,55.6279],[12.4343,55.6279],[12.4344,55.6279],[12.4345,55.6278],[12.4345,55.6277],[12.4344,55.6277],[12.4343,55.6276],[12.4342,55.6277],[12.4342,55.6277]]]},"properties":{"sourceId":"ais_par3.135557","a_type":5120,"hectares":0.092}},{"type":"Feature","id":"ais_par3.135807","geometry":{"type":"Polygon","coordinates":[[[12.4472,55.6145],[12.4471,55.6145],[12.4471,55.6144],[12.447,55.6144],[12.447,55.6144],[12.4469,55.6144],[12.447,55.6145],[12.4471,55.6145],[12.4471,55.6146],[12.447,55.6146],[12.447,55.6147],[12.447,55.6148],[12.4471,55.6148],[12.4471,55.6149],[12.4472,55.6149],[12.4472,55.6149],[12.4472,55.6148],[12.4473,55.6147],[12.4473,55.6147],[12.4473,55.6147],[12.4473,55.6146],[12.4473,55.6146],[12.4473,55.6145],[12.4472,55.6145],[12.4472,55.6145],[12.4472,55.6145]]]},"properties":{"sourceId":"ais_par3.135807","a_type":5120,"hectares":0.073}},{"type":"Feature","id":"ais_par3.135809","geometry":{"type":"Polygon","coordinates":[[[12.4526,55.6165],[12.4526,55.6165],[12.4527,55.6165],[12.4528,55.6164],[12.4527,55.6164],[12.4526,55.6163],[12.4527,55.6162],[12.4526,55.6162],[12.4525,55.6162],[12.4524,55.6162],[12.4524,55.6162],[12.4524,55.6163],[12.4524,55.6164],[12.4523,55.6165],[12.4523,55.6165],[12.4523,55.6165],[12.4524,55.6165],[12.4525,55.6165],[12.4526,55.6165]]]},"properties":{"sourceId":"ais_par3.135809","a_type":5120,"hectares":0.074}},{"type":"Feature","id":"ais_par3.135813","geometry":{"type":"Polygon","coordinates":[[[12.4477,55.6154],[12.4479,55.6154],[12.448,55.6154],[12.4481,55.6153],[12.4481,55.6153],[12.448,55.6153],[12.4478,55.6152],[12.4477,55.6152],[12.4476,55.6152],[12.4475,55.6151],[12.4475,55.615],[12.4474,55.615],[12.4473,55.615],[12.4473,55.615],[12.4473,55.6151],[12.4473,55.6151],[12.4473,55.6152],[12.4473,55.6152],[12.4472,55.6152],[12.4473,55.6153],[12.4473,55.6154],[12.4474,55.6154],[12.4475,55.6154],[12.4475,55.6154],[12.4476,55.6154],[12.4477,55.6154],[12.4477,55.6154]]]},"properties":{"sourceId":"ais_par3.135813","a_type":5120,"hectares":0.125}},{"type":"Feature","id":"ais_par3.135796","geometry":{"type":"Polygon","coordinates":[[[12.405,55.6145],[12.4048,55.6144],[12.4044,55.6143],[12.4039,55.6142],[12.4034,55.6141],[12.4028,55.614],[12.4021,55.6139],[12.4016,55.6138],[12.401,55.6137],[12.4007,55.6136],[12.4004,55.6135],[12.4001,55.6133],[12.3999,55.6133],[12.3997,55.6134],[12.3997,55.6136],[12.3997,55.6137],[12.3997,55.6138],[12.3994,55.614],[12.3992,55.6142],[12.3988,55.6144],[12.3986,55.6147],[12.3985,55.615],[12.3986,55.6153],[12.3988,55.6155],[12.3991,55.6157],[12.3997,55.6158],[12.4005,55.616],[12.4009,55.6161],[12.4012,55.6162],[12.4017,55.6162],[12.4022,55.6162],[12.4028,55.6163],[12.4033,55.6164],[12.4039,55.6165],[12.4042,55.6166],[12.4046,55.6166],[12.4047,55.6166],[12.406,55.6167],[12.4069,55.6167],[12.4081,55.6167],[12.409,55.6166],[12.4088,55.6164],[12.4088,55.6162],[12.4089,55.6161],[12.4088,55.616],[12.4087,55.6159],[12.4088,55.6158],[12.4089,55.6156],[12.4089,55.6155],[12.4089,55.6153],[12.4089,55.6152],[12.409,55.6149],[12.4093,55.6147],[12.4095,55.6148],[12.4095,55.6149],[12.4095,55.6152],[12.4096,55.6153],[12.4096,55.6155],[12.4096,55.6157],[12.4096,55.6159],[12.4095,55.616],[12.4094,55.6162],[12.4093,55.6164],[12.4094,55.6166],[12.4097,55.6165],[12.4118,55.6165],[12.4133,55.6165],[12.4152,55.6164],[12.4165,55.6164],[12.4173,55.6164],[12.4186,55.6163],[12.4197,55.6162],[12.4203,55.6163],[12.4203,55.6161],[12.4205,55.6159],[12.4208,55.6157],[12.4209,55.6155],[12.421,55.6153],[12.4211,55.6151],[12.4212,55.6147],[12.4213,55.6145],[12.4217,55.6145],[12.4219,55.6144],[12.4219,55.6146],[12.4219,55.6148],[12.422,55.615],[12.422,55.6151],[12.422,55.6152],[12.4219,55.6153],[12.422,55.6154],[12.4219,55.6155],[12.4218,55.6157],[12.4219,55.6158],[12.4219,55.6158],[12.4218,55.6159],[12.422,55.616],[12.4226,55.6159],[12.4231,55.6159],[12.4238,55.6159],[12.4247,55.6159],[12.4253,55.6159],[12.4255,55.6159],[12.4257,55.6159],[12.4262,55.6159],[12.4277,55.6159],[12.4282,55.6158],[12.4288,55.6158],[12.43,55.6159],[12.4301,55.6158],[12.43,55.6155],[12.43,55.6153],[12.43,55.6149],[12.4301,55.6148],[12.4301,55.6147],[12.4303,55.6146],[12.4304,55.6145],[12.4307,55.6144],[12.4308,55.6144],[12.4309,55.6146],[12.4307,55.6149],[12.4307,55.6149],[12.4307,55.6153],[12.4306,55.6154],[12.4306,55.6155],[12.4306,55.6157],[12.4305,55.6158],[12.4309,55.6158],[12.4315,55.6157],[12.4326,55.6156],[12.4337,55.6156],[12.435,55.6156],[12.4363,55.6156],[12.4374,55.6155],[12.438,55.6156],[12.4389,55.6156],[12.44,55.6155],[12.4413,55.6154],[12.4419,55.6153],[12.4423,55.6151],[12.4428,55.6151],[12.4432,55.6151],[12.4435,55.6152],[12.4435,55.6152],[12.4435,55.615],[12.4434,55.6149],[12.4434,55.6148],[12.4434,55.6144],[12.4436,55.6141],[12.4438,55.6137],[12.444,55.6133],[12.4442,55.6129],[12.4442,55.6126],[12.4442,55.6124],[12.444,55.6123],[12.4438,55.6125],[12.4436,55.6126],[12.4429,55.6127],[12.4418,55.6128],[12.441,55.6129],[12.4405,55.6129],[12.4397,55.6129],[12.4391,55.6131],[12.4387,55.6131],[12.4382,55.6131],[12.4375,55.6131],[12.4368,55.6132],[12.4364,55.6132],[12.4359,55.6133],[12.4355,55.6135],[12.4352,55.6136],[12.4349,55.6136],[12.4344,55.6136],[12.4336,55.6137],[12.4323,55.6138],[12.4319,55.6138],[12.4316,55.6139],[12.4311,55.6141],[12.431,55.6142],[12.4308,55.6143],[12.4304,55.6142],[12.43,55.6141],[12.4295,55.614],[12.4289,55.614],[12.4285,55.6141],[12.4282,55.6142],[12.4279,55.6142],[12.4274,55.6141],[12.4268,55.6141],[12.4262,55.614],[12.4258,55.614],[12.4255,55.6141],[12.4248,55.6141],[12.4242,55.6141],[12.4238,55.6141],[12.4232,55.6142],[12.4228,55.6142],[12.4224,55.6142],[12.4222,55.6143],[12.4219,55.6143],[12.4216,55.6142],[12.4212,55.6143],[12.4207,55.6143],[12.4199,55.6143],[12.4193,55.6144],[12.4189,55.6144],[12.4183,55.6144],[12.4176,55.6144],[12.417,55.6145],[12.4164,55.6144],[12.4157,55.6143],[12.4154,55.6143],[12.415,55.6144],[12.4143,55.6145],[12.4137,55.6145],[12.413,55.6145],[12.4122,55.6144],[12.4116,55.6144],[12.4112,55.6145],[12.4111,55.6146],[12.4104,55.6145],[12.4099,55.6145],[12.4092,55.6146],[12.4088,55.6146],[12.408,55.6145],[12.4076,55.6145],[12.4068,55.6145],[12.406,55.6146],[12.4051,55.6145],[12.405,55.6145]],[[12.4334,55.6149],[12.4334,55.6148],[12.4337,55.6148],[12.4342,55.6148],[12.4346,55.6147],[12.435,55.6147],[12.435,55.6148],[12.4349,55.6148],[12.4347,55.6149],[12.4346,55.615],[12.4345,55.6151],[12.4342,55.6151],[12.4339,55.6151],[12.4335,55.6151],[12.4333,55.615],[12.4329,55.6148],[12.4329,55.6148],[12.4331,55.6147],[12.4334,55.6149]],[[12.4378,55.6147],[12.4378,55.6147],[12.4379,55.6146],[12.4382,55.6146],[12.4384,55.6146],[12.4385,55.6146],[12.4387,55.6145],[12.4391,55.6145],[12.4393,55.6145],[12.4394,55.6146],[12.4393,55.6147],[12.439,55.6148],[12.4388,55.6148],[12.4384,55.6148],[12.4382,55.6149],[12.438,55.6149],[12.4379,55.6149],[12.4377,55.6148],[12.4375,55.6147],[12.4375,55.6146],[12.4378,55.6147]]]},"properties":{"sourceId":"ais_par3.135796","a_type":5120,"hectares":61.977}},{"type":"Feature","id":"ais_par3.135801","geometry":{"type":"Polygon","coordinates":[[[12.4486,55.615],[12.4485,55.615],[12.4484,55.6149],[12.4483,55.615],[12.4482,55.615],[12.4482,55.615],[12.4483,55.6151],[12.4483,55.6151],[12.4485,55.6151],[12.4485,55.615],[12.4485,55.615],[12.4485,55.615],[12.4486,55.615]]]},"properties":{"sourceId":"ais_par3.135801","a_type":5120,"hectares":0.022}},{"type":"Feature","id":"ais_par3.135802","geometry":{"type":"Polygon","coordinates":[[[12.448,55.6146],[12.4479,55.6146],[12.4478,55.6146],[12.4478,55.6147],[12.4477,55.6147],[12.4477,55.6148],[12.4477,55.6148],[12.4478,55.6148],[12.4479,55.6148],[12.4479,55.6148],[12.448,55.6147],[12.448,55.6147],[12.448,55.6147],[12.448,55.6147],[12.448,55.6146],[12.448,55.6146]]]},"properties":{"sourceId":"ais_par3.135802","a_type":5120,"hectares":0.03}},{"type":"Feature","id":"ais_par3.135821","geometry":{"type":"Polygon","coordinates":[[[12.4552,55.604],[12.4551,55.604],[12.4551,55.6041],[12.4552,55.6041],[12.4554,55.6042],[12.4557,55.6042],[12.4559,55.6042],[12.4562,55.6043],[12.4562,55.6043],[12.4562,55.6044],[12.4562,55.6044],[12.4563,55.6044],[12.4564,55.6045],[12.4566,55.6045],[12.4567,55.6046],[12.4567,55.6047],[12.4567,55.6048],[12.4568,55.6048],[12.4568,55.6049],[12.4569,55.6051],[12.4571,55.6052],[12.4573,55.6051],[12.4574,55.6051],[12.4576,55.6051],[12.4576,55.605],[12.4575,55.6049],[12.4574,55.6048],[12.4573,55.6047],[12.4572,55.6046],[12.457,55.6044],[12.4567,55.6041],[12.4565,55.604],[12.4562,55.604],[12.4552,55.604]]]},"properties":{"sourceId":"ais_par3.135821","a_type":5120,"hectares":0.663}},{"type":"Feature","id":"ais_par3.136171","geometry":{"type":"Polygon","coordinates":[[[12.3651,55.613],[12.3653,55.6132],[12.3655,55.6131],[12.3657,55.613],[12.3655,55.6128],[12.3653,55.613],[12.3651,55.613]]]},"properties":{"sourceId":"ais_par3.136171","a_type":5120,"hectares":0.066}},{"type":"Feature","id":"ais_par3.136177","geometry":{"type":"Polygon","coordinates":[[[12.3611,55.6107],[12.3609,55.6109],[12.3606,55.611],[12.3606,55.611],[12.3609,55.611],[12.3612,55.611],[12.3615,55.611],[12.3614,55.6108],[12.3611,55.6107],[12.3611,55.6107]]]},"properties":{"sourceId":"ais_par3.136177","a_type":5120,"hectares":0.108}},{"type":"Feature","id":"ais_par3.136181","geometry":{"type":"Polygon","coordinates":[[[12.364,55.6246],[12.364,55.6247],[12.3643,55.6248],[12.3646,55.6248],[12.3648,55.6249],[12.3651,55.6248],[12.365,55.6247],[12.3647,55.6246],[12.3645,55.6246],[12.3643,55.6245],[12.3641,55.6245],[12.364,55.6246],[12.364,55.6246]]]},"properties":{"sourceId":"ais_par3.136181","a_type":5120,"hectares":0.133}},{"type":"Feature","id":"ais_par3.136189","geometry":{"type":"Polygon","coordinates":[[[12.3595,55.6158],[12.3596,55.6159],[12.3599,55.6159],[12.36,55.6159],[12.36,55.6157],[12.3598,55.6156],[12.3597,55.6154],[12.3595,55.6153],[12.3593,55.6152],[12.3592,55.6151],[12.3591,55.615],[12.359,55.6151],[12.3592,55.6153],[12.3593,55.6155],[12.3594,55.6158],[12.3595,55.6158]]]},"properties":{"sourceId":"ais_par3.136189","a_type":5120,"hectares":0.258}},{"type":"Feature","id":"ais_par3.136193","geometry":{"type":"Polygon","coordinates":[[[12.3777,55.6082],[12.3775,55.6082],[12.377,55.6087],[12.3776,55.6091],[12.3782,55.6095],[12.3785,55.6097],[12.3788,55.6098],[12.3792,55.6098],[12.3797,55.61],[12.3799,55.6102],[12.3795,55.6103],[12.3796,55.6105],[12.3801,55.6102],[12.3805,55.6105],[12.3808,55.611],[12.3813,55.6114],[12.3819,55.6118],[12.3825,55.6122],[12.3831,55.6127],[12.383,55.6129],[12.3831,55.613],[12.3837,55.6127],[12.3831,55.6123],[12.3824,55.6118],[12.382,55.6115],[12.3815,55.6111],[12.3809,55.6106],[12.3803,55.6101],[12.3797,55.6097],[12.379,55.6092],[12.3784,55.6087],[12.378,55.6084],[12.3777,55.6082]]]},"properties":{"sourceId":"ais_par3.136193","a_type":5120,"hectares":2.425}},{"type":"Feature","id":"ais_par3.136194","geometry":{"type":"Polygon","coordinates":[[[12.3761,55.6077],[12.3761,55.6076],[12.3761,55.6075],[12.3767,55.607],[12.3775,55.6062],[12.3778,55.6059],[12.3783,55.6058],[12.3792,55.6058],[12.3797,55.6058],[12.3809,55.6057],[12.3817,55.6058],[12.3823,55.6059],[12.3829,55.6059],[12.3832,55.6059],[12.3836,55.6055],[12.3839,55.6053],[12.3841,55.605],[12.3844,55.6046],[12.3844,55.6045],[12.3839,55.6043],[12.3832,55.6041],[12.3824,55.6038],[12.382,55.6035],[12.3815,55.6033],[12.3813,55.6033],[12.3801,55.6031],[12.3795,55.6029],[12.3789,55.6027],[12.3783,55.6023],[12.3773,55.6019],[12.3767,55.6017],[12.3763,55.6015],[12.3753,55.6015],[12.3748,55.6013],[12.3738,55.6011],[12.3734,55.6008],[12.373,55.6011],[12.3726,55.6012],[12.3726,55.6016],[12.3722,55.6018],[12.3719,55.6018],[12.3713,55.602],[12.371,55.6021],[12.3704,55.6023],[12.3702,55.6026],[12.3699,55.6027],[12.3693,55.6027],[12.3688,55.6026],[12.368,55.6025],[12.3676,55.6026],[12.3673,55.6028],[12.3667,55.6029],[12.3666,55.6029],[12.3668,55.6029],[12.3665,55.603],[12.3665,55.603],[12.3666,55.6034],[12.3668,55.6036],[12.367,55.6037],[12.3674,55.6037],[12.3675,55.6035],[12.3679,55.6036],[12.3682,55.6037],[12.3681,55.6039],[12.3685,55.6038],[12.3688,55.604],[12.3691,55.6041],[12.3691,55.604],[12.3692,55.6038],[12.3696,55.6039],[12.3699,55.6041],[12.3698,55.6042],[12.3698,55.6043],[12.3701,55.6043],[12.3704,55.6044],[12.3709,55.6045],[12.3712,55.6046],[12.3711,55.6049],[12.3711,55.6051],[12.3717,55.6053],[12.3722,55.6056],[12.3728,55.606],[12.3733,55.6062],[12.3738,55.6065],[12.3739,55.6066],[12.3741,55.6066],[12.3745,55.6068],[12.3746,55.607],[12.3749,55.6073],[12.3754,55.6074],[12.3757,55.6076],[12.376,55.6078],[12.3761,55.6077]]]},"properties":{"sourceId":"ais_par3.136194","a_type":5120,"hectares":38.724}},{"type":"Feature","id":"ais_par3.136593","geometry":{"type":"Polygon","coordinates":[[[12.4621,55.6173],[12.462,55.6172],[12.4619,55.6172],[12.4616,55.6173],[12.4613,55.6173],[12.461,55.6173],[12.4607,55.6173],[12.4604,55.6172],[12.4602,55.6172],[12.4597,55.617],[12.4596,55.6169],[12.4595,55.6169],[12.4593,55.617],[12.4591,55.617],[12.4589,55.6169],[12.4588,55.6169],[12.4587,55.6169],[12.4587,55.617],[12.4588,55.617],[12.4589,55.617],[12.4594,55.6171],[12.4596,55.6171],[12.4596,55.6171],[12.4597,55.6172],[12.4598,55.6172],[12.46,55.6172],[12.4603,55.6173],[12.4606,55.6174],[12.4611,55.6175],[12.4612,55.6175],[12.4614,55.6175],[12.4615,55.6176],[12.4617,55.6176],[12.4618,55.6175],[12.4618,55.6175],[12.4622,55.6174],[12.4621,55.6173]]]},"properties":{"sourceId":"ais_par3.136593","a_type":4210,"hectares":0.369}},{"type":"Feature","id":"ais_par3.136594","geometry":{"type":"Polygon","coordinates":[[[12.4585,55.6111],[12.4586,55.6111],[12.4585,55.6111],[12.4584,55.6111],[12.4583,55.6111],[12.4582,55.611],[12.4581,55.611],[12.4581,55.611],[12.458,55.611],[12.4578,55.611],[12.4576,55.611],[12.4576,55.611],[12.4575,55.6109],[12.4574,55.611],[12.4573,55.611],[12.4572,55.611],[12.4571,55.611],[12.4571,55.6109],[12.457,55.6108],[12.4569,55.6108],[12.4568,55.6108],[12.4567,55.6108],[12.4567,55.6108],[12.4567,55.6109],[12.4567,55.611],[12.4567,55.611],[12.4569,55.6112],[12.457,55.6112],[12.4573,55.6113],[12.4574,55.6113],[12.4574,55.6113],[12.4574,55.6114],[12.4574,55.6115],[12.4574,55.6116],[12.4574,55.6117],[12.4575,55.6117],[12.4576,55.6116],[12.4577,55.6116],[12.4579,55.6116],[12.4579,55.6115],[12.458,55.6115],[12.4581,55.6113],[12.4582,55.6112],[12.4583,55.6112],[12.4584,55.6111],[12.4585,55.6111]]]},"properties":{"sourceId":"ais_par3.136594","a_type":4210,"hectares":0.479}},{"type":"Feature","id":"ais_par3.136595","geometry":{"type":"Polygon","coordinates":[[[12.4478,55.606],[12.4481,55.606],[12.4483,55.6059],[12.4485,55.6059],[12.4487,55.6058],[12.4488,55.6058],[12.4488,55.6057],[12.4489,55.6056],[12.449,55.6054],[12.449,55.6053],[12.449,55.6052],[12.4488,55.6051],[12.4487,55.6051],[12.4484,55.6051],[12.4482,55.6051],[12.448,55.6054],[12.448,55.6055],[12.448,55.6056],[12.448,55.6056],[12.4479,55.6057],[12.4478,55.6058],[12.4477,55.6059],[12.4477,55.6059],[12.4478,55.606],[12.4478,55.606]]]},"properties":{"sourceId":"ais_par3.136595","a_type":4210,"hectares":0.557}},{"type":"Feature","id":"ais_par3.136596","geometry":{"type":"Polygon","coordinates":[[[12.4476,55.6145],[12.4475,55.6146],[12.4475,55.6146],[12.4474,55.6145],[12.4473,55.6145],[12.4472,55.6144],[12.4471,55.6143],[12.447,55.6143],[12.4468,55.6143],[12.4467,55.6144],[12.4467,55.6144],[12.4468,55.6145],[12.4469,55.6146],[12.4468,55.6147],[12.4468,55.6148],[12.4468,55.6149],[12.4468,55.615],[12.447,55.6151],[12.447,55.6152],[12.4471,55.6153],[12.4472,55.6153],[12.4472,55.6154],[12.4473,55.6154],[12.4476,55.6155],[12.4479,55.6155],[12.4482,55.6154],[12.4485,55.6154],[12.4487,55.6154],[12.4488,55.6153],[12.4489,55.6152],[12.4488,55.6152],[12.4488,55.6151],[12.4486,55.615],[12.4486,55.6149],[12.4485,55.6149],[12.4484,55.6149],[12.4483,55.6148],[12.4482,55.6148],[12.4482,55.6147],[12.4481,55.6146],[12.448,55.6146],[12.4479,55.6145],[12.4478,55.6145],[12.4476,55.6145]],[[12.4477,55.6154],[12.4477,55.6154],[12.4476,55.6154],[12.4475,55.6154],[12.4475,55.6154],[12.4474,55.6154],[12.4473,55.6154],[12.4473,55.6153],[12.4472,55.6152],[12.4473,55.6152],[12.4473,55.6152],[12.4473,55.6151],[12.4473,55.6151],[12.4473,55.615],[12.4473,55.615],[12.4474,55.615],[12.4475,55.615],[12.4475,55.6151],[12.4476,55.6152],[12.4477,55.6152],[12.4478,55.6152],[12.448,55.6153],[12.4481,55.6153],[12.4481,55.6153],[12.448,55.6154],[12.4479,55.6154],[12.4477,55.6154]],[[12.4472,55.6145],[12.4472,55.6145],[12.4472,55.6145],[12.4473,55.6145],[12.4473,55.6146],[12.4473,55.6146],[12.4473,55.6147],[12.4473,55.6147],[12.4473,55.6147],[12.4472,55.6148],[12.4472,55.6149],[12.4472,55.6149],[12.4471,55.6149],[12.4471,55.6148],[12.447,55.6148],[12.447,55.6147],[12.447,55.6146],[12.4471,55.6146],[12.4471,55.6145],[12.447,55.6145],[12.4469,55.6144],[12.447,55.6144],[12.447,55.6144],[12.4471,55.6144],[12.4471,55.6145],[12.4472,55.6145]],[[12.448,55.6146],[12.448,55.6146],[12.448,55.6147],[12.448,55.6147],[12.448,55.6147],[12.448,55.6147],[12.4479,55.6148],[12.4479,55.6148],[12.4478,55.6148],[12.4477,55.6148],[12.4477,55.6148],[12.4477,55.6147],[12.4478,55.6147],[12.4478,55.6146],[12.4479,55.6146],[12.448,55.6146]],[[12.4486,55.615],[12.4485,55.615],[12.4485,55.615],[12.4485,55.615],[12.4485,55.6151],[12.4483,55.6151],[12.4483,55.6151],[12.4482,55.615],[12.4482,55.615],[12.4483,55.615],[12.4484,55.6149],[12.4485,55.615],[12.4486,55.615]]]},"properties":{"sourceId":"ais_par3.136596","a_type":4210,"hectares":0.818}},{"type":"Feature","id":"ais_par3.136602","geometry":{"type":"Polygon","coordinates":[[[12.3824,55.6113],[12.3824,55.6111],[12.3796,55.609],[12.3795,55.6089],[12.3794,55.609],[12.3797,55.6092],[12.3803,55.6096],[12.3807,55.61],[12.3812,55.6103],[12.3818,55.6108],[12.3821,55.611],[12.3824,55.6113],[12.3824,55.6113]]]},"properties":{"sourceId":"ais_par3.136602","a_type":4210,"hectares":0.237}},{"type":"Feature","id":"ais_par3.136603","geometry":{"type":"Polygon","coordinates":[[[12.3786,55.6083],[12.3785,55.6082],[12.3785,55.6082],[12.3784,55.6081],[12.3783,55.6082],[12.3784,55.6083],[12.3786,55.6084],[12.3787,55.6084],[12.3788,55.6085],[12.3788,55.6086],[12.379,55.6087],[12.3791,55.6087],[12.3791,55.6087],[12.3786,55.6083]]]},"properties":{"sourceId":"ais_par3.136603","a_type":4210,"hectares":0.066}},{"type":"Feature","id":"ais_par3.136604","geometry":{"type":"Polygon","coordinates":[[[12.3795,55.6073],[12.3796,55.6073],[12.3797,55.6072],[12.3797,55.6071],[12.3796,55.6071],[12.3796,55.6071],[12.3796,55.6071],[12.3795,55.6072],[12.3794,55.6072],[12.3795,55.6073],[12.3795,55.6073]]]},"properties":{"sourceId":"ais_par3.136604","a_type":4210,"hectares":0.018}},{"type":"Feature","id":"ais_par3.136605","geometry":{"type":"Polygon","coordinates":[[[12.3785,55.6078],[12.3784,55.6078],[12.3783,55.6079],[12.3783,55.608],[12.3785,55.6078]]]},"properties":{"sourceId":"ais_par3.136605","a_type":4210,"hectares":0.004}},{"type":"Feature","id":"ais_par3.136606","geometry":{"type":"Polygon","coordinates":[[[12.3889,55.6078],[12.389,55.6079],[12.3891,55.6079],[12.3891,55.6079],[12.3891,55.6079],[12.3891,55.6079],[12.389,55.6078],[12.389,55.6078],[12.3889,55.6077],[12.3889,55.6078]]]},"properties":{"sourceId":"ais_par3.136606","a_type":4210,"hectares":0.012}},{"type":"Feature","id":"ais_par3.136607","geometry":{"type":"Polygon","coordinates":[[[12.3904,55.6076],[12.3904,55.6076],[12.3901,55.6077],[12.3901,55.6077],[12.3903,55.6077],[12.3904,55.6076]]]},"properties":{"sourceId":"ais_par3.136607","a_type":4210,"hectares":0.006}},{"type":"Feature","id":"ais_par3.136612","geometry":{"type":"Polygon","coordinates":[[[12.3757,55.6076],[12.3754,55.6074],[12.3749,55.6073],[12.3746,55.607],[12.3745,55.6068],[12.3741,55.6066],[12.3739,55.6066],[12.3738,55.6065],[12.3733,55.6062],[12.3728,55.606],[12.3722,55.6056],[12.3717,55.6053],[12.3711,55.6051],[12.3711,55.6049],[12.3712,55.6046],[12.3709,55.6045],[12.3704,55.6044],[12.3701,55.6043],[12.3698,55.6043],[12.3698,55.6042],[12.3699,55.6041],[12.3696,55.6039],[12.3692,55.6038],[12.3691,55.604],[12.3691,55.6041],[12.3688,55.604],[12.3685,55.6038],[12.3681,55.6039],[12.3682,55.6037],[12.3679,55.6036],[12.3675,55.6035],[12.3674,55.6037],[12.367,55.6037],[12.3668,55.6036],[12.3666,55.6034],[12.3663,55.6038],[12.3662,55.6039],[12.3661,55.6041],[12.3658,55.6041],[12.3656,55.6041],[12.3655,55.6042],[12.3658,55.6044],[12.3657,55.6047],[12.3661,55.6049],[12.3667,55.605],[12.3674,55.6047],[12.3677,55.6047],[12.3678,55.6048],[12.3676,55.605],[12.3669,55.6052],[12.3665,55.6054],[12.367,55.6057],[12.3677,55.606],[12.3681,55.6063],[12.3686,55.6062],[12.3689,55.6061],[12.3691,55.6062],[12.3686,55.6064],[12.369,55.6067],[12.3692,55.6066],[12.3694,55.6068],[12.3697,55.6068],[12.3695,55.6071],[12.3699,55.6074],[12.3701,55.6075],[12.3702,55.6074],[12.3705,55.6074],[12.3707,55.6075],[12.3705,55.6076],[12.3708,55.6078],[12.3704,55.6079],[12.3707,55.6081],[12.3711,55.608],[12.3712,55.6081],[12.371,55.6082],[12.3711,55.6082],[12.3715,55.6082],[12.3716,55.6083],[12.3714,55.6084],[12.3714,55.6085],[12.3717,55.6084],[12.3719,55.6084],[12.3722,55.6085],[12.3723,55.6085],[12.3726,55.6087],[12.373,55.6088],[12.3737,55.6092],[12.3742,55.6094],[12.3752,55.61],[12.3759,55.6094],[12.3766,55.6089],[12.377,55.6087],[12.3775,55.6082],[12.3769,55.6082],[12.3765,55.6083],[12.376,55.6078],[12.3757,55.6076]]]},"properties":{"sourceId":"ais_par3.136612","a_type":4210,"hectares":18.868}},{"type":"Feature","id":"ais_par3.136616","geometry":{"type":"Polygon","coordinates":[[[12.3975,55.6134],[12.3975,55.6133],[12.3971,55.6134],[12.3968,55.6136],[12.3965,55.6138],[12.396,55.6143],[12.3957,55.6144],[12.3955,55.6145],[12.3952,55.6144],[12.3947,55.6142],[12.3947,55.6141],[12.3944,55.614],[12.3943,55.614],[12.3943,55.6141],[12.3948,55.6143],[12.3951,55.6144],[12.3954,55.6145],[12.3956,55.6145],[12.396,55.6144],[12.3963,55.6142],[12.3965,55.614],[12.3967,55.6138],[12.3969,55.6136],[12.3971,55.6135],[12.3973,55.6135],[12.3975,55.6134],[12.3975,55.6134]]]},"properties":{"sourceId":"ais_par3.136616","a_type":4210,"hectares":0.193}},{"type":"Feature","id":"ais_par3.136617","geometry":{"type":"Polygon","coordinates":[[[12.3933,55.615],[12.3933,55.6149],[12.3931,55.6148],[12.3929,55.6148],[12.3926,55.6148],[12.3916,55.6146],[12.391,55.6145],[12.3905,55.6144],[12.3901,55.6144],[12.3901,55.6142],[12.3902,55.614],[12.3902,55.6139],[12.3902,55.6137],[12.3897,55.6137],[12.389,55.6137],[12.3878,55.6137],[12.3874,55.6136],[12.3865,55.6134],[12.386,55.6132],[12.3856,55.6131],[12.3851,55.613],[12.3846,55.613],[12.3842,55.6129],[12.3839,55.6129],[12.3839,55.613],[12.3844,55.613],[12.3852,55.6131],[12.3855,55.6131],[12.3863,55.6134],[12.3869,55.6136],[12.3874,55.6137],[12.3879,55.6137],[12.3888,55.6137],[12.3894,55.6137],[12.3899,55.6138],[12.3901,55.6138],[12.3901,55.614],[12.39,55.6142],[12.39,55.6144],[12.3902,55.6145],[12.3917,55.6147],[12.3923,55.6148],[12.393,55.6149],[12.3933,55.615],[12.3933,55.615]]]},"properties":{"sourceId":"ais_par3.136617","a_type":4210,"hectares":0.477}},{"type":"Feature","id":"ais_par3.136618","geometry":{"type":"Polygon","coordinates":[[[12.3952,55.6148],[12.3945,55.6145],[12.3939,55.6143],[12.3933,55.614],[12.3927,55.6138],[12.3923,55.6136],[12.3918,55.6135],[12.3912,55.6134],[12.3912,55.6136],[12.3915,55.6139],[12.3921,55.6141],[12.3928,55.6143],[12.3936,55.6145],[12.3942,55.6146],[12.3954,55.6149],[12.3952,55.6148]]]},"properties":{"sourceId":"ais_par3.136618","a_type":4210,"hectares":0.865}},{"type":"Feature","id":"ais_par3.136622","geometry":{"type":"Polygon","coordinates":[[[12.3808,55.6144],[12.3813,55.6141],[12.3819,55.6137],[12.3824,55.6134],[12.3828,55.6131],[12.3831,55.613],[12.383,55.6129],[12.3831,55.6127],[12.3825,55.6122],[12.3819,55.6118],[12.3813,55.6114],[12.3808,55.611],[12.3805,55.6105],[12.3801,55.6102],[12.3796,55.6105],[12.3795,55.6103],[12.3799,55.6102],[12.3797,55.61],[12.3792,55.6098],[12.3787,55.6099],[12.3784,55.6098],[12.3779,55.6095],[12.3776,55.6092],[12.3773,55.6091],[12.3771,55.6092],[12.3766,55.6091],[12.3757,55.6099],[12.3754,55.61],[12.3754,55.6103],[12.3757,55.6106],[12.3766,55.6111],[12.377,55.6114],[12.3766,55.6118],[12.376,55.6122],[12.3756,55.6126],[12.3753,55.6128],[12.3759,55.6131],[12.3765,55.6134],[12.3773,55.6138],[12.3777,55.614],[12.3774,55.6143],[12.377,55.6146],[12.3767,55.6149],[12.3765,55.6151],[12.3761,55.6152],[12.3759,55.6153],[12.3754,55.6157],[12.3762,55.616],[12.3769,55.6162],[12.3779,55.6166],[12.3785,55.6167],[12.3792,55.6168],[12.3799,55.617],[12.3804,55.6172],[12.3812,55.6164],[12.3817,55.6161],[12.3821,55.6157],[12.3826,55.6153],[12.382,55.6151],[12.3814,55.6149],[12.381,55.6146],[12.3808,55.6144]]]},"properties":{"sourceId":"ais_par3.136622","a_type":4210,"hectares":26.281}},{"type":"Feature","id":"ais_par3.137274","geometry":{"type":"Polygon","coordinates":[[[12.3673,55.6239],[12.3676,55.6237],[12.3679,55.6235],[12.3685,55.6229],[12.3687,55.6226],[12.3689,55.6224],[12.3691,55.6222],[12.3695,55.6219],[12.3691,55.6217],[12.3684,55.6213],[12.368,55.6211],[12.3677,55.6212],[12.3669,55.6215],[12.3666,55.6217],[12.3664,55.6219],[12.3661,55.6221],[12.3654,55.6226],[12.365,55.6227],[12.3647,55.6228],[12.364,55.6232],[12.3631,55.6235],[12.3626,55.6237],[12.3622,55.6239],[12.3625,55.624],[12.363,55.6241],[12.3634,55.6242],[12.3638,55.6243],[12.3643,55.6243],[12.365,55.6245],[12.3653,55.6247],[12.3654,55.6248],[12.3655,55.6249],[12.3658,55.6247],[12.3662,55.6245],[12.3666,55.6243],[12.3669,55.6241],[12.3673,55.6239],[12.3673,55.6239]]]},"properties":{"sourceId":"ais_par3.137274","a_type":4110,"hectares":8.045}},{"type":"Feature","id":"ais_par3.137344","geometry":{"type":"Polygon","coordinates":[[[12.3591,55.6305],[12.3599,55.6304],[12.3608,55.6302],[12.3616,55.6301],[12.3625,55.6301],[12.3635,55.63],[12.3635,55.6296],[12.3635,55.6291],[12.3626,55.6292],[12.3618,55.6293],[12.3607,55.6295],[12.3598,55.6296],[12.3588,55.6297],[12.3589,55.63],[12.3591,55.6305]]]},"properties":{"sourceId":"ais_par3.137344","a_type":4110,"hectares":2.587}},{"type":"Feature","id":"ais_par3.137345","geometry":{"type":"Polygon","coordinates":[[[12.3432,55.6355],[12.3443,55.6357],[12.3454,55.6359],[12.3463,55.6361],[12.3471,55.6362],[12.3479,55.6364],[12.3482,55.6361],[12.3485,55.6357],[12.3489,55.6354],[12.3492,55.6351],[12.3499,55.6346],[12.3502,55.6343],[12.3506,55.634],[12.3508,55.6337],[12.3511,55.6334],[12.3514,55.6331],[12.3523,55.6333],[12.3528,55.6335],[12.3537,55.6338],[12.3544,55.6341],[12.3542,55.6343],[12.3539,55.6347],[12.3535,55.635],[12.3527,55.6357],[12.3527,55.6358],[12.3532,55.6359],[12.3537,55.636],[12.3545,55.6363],[12.3554,55.6364],[12.356,55.6361],[12.3567,55.6357],[12.357,55.6353],[12.3575,55.635],[12.3581,55.6346],[12.3584,55.6344],[12.3588,55.6341],[12.3592,55.6336],[12.3595,55.6333],[12.3589,55.6331],[12.3582,55.6328],[12.3578,55.6326],[12.3574,55.6324],[12.3574,55.6323],[12.3589,55.6321],[12.3597,55.632],[12.3605,55.6319],[12.3613,55.6318],[12.3621,55.6317],[12.3626,55.6316],[12.3632,55.6316],[12.3633,55.6313],[12.3633,55.631],[12.3634,55.6307],[12.364,55.6307],[12.3647,55.6307],[12.3654,55.6307],[12.3662,55.6307],[12.3671,55.6308],[12.3675,55.6305],[12.3678,55.6302],[12.3671,55.6302],[12.3664,55.6302],[12.3656,55.6302],[12.3648,55.6302],[12.3642,55.6302],[12.3634,55.6301],[12.3626,55.6302],[12.3616,55.6304],[12.3607,55.6305],[12.3599,55.6307],[12.3592,55.6307],[12.3591,55.6305],[12.3584,55.6307],[12.3576,55.631],[12.357,55.6312],[12.3565,55.6316],[12.3561,55.6319],[12.3558,55.6322],[12.3555,55.6325],[12.3561,55.6328],[12.3554,55.6334],[12.3548,55.633],[12.3539,55.6327],[12.3531,55.6324],[12.3523,55.6322],[12.3525,55.6321],[12.3528,55.6318],[12.3531,55.6315],[12.3536,55.631],[12.354,55.6307],[12.3542,55.6305],[12.3545,55.6303],[12.3548,55.63],[12.355,55.6298],[12.3555,55.6292],[12.3557,55.6289],[12.356,55.6287],[12.3564,55.6284],[12.3569,55.6282],[12.3578,55.6277],[12.3589,55.6273],[12.3594,55.6271],[12.36,55.627],[12.3604,55.6269],[12.3599,55.6266],[12.3593,55.6264],[12.3586,55.6261],[12.3582,55.626],[12.3579,55.6258],[12.3574,55.6258],[12.3569,55.6259],[12.3565,55.6259],[12.356,55.626],[12.3556,55.626],[12.3551,55.6259],[12.3544,55.626],[12.3538,55.626],[12.3533,55.626],[12.3529,55.6261],[12.3525,55.6262],[12.352,55.6262],[12.3515,55.6264],[12.3513,55.6266],[12.3511,55.6268],[12.3509,55.627],[12.3506,55.6273],[12.3505,55.6275],[12.3504,55.6278],[12.3502,55.6282],[12.3502,55.6285],[12.3501,55.6288],[12.35,55.6292],[12.3499,55.6295],[12.3498,55.6297],[12.3497,55.63],[12.3496,55.6302],[12.3493,55.6304],[12.3485,55.6308],[12.3481,55.6309],[12.3477,55.6311],[12.3473,55.6313],[12.347,55.6315],[12.3466,55.6317],[12.3464,55.6318],[12.346,55.6323],[12.3458,55.6326],[12.3457,55.6328],[12.3455,55.6329],[12.3453,55.6331],[12.3447,55.6337],[12.3444,55.6339],[12.3442,55.6342],[12.3439,55.6345],[12.3437,55.6349],[12.3435,55.6352],[12.3432,55.6355],[12.3432,55.6355]],[[12.3559,55.6325],[12.3559,55.6324],[12.356,55.6324],[12.3561,55.6324],[12.356,55.6325],[12.3559,55.6325]],[[12.3523,55.6331],[12.3524,55.6331],[12.3525,55.6331],[12.3525,55.6332],[12.3524,55.6332],[12.3523,55.6331]]]},"properties":{"sourceId":"ais_par3.137345","a_type":4110,"hectares":64.249}}]}
