{"type":"FeatureCollection","metadata":{"kommuneKode":"0155","kommuneNavn":"Dragør","source":"https://wfs2-miljoegis.mim.dk/natur/ows","layer":"natur:ais_par3","bbox":[12.5566402840943,55.53632710808736,12.71173401912118,55.60865769327159],"fetchedAt":"2026-06-12T20:55:36.198507+00:00"},"features":[{"type":"Feature","id":"ais_par3.135011","geometry":{"type":"Polygon","coordinates":[[[12.6663,55.6009],[12.6664,55.6009],[12.6672,55.6008],[12.6676,55.6008],[12.6677,55.6007],[12.6679,55.6007],[12.668,55.6006],[12.6681,55.6003],[12.6682,55.5999],[12.6684,55.5996],[12.6686,55.5992],[12.6688,55.5987],[12.669,55.5984],[12.6691,55.5981],[12.6693,55.5977],[12.6693,55.5975],[12.6689,55.5975],[12.6685,55.5976],[12.6681,55.5977],[12.668,55.5981],[12.6679,55.5983],[12.6677,55.5985],[12.6676,55.5987],[12.6674,55.599],[12.6675,55.5992],[12.6675,55.5994],[12.6674,55.5995],[12.6673,55.5996],[12.6672,55.5998],[12.6671,55.5999],[12.6671,55.6002],[12.667,55.6003],[12.6669,55.6004],[12.6667,55.6006],[12.6665,55.6006],[12.6664,55.6007],[12.6663,55.6009]]]},"properties":{"sourceId":"ais_par3.135011","a_type":3210,"hectares":2.657}},{"type":"Feature","id":"ais_par3.135112","geometry":{"type":"Polygon","coordinates":[[[12.5694,55.583],[12.5695,55.583],[12.5695,55.583],[12.5694,55.5829],[12.5694,55.5829],[12.5693,55.5829],[12.5692,55.5829],[12.5692,55.583],[12.5693,55.583],[12.5694,55.583],[12.5694,55.583]]]},"properties":{"sourceId":"ais_par3.135112","a_type":5120,"hectares":0.023}},{"type":"Feature","id":"ais_par3.135113","geometry":{"type":"Polygon","coordinates":[[[12.5953,55.591],[12.5952,55.5909],[12.5952,55.5909],[12.5951,55.5909],[12.595,55.591],[12.595,55.591],[12.595,55.5911],[12.5951,55.5911],[12.5952,55.5911],[12.5953,55.5911],[12.5953,55.5911],[12.5953,55.591],[12.5953,55.591],[12.5953,55.591]]]},"properties":{"sourceId":"ais_par3.135113","a_type":5120,"hectares":0.037}},{"type":"Feature","id":"ais_par3.135114","geometry":{"type":"Polygon","coordinates":[[[12.5838,55.5899],[12.5839,55.5899],[12.584,55.5898],[12.5839,55.5897],[12.5838,55.5897],[12.5837,55.5897],[12.5836,55.5898],[12.5836,55.5898],[12.5837,55.5899],[12.5838,55.5899],[12.5838,55.5899],[12.5838,55.5899]]]},"properties":{"sourceId":"ais_par3.135114","a_type":5120,"hectares":0.041}},{"type":"Feature","id":"ais_par3.135115","geometry":{"type":"Polygon","coordinates":[[[12.6067,55.6038],[12.6068,55.6038],[12.6068,55.6037],[12.6067,55.6036],[12.6067,55.6036],[12.6066,55.6035],[12.6065,55.6036],[12.6065,55.6036],[12.6065,55.6037],[12.6065,55.6038],[12.6066,55.6038],[12.6067,55.6038]]]},"properties":{"sourceId":"ais_par3.135115","a_type":5120,"hectares":0.044}},{"type":"Feature","id":"ais_par3.135116","geometry":{"type":"Polygon","coordinates":[[[12.5849,55.5856],[12.585,55.5856],[12.5851,55.5856],[12.5852,55.5855],[12.5852,55.5854],[12.5851,55.5854],[12.585,55.5854],[12.5848,55.5854],[12.5848,55.5855],[12.5848,55.5855],[12.5849,55.5856],[12.5849,55.5856]]]},"properties":{"sourceId":"ais_par3.135116","a_type":5120,"hectares":0.046}},{"type":"Feature","id":"ais_par3.135117","geometry":{"type":"Polygon","coordinates":[[[12.6003,55.5823],[12.6002,55.5822],[12.6001,55.5822],[12.6,55.5822],[12.6,55.5823],[12.6001,55.5823],[12.6001,55.5824],[12.6001,55.5825],[12.6002,55.5825],[12.6003,55.5825],[12.6004,55.5824],[12.6004,55.5824],[12.6003,55.5823],[12.6002,55.5823],[12.6003,55.5823]]]},"properties":{"sourceId":"ais_par3.135117","a_type":5120,"hectares":0.05}},{"type":"Feature","id":"ais_par3.135119","geometry":{"type":"Polygon","coordinates":[[[12.5954,55.5788],[12.5953,55.5787],[12.5952,55.5787],[12.5952,55.5786],[12.5951,55.5786],[12.595,55.5787],[12.5949,55.5788],[12.595,55.5788],[12.5951,55.5789],[12.5952,55.5789],[12.5953,55.5789],[12.5953,55.5788],[12.5953,55.5788],[12.5954,55.5788]]]},"properties":{"sourceId":"ais_par3.135119","a_type":5120,"hectares":0.055}},{"type":"Feature","id":"ais_par3.135120","geometry":{"type":"Polygon","coordinates":[[[12.5881,55.5807],[12.5881,55.5806],[12.5881,55.5805],[12.588,55.5805],[12.588,55.5805],[12.5879,55.5805],[12.5878,55.5806],[12.5877,55.5806],[12.5877,55.5805],[12.5877,55.5805],[12.5876,55.5804],[12.5876,55.5805],[12.5875,55.5806],[12.5875,55.5806],[12.5876,55.5806],[12.5877,55.5806],[12.5878,55.5807],[12.5879,55.5807],[12.5879,55.5807],[12.588,55.5807],[12.5881,55.5807],[12.5881,55.5807]]]},"properties":{"sourceId":"ais_par3.135120","a_type":5120,"hectares":0.063}},{"type":"Feature","id":"ais_par3.135121","geometry":{"type":"Polygon","coordinates":[[[12.6089,55.608],[12.6091,55.608],[12.6092,55.6079],[12.6091,55.6078],[12.6091,55.6077],[12.6089,55.6077],[12.6088,55.6077],[12.6087,55.6078],[12.6088,55.6079],[12.6088,55.608],[12.6089,55.608],[12.6089,55.608]]]},"properties":{"sourceId":"ais_par3.135121","a_type":5120,"hectares":0.065}},{"type":"Feature","id":"ais_par3.135123","geometry":{"type":"Polygon","coordinates":[[[12.5562,55.6013],[12.5558,55.6013],[12.5555,55.6015],[12.5553,55.6017],[12.5552,55.6018],[12.5553,55.6018],[12.5555,55.6019],[12.5556,55.6018],[12.5556,55.6017],[12.5557,55.6017],[12.5558,55.6016],[12.5559,55.6015],[12.556,55.6015],[12.5561,55.6014],[12.5562,55.6014],[12.5562,55.6013],[12.5562,55.6013]]]},"properties":{"sourceId":"ais_par3.135123","a_type":5120,"hectares":0.139}},{"type":"Feature","id":"ais_par3.135132","geometry":{"type":"Polygon","coordinates":[[[12.5583,55.5929],[12.5585,55.5929],[12.5587,55.5927],[12.5588,55.5925],[12.5588,55.5923],[12.5585,55.5921],[12.5584,55.5919],[12.5583,55.5918],[12.558,55.5918],[12.558,55.5917],[12.5579,55.5916],[12.5577,55.5915],[12.5578,55.5914],[12.5576,55.5912],[12.5574,55.5912],[12.5573,55.5911],[12.5572,55.5911],[12.5569,55.5911],[12.5565,55.5912],[12.5564,55.5914],[12.5565,55.5916],[12.5563,55.5917],[12.5564,55.5919],[12.5566,55.592],[12.5567,55.5921],[12.5571,55.5922],[12.5573,55.5923],[12.5574,55.5925],[12.5574,55.5926],[12.5577,55.5927],[12.5579,55.5928],[12.558,55.5929],[12.5581,55.593],[12.5582,55.593],[12.5583,55.593],[12.5583,55.5929],[12.5583,55.5929]]]},"properties":{"sourceId":"ais_par3.135132","a_type":5120,"hectares":1.788}},{"type":"Feature","id":"ais_par3.135135","geometry":{"type":"Polygon","coordinates":[[[12.5552,55.5757],[12.5558,55.5758],[12.5565,55.5761],[12.557,55.5763],[12.5575,55.5766],[12.5577,55.5768],[12.558,55.5769],[12.5584,55.5768],[12.5587,55.5768],[12.5591,55.577],[12.5593,55.5771],[12.5595,55.577],[12.5607,55.5774],[12.5618,55.5777],[12.5624,55.5779],[12.5627,55.578],[12.563,55.578],[12.5633,55.5779],[12.5634,55.5778],[12.5635,55.5775],[12.5636,55.5773],[12.5633,55.5771],[12.563,55.5768],[12.5626,55.5765],[12.5622,55.5764],[12.5616,55.5762],[12.5609,55.576],[12.5601,55.576],[12.5592,55.5758],[12.5583,55.5756],[12.5573,55.5754],[12.5564,55.5753],[12.5558,55.5752],[12.5555,55.5753],[12.5551,55.5754],[12.5551,55.5755],[12.5551,55.5756],[12.5552,55.5757]]]},"properties":{"sourceId":"ais_par3.135135","a_type":5120,"hectares":6.637}},{"type":"Feature","id":"ais_par3.135309","geometry":{"type":"Polygon","coordinates":[[[12.5846,55.5598],[12.5846,55.5599],[12.5846,55.5601],[12.5853,55.56],[12.5857,55.5599],[12.586,55.5598],[12.586,55.5597],[12.5859,55.5597],[12.5856,55.5597],[12.5851,55.5597],[12.5848,55.5598],[12.5846,55.5598]]]},"properties":{"sourceId":"ais_par3.135309","a_type":5120,"hectares":0.212}},{"type":"Feature","id":"ais_par3.135284","geometry":{"type":"Polygon","coordinates":[[[12.5865,55.5597],[12.5865,55.5598],[12.587,55.5598],[12.5875,55.5598],[12.5877,55.5597],[12.5877,55.5597],[12.5874,55.5597],[12.587,55.5597],[12.5869,55.5597],[12.5867,55.5597],[12.5865,55.5597],[12.5865,55.5597]]]},"properties":{"sourceId":"ais_par3.135284","a_type":5120,"hectares":0.092}},{"type":"Feature","id":"ais_par3.135285","geometry":{"type":"Polygon","coordinates":[[[12.5867,55.5574],[12.5866,55.5582],[12.5865,55.5589],[12.5865,55.5592],[12.5866,55.5593],[12.5866,55.5592],[12.5867,55.5591],[12.5867,55.5589],[12.5869,55.5589],[12.587,55.5587],[12.587,55.5586],[12.587,55.5585],[12.5872,55.5584],[12.5874,55.5585],[12.5876,55.5587],[12.5877,55.5586],[12.5879,55.5587],[12.588,55.5586],[12.5883,55.5586],[12.5884,55.5587],[12.5884,55.5588],[12.5882,55.5589],[12.5883,55.559],[12.5882,55.559],[12.5879,55.5591],[12.5877,55.5591],[12.5877,55.5592],[12.588,55.5593],[12.5881,55.5593],[12.5887,55.5592],[12.5889,55.5592],[12.5891,55.5592],[12.5891,55.5592],[12.5891,55.5592],[12.5891,55.5591],[12.589,55.5591],[12.5889,55.559],[12.5889,55.559],[12.589,55.5588],[12.589,55.5587],[12.5888,55.5586],[12.5888,55.5585],[12.5889,55.5584],[12.5888,55.5583],[12.5889,55.5581],[12.5889,55.558],[12.5891,55.5578],[12.5891,55.5577],[12.5892,55.5575],[12.5892,55.5573],[12.5894,55.557],[12.5895,55.5568],[12.5895,55.5565],[12.5895,55.5563],[12.5896,55.5562],[12.5895,55.5561],[12.5893,55.5562],[12.5892,55.5563],[12.589,55.5565],[12.5889,55.5566],[12.5888,55.5566],[12.5886,55.5566],[12.5884,55.5567],[12.5884,55.5568],[12.5887,55.5568],[12.5891,55.5568],[12.5891,55.5569],[12.589,55.5569],[12.5887,55.5569],[12.5884,55.5569],[12.5882,55.557],[12.5882,55.5571],[12.5879,55.5572],[12.5879,55.5573],[12.5875,55.5573],[12.5873,55.5573],[12.5872,55.5574],[12.5871,55.5574],[12.5869,55.5574],[12.5867,55.5574],[12.5867,55.5574]]]},"properties":{"sourceId":"ais_par3.135285","a_type":5120,"hectares":3.272}},{"type":"Feature","id":"ais_par3.135286","geometry":{"type":"Polygon","coordinates":[[[12.5933,55.556],[12.5932,55.5562],[12.5933,55.5563],[12.5935,55.5564],[12.594,55.5566],[12.5943,55.5567],[12.5944,55.5569],[12.5945,55.5569],[12.5947,55.557],[12.5948,55.5571],[12.5951,55.5572],[12.5956,55.5573],[12.5962,55.5576],[12.5967,55.5577],[12.5972,55.5579],[12.5973,55.5578],[12.5971,55.5577],[12.5967,55.5575],[12.5963,55.5573],[12.5959,55.5572],[12.5957,55.557],[12.5955,55.5569],[12.5954,55.5568],[12.5953,55.5568],[12.5952,55.5569],[12.5953,55.557],[12.5952,55.5571],[12.5949,55.557],[12.5948,55.5569],[12.5946,55.5568],[12.5946,55.5566],[12.5945,55.5565],[12.5944,55.5564],[12.5942,55.5564],[12.5942,55.5563],[12.5939,55.5561],[12.5938,55.5561],[12.5938,55.5562],[12.5938,55.5562],[12.5937,55.5562],[12.5936,55.5562],[12.5936,55.556],[12.5935,55.556],[12.5934,55.556],[12.5933,55.556]]]},"properties":{"sourceId":"ais_par3.135286","a_type":5120,"hectares":0.775}},{"type":"Feature","id":"ais_par3.135287","geometry":{"type":"Polygon","coordinates":[[[12.5973,55.5591],[12.5972,55.5591],[12.597,55.5591],[12.5969,55.5591],[12.5968,55.5592],[12.5969,55.5592],[12.597,55.5593],[12.5971,55.5595],[12.5973,55.5596],[12.5975,55.5595],[12.5975,55.5594],[12.5977,55.5594],[12.5977,55.5592],[12.5977,55.5592],[12.5975,55.5592],[12.5974,55.5592],[12.5973,55.5591],[12.5973,55.5591]]]},"properties":{"sourceId":"ais_par3.135287","a_type":5120,"hectares":0.182}},{"type":"Feature","id":"ais_par3.135288","geometry":{"type":"Polygon","coordinates":[[[12.6037,55.5632],[12.6037,55.5634],[12.6047,55.5636],[12.6057,55.5638],[12.6065,55.564],[12.6069,55.5641],[12.607,55.564],[12.6069,55.5639],[12.6058,55.5636],[12.605,55.5635],[12.6043,55.5634],[12.6039,55.5633],[12.6037,55.5632]]]},"properties":{"sourceId":"ais_par3.135288","a_type":5120,"hectares":0.405}},{"type":"Feature","id":"ais_par3.135587","geometry":{"type":"Polygon","coordinates":[[[12.6195,55.5899],[12.6194,55.5898],[12.6192,55.5896],[12.6189,55.5897],[12.6187,55.5898],[12.6185,55.5899],[12.6186,55.59],[12.6188,55.59],[12.6191,55.59],[12.6194,55.59],[12.6195,55.5899]]]},"properties":{"sourceId":"ais_par3.135587","a_type":5120,"hectares":0.181}},{"type":"Feature","id":"ais_par3.135564","geometry":{"type":"Polygon","coordinates":[[[12.5774,55.5781],[12.5775,55.5781],[12.5776,55.5781],[12.5776,55.578],[12.5775,55.578],[12.5774,55.578],[12.5773,55.5781],[12.5773,55.5781],[12.5774,55.5781]]]},"properties":{"sourceId":"ais_par3.135564","a_type":5120,"hectares":0.017}},{"type":"Feature","id":"ais_par3.135565","geometry":{"type":"Polygon","coordinates":[[[12.6652,55.5893],[12.6653,55.5893],[12.6654,55.5893],[12.6654,55.5892],[12.6654,55.5891],[12.6653,55.5891],[12.6652,55.5892],[12.6652,55.5893],[12.6652,55.5893]]]},"properties":{"sourceId":"ais_par3.135565","a_type":5120,"hectares":0.025}},{"type":"Feature","id":"ais_par3.135566","geometry":{"type":"Polygon","coordinates":[[[12.6466,55.5806],[12.6464,55.5806],[12.6464,55.5807],[12.6465,55.5807],[12.6466,55.5808],[12.6467,55.5807],[12.6467,55.5806],[12.6466,55.5806]]]},"properties":{"sourceId":"ais_par3.135566","a_type":5120,"hectares":0.034}},{"type":"Feature","id":"ais_par3.135567","geometry":{"type":"Polygon","coordinates":[[[12.6029,55.5753],[12.6031,55.5753],[12.6032,55.5752],[12.6032,55.5751],[12.6032,55.575],[12.6031,55.575],[12.6029,55.5752],[12.6029,55.5753],[12.6029,55.5753]]]},"properties":{"sourceId":"ais_par3.135567","a_type":5120,"hectares":0.036}},{"type":"Feature","id":"ais_par3.135568","geometry":{"type":"Polygon","coordinates":[[[12.5952,55.5671],[12.595,55.5672],[12.5951,55.5673],[12.5952,55.5673],[12.5954,55.5673],[12.5954,55.5672],[12.5953,55.5671],[12.5952,55.5671],[12.5952,55.5671]]]},"properties":{"sourceId":"ais_par3.135568","a_type":5120,"hectares":0.042}},{"type":"Feature","id":"ais_par3.135569","geometry":{"type":"Polygon","coordinates":[[[12.6066,55.5649],[12.6068,55.5649],[12.607,55.565],[12.6071,55.5649],[12.6072,55.5648],[12.607,55.5648],[12.6068,55.5648],[12.6066,55.5649],[12.6066,55.5649]]]},"properties":{"sourceId":"ais_par3.135569","a_type":5120,"hectares":0.043}},{"type":"Feature","id":"ais_par3.135570","geometry":{"type":"Polygon","coordinates":[[[12.5878,55.5636],[12.5877,55.5636],[12.5876,55.5637],[12.5878,55.5638],[12.588,55.5637],[12.5882,55.5636],[12.588,55.5636],[12.5878,55.5636],[12.5878,55.5636]]]},"properties":{"sourceId":"ais_par3.135570","a_type":5120,"hectares":0.049}},{"type":"Feature","id":"ais_par3.135571","geometry":{"type":"Polygon","coordinates":[[[12.5872,55.5635],[12.5872,55.5636],[12.5873,55.5636],[12.5874,55.5637],[12.5876,55.5636],[12.5876,55.5636],[12.5876,55.5635],[12.5874,55.5634],[12.5873,55.5635],[12.5872,55.5635]]]},"properties":{"sourceId":"ais_par3.135571","a_type":5120,"hectares":0.05}},{"type":"Feature","id":"ais_par3.135572","geometry":{"type":"Polygon","coordinates":[[[12.6562,55.6015],[12.6562,55.6015],[12.6562,55.6015],[12.6562,55.6014],[12.6562,55.6013],[12.656,55.6012],[12.6559,55.6012],[12.6558,55.6013],[12.6558,55.6014],[12.656,55.6015],[12.6562,55.6015]]]},"properties":{"sourceId":"ais_par3.135572","a_type":5120,"hectares":0.055}},{"type":"Feature","id":"ais_par3.135573","geometry":{"type":"Polygon","coordinates":[[[12.5787,55.5659],[12.5788,55.5659],[12.5789,55.5659],[12.5789,55.5658],[12.579,55.5658],[12.5789,55.5657],[12.5789,55.5657],[12.5788,55.5656],[12.5787,55.5657],[12.5786,55.5657],[12.5786,55.5658],[12.5786,55.5659],[12.5787,55.5659],[12.5787,55.5659]]]},"properties":{"sourceId":"ais_par3.135573","a_type":5120,"hectares":0.062}},{"type":"Feature","id":"ais_par3.135574","geometry":{"type":"Polygon","coordinates":[[[12.5596,55.5741],[12.5596,55.574],[12.5595,55.5738],[12.5594,55.5736],[12.5593,55.5735],[12.5592,55.5733],[12.559,55.5733],[12.5591,55.5734],[12.5591,55.5736],[12.5592,55.5736],[12.5593,55.5737],[12.5595,55.5739],[12.5595,55.574],[12.5595,55.5741],[12.5596,55.5741],[12.5596,55.5741]]]},"properties":{"sourceId":"ais_par3.135574","a_type":5120,"hectares":0.08}},{"type":"Feature","id":"ais_par3.135575","geometry":{"type":"Polygon","coordinates":[[[12.6318,55.5931],[12.6321,55.593],[12.6321,55.5928],[12.6319,55.5927],[12.6317,55.5928],[12.6316,55.5929],[12.6317,55.593],[12.6318,55.5931],[12.6318,55.5931]]]},"properties":{"sourceId":"ais_par3.135575","a_type":5120,"hectares":0.088}},{"type":"Feature","id":"ais_par3.135576","geometry":{"type":"Polygon","coordinates":[[[12.6639,55.5892],[12.6642,55.5893],[12.6643,55.5892],[12.6643,55.589],[12.6643,55.5889],[12.6641,55.5889],[12.6639,55.589],[12.6638,55.589],[12.6638,55.5892],[12.6639,55.5892]]]},"properties":{"sourceId":"ais_par3.135576","a_type":5120,"hectares":0.09}},{"type":"Feature","id":"ais_par3.135577","geometry":{"type":"Polygon","coordinates":[[[12.6716,55.5895],[12.6717,55.5896],[12.6719,55.5897],[12.6721,55.5897],[12.6721,55.5896],[12.6721,55.5895],[12.6721,55.5893],[12.6719,55.5893],[12.6717,55.5894],[12.6716,55.5895],[12.6716,55.5895]]]},"properties":{"sourceId":"ais_par3.135577","a_type":5120,"hectares":0.098}},{"type":"Feature","id":"ais_par3.135578","geometry":{"type":"Polygon","coordinates":[[[12.5657,55.5702],[12.5658,55.57],[12.5658,55.5699],[12.5657,55.5698],[12.5655,55.5698],[12.5652,55.5699],[12.5652,55.57],[12.5654,55.5701],[12.5656,55.5701],[12.5657,55.5702]]]},"properties":{"sourceId":"ais_par3.135578","a_type":5120,"hectares":0.114}},{"type":"Feature","id":"ais_par3.135579","geometry":{"type":"Polygon","coordinates":[[[12.5602,55.575],[12.5603,55.5748],[12.5602,55.5747],[12.5601,55.5745],[12.5599,55.5745],[12.5598,55.5744],[12.5596,55.5743],[12.5596,55.5743],[12.5596,55.5745],[12.5598,55.5746],[12.5599,55.5748],[12.56,55.5749],[12.5602,55.575],[12.5602,55.575]]]},"properties":{"sourceId":"ais_par3.135579","a_type":5120,"hectares":0.123}},{"type":"Feature","id":"ais_par3.135580","geometry":{"type":"Polygon","coordinates":[[[12.5734,55.5586],[12.5736,55.5586],[12.5738,55.5586],[12.5738,55.5585],[12.5733,55.5582],[12.5731,55.5583],[12.573,55.5584],[12.5733,55.5585],[12.5734,55.5586],[12.5734,55.5586]]]},"properties":{"sourceId":"ais_par3.135580","a_type":5120,"hectares":0.126}},{"type":"Feature","id":"ais_par3.135581","geometry":{"type":"Polygon","coordinates":[[[12.5857,55.5783],[12.5859,55.5783],[12.586,55.5783],[12.586,55.5781],[12.5859,55.5781],[12.5857,55.578],[12.5854,55.578],[12.5853,55.5781],[12.5853,55.5782],[12.5853,55.5783],[12.5854,55.5783],[12.5855,55.5784],[12.5856,55.5783],[12.5856,55.5783],[12.5856,55.5782],[12.5857,55.5782],[12.5858,55.5783],[12.5857,55.5783],[12.5857,55.5784],[12.5857,55.5783]]]},"properties":{"sourceId":"ais_par3.135581","a_type":5120,"hectares":0.127}},{"type":"Feature","id":"ais_par3.135582","geometry":{"type":"Polygon","coordinates":[[[12.6638,55.5897],[12.6639,55.5899],[12.664,55.59],[12.6643,55.5902],[12.6645,55.5901],[12.6646,55.5901],[12.6645,55.5899],[12.6643,55.5898],[12.6641,55.5898],[12.6639,55.5897],[12.6638,55.5897]]]},"properties":{"sourceId":"ais_par3.135582","a_type":5120,"hectares":0.13}},{"type":"Feature","id":"ais_par3.135583","geometry":{"type":"Polygon","coordinates":[[[12.6431,55.5797],[12.6433,55.5797],[12.6435,55.5797],[12.6435,55.5795],[12.6434,55.5794],[12.6433,55.5793],[12.6431,55.5793],[12.643,55.5794],[12.6429,55.5795],[12.6429,55.5796],[12.6431,55.5797],[12.6431,55.5797]]]},"properties":{"sourceId":"ais_par3.135583","a_type":5120,"hectares":0.138}},{"type":"Feature","id":"ais_par3.135584","geometry":{"type":"Polygon","coordinates":[[[12.5672,55.5649],[12.5673,55.565],[12.5675,55.565],[12.5676,55.5649],[12.5677,55.5648],[12.5677,55.5647],[12.5676,55.5646],[12.5675,55.5645],[12.5674,55.5645],[12.5672,55.5646],[12.5672,55.5647],[12.5671,55.5648],[12.5671,55.5649],[12.5672,55.565],[12.5672,55.5649]]]},"properties":{"sourceId":"ais_par3.135584","a_type":5120,"hectares":0.143}},{"type":"Feature","id":"ais_par3.135585","geometry":{"type":"Polygon","coordinates":[[[12.635,55.599],[12.6353,55.599],[12.6356,55.599],[12.6356,55.5988],[12.6356,55.5987],[12.6353,55.5986],[12.635,55.5987],[12.635,55.5988],[12.635,55.599],[12.635,55.599]]]},"properties":{"sourceId":"ais_par3.135585","a_type":5120,"hectares":0.15}},{"type":"Feature","id":"ais_par3.135586","geometry":{"type":"Polygon","coordinates":[[[12.5799,55.5578],[12.5799,55.5577],[12.5797,55.5577],[12.5793,55.5577],[12.5792,55.5576],[12.579,55.5576],[12.5792,55.5579],[12.5795,55.558],[12.5798,55.5579],[12.5799,55.5578]]]},"properties":{"sourceId":"ais_par3.135586","a_type":5120,"hectares":0.165}},{"type":"Feature","id":"ais_par3.135588","geometry":{"type":"Polygon","coordinates":[[[12.6207,55.5913],[12.6208,55.5912],[12.6207,55.591],[12.6205,55.5908],[12.6203,55.5908],[12.62,55.5908],[12.6198,55.5909],[12.6199,55.591],[12.6202,55.5912],[12.6204,55.5913],[12.6207,55.5913]]]},"properties":{"sourceId":"ais_par3.135588","a_type":5120,"hectares":0.245}},{"type":"Feature","id":"ais_par3.135589","geometry":{"type":"Polygon","coordinates":[[[12.5609,55.5734],[12.5608,55.5733],[12.5607,55.5731],[12.5603,55.5731],[12.56,55.5729],[12.5598,55.5726],[12.5597,55.5724],[12.5596,55.5722],[12.5596,55.5719],[12.5596,55.5717],[12.5597,55.5715],[12.5596,55.5713],[12.5596,55.5711],[12.5594,55.5711],[12.5592,55.5712],[12.5592,55.5715],[12.5592,55.5717],[12.5593,55.5719],[12.5594,55.5721],[12.5596,55.5726],[12.5596,55.5728],[12.5597,55.5729],[12.5599,55.5732],[12.5601,55.5733],[12.5603,55.5734],[12.5606,55.5734],[12.5608,55.5734],[12.5609,55.5734]]]},"properties":{"sourceId":"ais_par3.135589","a_type":5120,"hectares":0.631}},{"type":"Feature","id":"ais_par3.135590","geometry":{"type":"Polygon","coordinates":[[[12.568,55.5626],[12.568,55.5625],[12.5679,55.5622],[12.5678,55.5619],[12.5677,55.5617],[12.5673,55.5617],[12.5669,55.5617],[12.5664,55.5618],[12.5658,55.5619],[12.5653,55.5619],[12.5652,55.562],[12.5652,55.5621],[12.5652,55.5621],[12.5652,55.5623],[12.5655,55.5629],[12.5656,55.5629],[12.5657,55.563],[12.5659,55.5629],[12.5663,55.5629],[12.5667,55.5628],[12.5671,55.5628],[12.5673,55.5628],[12.5674,55.5627],[12.5674,55.5627],[12.5674,55.5626],[12.5672,55.5626],[12.5663,55.5627],[12.5661,55.5628],[12.5659,55.5628],[12.5658,55.5628],[12.5657,55.5627],[12.5656,55.5627],[12.5655,55.5624],[12.5654,55.5621],[12.5654,55.5621],[12.5655,55.562],[12.5657,55.562],[12.5662,55.562],[12.5668,55.5619],[12.5671,55.5619],[12.5674,55.5618],[12.5675,55.5619],[12.5676,55.562],[12.5677,55.5622],[12.5678,55.5625],[12.5678,55.5626],[12.5677,55.5626],[12.5677,55.5627],[12.568,55.5626]]]},"properties":{"sourceId":"ais_par3.135590","a_type":5120,"hectares":0.73}},{"type":"Feature","id":"ais_par3.135591","geometry":{"type":"Polygon","coordinates":[[[12.572,55.5583],[12.5721,55.5583],[12.572,55.5582],[12.5717,55.5582],[12.5709,55.5583],[12.5704,55.5584],[12.5702,55.5585],[12.5699,55.5585],[12.5695,55.5586],[12.5689,55.5587],[12.5685,55.5588],[12.5679,55.559],[12.5673,55.5592],[12.5675,55.5593],[12.5678,55.5593],[12.5683,55.5592],[12.5688,55.5591],[12.5693,55.559],[12.5697,55.5591],[12.5702,55.5591],[12.5709,55.559],[12.5711,55.5589],[12.5712,55.5586],[12.5712,55.5585],[12.5715,55.5583],[12.572,55.5583]]]},"properties":{"sourceId":"ais_par3.135591","a_type":5120,"hectares":1.262}},{"type":"Feature","id":"ais_par3.135592","geometry":{"type":"Polygon","coordinates":[[[12.5673,55.5594],[12.5669,55.5594],[12.5665,55.5595],[12.5665,55.5597],[12.5664,55.5597],[12.5662,55.5598],[12.566,55.5598],[12.566,55.5597],[12.5659,55.5596],[12.5657,55.5597],[12.5654,55.5599],[12.5654,55.5601],[12.5653,55.5602],[12.5651,55.5603],[12.5647,55.5605],[12.5637,55.561],[12.5632,55.5612],[12.563,55.5615],[12.5633,55.5616],[12.5632,55.5617],[12.563,55.5617],[12.5632,55.5618],[12.5632,55.562],[12.5634,55.5622],[12.5632,55.5622],[12.563,55.5621],[12.5629,55.5622],[12.5631,55.5622],[12.5631,55.5624],[12.5629,55.5624],[12.5627,55.5622],[12.5626,55.5623],[12.5627,55.5624],[12.5626,55.5625],[12.5628,55.5626],[12.5628,55.5627],[12.5627,55.5627],[12.5627,55.5629],[12.5626,55.563],[12.5625,55.5632],[12.5623,55.5631],[12.5622,55.5632],[12.562,55.5632],[12.5622,55.5633],[12.5621,55.5634],[12.562,55.5635],[12.5621,55.5635],[12.562,55.5637],[12.562,55.5638],[12.5622,55.5638],[12.5623,55.5636],[12.5624,55.5637],[12.5625,55.5635],[12.5627,55.5634],[12.5627,55.5632],[12.5629,55.5631],[12.563,55.5629],[12.563,55.5628],[12.5634,55.5627],[12.5634,55.5626],[12.5637,55.5625],[12.5638,55.5622],[12.564,55.5621],[12.5641,55.5619],[12.5636,55.5616],[12.5633,55.5615],[12.5635,55.5613],[12.5638,55.5612],[12.5641,55.5612],[12.5643,55.5614],[12.5648,55.5615],[12.5649,55.5613],[12.5649,55.5612],[12.5652,55.5611],[12.565,55.561],[12.5647,55.5609],[12.5647,55.5608],[12.5649,55.5608],[12.5651,55.5605],[12.5656,55.5604],[12.5658,55.5606],[12.5661,55.5607],[12.5661,55.5606],[12.5663,55.5605],[12.5667,55.5606],[12.5668,55.5605],[12.5667,55.5604],[12.5669,55.5602],[12.567,55.5599],[12.5672,55.5598],[12.5673,55.5597],[12.5672,55.5595],[12.5673,55.5594]]]},"properties":{"sourceId":"ais_par3.135592","a_type":5120,"hectares":2.671}},{"type":"Feature","id":"ais_par3.136576","geometry":{"type":"Polygon","coordinates":[[[12.5633,55.5696],[12.5633,55.5694],[12.5635,55.5692],[12.5633,55.5691],[12.5632,55.5694],[12.563,55.5696],[12.563,55.5698],[12.5632,55.5698],[12.5633,55.5696]]]},"properties":{"sourceId":"ais_par3.136576","a_type":4210,"hectares":0.087}},{"type":"Feature","id":"ais_par3.136575","geometry":{"type":"Polygon","coordinates":[[[12.6082,55.5619],[12.6081,55.5619],[12.608,55.5619],[12.6079,55.562],[12.608,55.5621],[12.6081,55.562],[12.6082,55.5619],[12.6082,55.5619]]]},"properties":{"sourceId":"ais_par3.136575","a_type":4210,"hectares":0.023}},{"type":"Feature","id":"ais_par3.136577","geometry":{"type":"Polygon","coordinates":[[[12.5589,55.5748],[12.5589,55.5747],[12.5588,55.5746],[12.5588,55.5744],[12.5587,55.5743],[12.5586,55.5743],[12.5585,55.5744],[12.5583,55.5744],[12.5582,55.5744],[12.5581,55.5745],[12.5583,55.5746],[12.5583,55.5747],[12.5584,55.5748],[12.5586,55.5749],[12.5587,55.5749],[12.5589,55.5749],[12.5589,55.5748]]]},"properties":{"sourceId":"ais_par3.136577","a_type":4210,"hectares":0.185}},{"type":"Feature","id":"ais_par3.136578","geometry":{"type":"Polygon","coordinates":[[[12.6256,55.5752],[12.6258,55.5754],[12.626,55.5755],[12.6262,55.5756],[12.6263,55.5757],[12.6264,55.5759],[12.6266,55.5759],[12.6268,55.5759],[12.6268,55.5758],[12.6268,55.5757],[12.6264,55.5755],[12.6261,55.5754],[12.626,55.5753],[12.6259,55.5751],[12.6257,55.5751],[12.6256,55.5752],[12.6256,55.5752]]]},"properties":{"sourceId":"ais_par3.136578","a_type":4210,"hectares":0.215}},{"type":"Feature","id":"ais_par3.136579","geometry":{"type":"Polygon","coordinates":[[[12.6272,55.5768],[12.6274,55.5769],[12.6275,55.5769],[12.6276,55.577],[12.6278,55.5772],[12.6281,55.5773],[12.6282,55.5774],[12.6284,55.5775],[12.6285,55.5773],[12.6284,55.5772],[12.6283,55.577],[12.628,55.5769],[12.6278,55.5768],[12.6277,55.5768],[12.6276,55.5767],[12.6275,55.5766],[12.6273,55.5768],[12.6272,55.5768]]]},"properties":{"sourceId":"ais_par3.136579","a_type":4210,"hectares":0.287}},{"type":"Feature","id":"ais_par3.136580","geometry":{"type":"Polygon","coordinates":[[[12.6656,55.584],[12.6657,55.5841],[12.6659,55.5841],[12.6659,55.584],[12.666,55.5839],[12.6658,55.5838],[12.6657,55.5836],[12.6656,55.5835],[12.6654,55.5835],[12.6653,55.5834],[12.665,55.5833],[12.6645,55.5833],[12.6642,55.5834],[12.6641,55.5834],[12.6639,55.5835],[12.664,55.5836],[12.6641,55.5838],[12.6642,55.5837],[12.6644,55.5838],[12.6646,55.5839],[12.6648,55.5838],[12.665,55.5838],[12.6653,55.5838],[12.6654,55.5839],[12.6656,55.5841],[12.6656,55.584]]]},"properties":{"sourceId":"ais_par3.136580","a_type":4210,"hectares":0.589}},{"type":"Feature","id":"ais_par3.136581","geometry":{"type":"Polygon","coordinates":[[[12.67,55.6066],[12.67,55.6066],[12.6701,55.6065],[12.6699,55.6064],[12.6697,55.6063],[12.6698,55.6062],[12.6699,55.6061],[12.6699,55.606],[12.6697,55.6059],[12.6698,55.6057],[12.6698,55.6056],[12.6696,55.6055],[12.6694,55.6055],[12.6693,55.6054],[12.6692,55.6053],[12.6692,55.6051],[12.6689,55.6053],[12.6689,55.6056],[12.6689,55.6057],[12.6688,55.6059],[12.6687,55.6062],[12.6685,55.6064],[12.6685,55.6066],[12.6687,55.6066],[12.669,55.6066],[12.67,55.6066]]]},"properties":{"sourceId":"ais_par3.136581","a_type":4210,"hectares":0.91}},{"type":"Feature","id":"ais_par3.136582","geometry":{"type":"Polygon","coordinates":[[[12.6403,55.5779],[12.6417,55.578],[12.6427,55.5781],[12.6437,55.5782],[12.6443,55.5782],[12.6441,55.5781],[12.6441,55.578],[12.644,55.5779],[12.6437,55.5778],[12.6433,55.5778],[12.643,55.5777],[12.6427,55.5778],[12.6422,55.5777],[12.6417,55.5776],[12.6412,55.5775],[12.641,55.5775],[12.6404,55.5776],[12.6402,55.5777],[12.6403,55.5779],[12.6403,55.5779]]]},"properties":{"sourceId":"ais_par3.136582","a_type":4210,"hectares":1.025}},{"type":"Feature","id":"ais_par3.136583","geometry":{"type":"Polygon","coordinates":[[[12.6662,55.5841],[12.6665,55.5843],[12.6668,55.5845],[12.6672,55.5846],[12.6681,55.5848],[12.6684,55.5849],[12.6685,55.5849],[12.6683,55.5845],[12.6679,55.5841],[12.6676,55.5839],[12.6673,55.5838],[12.6671,55.5836],[12.6668,55.5835],[12.6665,55.5834],[12.6663,55.5838],[12.6663,55.584],[12.6662,55.5841],[12.6662,55.5841]]]},"properties":{"sourceId":"ais_par3.136583","a_type":4210,"hectares":1.063}},{"type":"Feature","id":"ais_par3.136584","geometry":{"type":"Polygon","coordinates":[[[12.637,55.5789],[12.6378,55.5789],[12.6386,55.579],[12.6392,55.579],[12.6392,55.5785],[12.6394,55.5782],[12.6394,55.5779],[12.6383,55.5781],[12.6376,55.5782],[12.6371,55.5784],[12.637,55.5787],[12.637,55.5789],[12.637,55.5789]]]},"properties":{"sourceId":"ais_par3.136584","a_type":4210,"hectares":1.284}},{"type":"Feature","id":"ais_par3.136585","geometry":{"type":"Polygon","coordinates":[[[12.6222,55.5912],[12.622,55.5911],[12.6218,55.5911],[12.6216,55.5911],[12.6215,55.591],[12.6217,55.5909],[12.6217,55.5907],[12.6216,55.5907],[12.6213,55.5907],[12.6211,55.5906],[12.621,55.5905],[12.6211,55.5904],[12.6211,55.5904],[12.6208,55.5903],[12.6207,55.5902],[12.6206,55.59],[12.6207,55.5899],[12.6209,55.5897],[12.6208,55.5896],[12.6204,55.5896],[12.6199,55.5896],[12.6197,55.5896],[12.6195,55.5897],[12.6194,55.5898],[12.6195,55.5899],[12.6194,55.59],[12.6198,55.59],[12.6198,55.5902],[12.6197,55.5903],[12.6195,55.5903],[12.6194,55.5904],[12.6195,55.5905],[12.6197,55.5905],[12.62,55.5905],[12.62,55.5908],[12.6203,55.5908],[12.6205,55.5908],[12.6207,55.591],[12.6208,55.5912],[12.6207,55.5913],[12.6209,55.5914],[12.6209,55.5914],[12.6213,55.5913],[12.6217,55.5912],[12.6221,55.5911],[12.6222,55.5912]]]},"properties":{"sourceId":"ais_par3.136585","a_type":4210,"hectares":1.455}},{"type":"Feature","id":"ais_par3.136586","geometry":{"type":"Polygon","coordinates":[[[12.6724,55.5886],[12.6727,55.5887],[12.6729,55.589],[12.673,55.5893],[12.6736,55.5892],[12.6741,55.5892],[12.6746,55.5892],[12.6751,55.5892],[12.6751,55.5894],[12.6753,55.5896],[12.6755,55.5897],[12.6758,55.5896],[12.6761,55.5895],[12.6761,55.5893],[12.6762,55.5891],[12.6762,55.5888],[12.6762,55.5886],[12.6762,55.5884],[12.6758,55.5884],[12.6752,55.5884],[12.6749,55.5882],[12.6745,55.5881],[12.674,55.5882],[12.6741,55.5884],[12.6736,55.5885],[12.6733,55.5884],[12.6729,55.5885],[12.6724,55.5886]]]},"properties":{"sourceId":"ais_par3.136586","a_type":4210,"hectares":2.366}},{"type":"Feature","id":"ais_par3.136587","geometry":{"type":"Polygon","coordinates":[[[12.6222,55.5722],[12.6224,55.5722],[12.6226,55.5724],[12.6228,55.5726],[12.6229,55.5728],[12.6233,55.5733],[12.624,55.574],[12.6246,55.5748],[12.625,55.5752],[12.6253,55.575],[12.6254,55.5749],[12.6257,55.5748],[12.6252,55.5742],[12.6249,55.5736],[12.6244,55.5731],[12.624,55.5725],[12.6235,55.5716],[12.6232,55.5713],[12.6226,55.5719],[12.6222,55.5721],[12.6222,55.5722]]]},"properties":{"sourceId":"ais_par3.136587","a_type":4210,"hectares":2.969}},{"type":"Feature","id":"ais_par3.136588","geometry":{"type":"Polygon","coordinates":[[[12.6312,55.5778],[12.6314,55.5779],[12.6317,55.578],[12.6325,55.5781],[12.6331,55.5781],[12.6338,55.5781],[12.634,55.5782],[12.6344,55.578],[12.6347,55.5779],[12.6348,55.5779],[12.635,55.5779],[12.6352,55.578],[12.6353,55.5781],[12.6355,55.5783],[12.6363,55.5784],[12.6365,55.5784],[12.6368,55.5784],[12.6371,55.5783],[12.6376,55.5782],[12.6388,55.5779],[12.6393,55.5778],[12.6397,55.5777],[12.6402,55.5776],[12.6403,55.5775],[12.6403,55.5774],[12.6402,55.5773],[12.6402,55.5773],[12.6401,55.5773],[12.6399,55.5774],[12.6397,55.5774],[12.6393,55.5775],[12.639,55.5775],[12.6389,55.5774],[12.6387,55.5773],[12.6386,55.5775],[12.6386,55.5775],[12.6385,55.5775],[12.6384,55.5776],[12.6379,55.5777],[12.6375,55.5776],[12.6374,55.5776],[12.6373,55.5775],[12.6374,55.5775],[12.6373,55.5773],[12.6372,55.5773],[12.6373,55.5772],[12.6372,55.5772],[12.637,55.577],[12.637,55.577],[12.6369,55.577],[12.6364,55.5771],[12.6362,55.5772],[12.6362,55.5773],[12.6361,55.5773],[12.6361,55.5772],[12.6356,55.5774],[12.6355,55.5774],[12.6354,55.5772],[12.6353,55.5771],[12.6353,55.5772],[12.6353,55.5771],[12.6352,55.5771],[12.6352,55.5771],[12.6351,55.5772],[12.6351,55.577],[12.6349,55.5771],[12.6348,55.5772],[12.6346,55.5773],[12.6345,55.5772],[12.6345,55.5772],[12.6345,55.5772],[12.6344,55.5771],[12.6342,55.5771],[12.634,55.5773],[12.6338,55.5773],[12.6336,55.5773],[12.6336,55.5771],[12.6334,55.577],[12.6334,55.5769],[12.6332,55.5769],[12.6326,55.5771],[12.6327,55.5769],[12.6324,55.5769],[12.6324,55.5769],[12.6324,55.5769],[12.6323,55.5768],[12.6322,55.5769],[12.6321,55.5769],[12.632,55.5769],[12.6319,55.5768],[12.6317,55.5767],[12.6316,55.5769],[12.6315,55.5774],[12.6313,55.5776],[12.6312,55.5778],[12.6312,55.5778]]]},"properties":{"sourceId":"ais_par3.136588","a_type":4210,"hectares":5.208}},{"type":"Feature","id":"ais_par3.136589","geometry":{"type":"Polygon","coordinates":[[[12.6583,55.583],[12.6585,55.5829],[12.6585,55.5828],[12.6584,55.5827],[12.6582,55.5826],[12.658,55.5824],[12.6578,55.5823],[12.6578,55.5822],[12.6579,55.582],[12.658,55.5819],[12.6578,55.5818],[12.6577,55.5817],[12.6579,55.5816],[12.6581,55.5816],[12.6581,55.5816],[12.6583,55.5812],[12.6579,55.5811],[12.6576,55.581],[12.6572,55.581],[12.6568,55.5809],[12.6565,55.5809],[12.6562,55.5809],[12.6553,55.581],[12.6549,55.5811],[12.6543,55.5811],[12.6539,55.581],[12.6534,55.581],[12.6532,55.581],[12.653,55.581],[12.6525,55.5809],[12.6513,55.5803],[12.6509,55.5802],[12.6503,55.58],[12.6496,55.5798],[12.649,55.5796],[12.6482,55.5793],[12.6472,55.579],[12.6463,55.5786],[12.6458,55.5785],[12.6452,55.5782],[12.6451,55.5782],[12.6447,55.5781],[12.6443,55.5783],[12.6442,55.5791],[12.645,55.5792],[12.6461,55.5794],[12.6472,55.5798],[12.6481,55.58],[12.6494,55.5804],[12.6502,55.5806],[12.6515,55.5809],[12.6527,55.5812],[12.6541,55.5817],[12.6554,55.5821],[12.6563,55.5823],[12.6574,55.5827],[12.6583,55.583],[12.6583,55.583]]]},"properties":{"sourceId":"ais_par3.136589","a_type":4210,"hectares":8.157}},{"type":"Feature","id":"ais_par3.136590","geometry":{"type":"Polygon","coordinates":[[[12.6438,55.5811],[12.6446,55.5811],[12.6463,55.5814],[12.6484,55.5818],[12.6499,55.5821],[12.6504,55.5822],[12.651,55.5824],[12.6513,55.5824],[12.6525,55.5825],[12.6525,55.582],[12.6526,55.5815],[12.651,55.581],[12.6492,55.5805],[12.6477,55.5801],[12.6464,55.5797],[12.6454,55.5794],[12.6441,55.5792],[12.6439,55.5801],[12.6438,55.581],[12.6438,55.5811]],[[12.6466,55.5808],[12.6465,55.5807],[12.6464,55.5807],[12.6464,55.5806],[12.6466,55.5806],[12.6467,55.5806],[12.6467,55.5807],[12.6466,55.5808]]]},"properties":{"sourceId":"ais_par3.136590","a_type":4210,"hectares":9.227}},{"type":"Feature","id":"ais_par3.136591","geometry":{"type":"Polygon","coordinates":[[[12.6693,55.5891],[12.6694,55.589],[12.6696,55.5888],[12.6694,55.5886],[12.6692,55.5885],[12.6689,55.5883],[12.6687,55.5881],[12.6685,55.588],[12.6684,55.5879],[12.6686,55.5879],[12.669,55.5878],[12.6695,55.5878],[12.6699,55.5878],[12.6707,55.5878],[12.671,55.5877],[12.6713,55.5877],[12.6715,55.5875],[12.6716,55.5874],[12.6718,55.5872],[12.6713,55.5871],[12.6708,55.587],[12.6705,55.5869],[12.6702,55.5867],[12.67,55.5867],[12.6697,55.5866],[12.6694,55.5865],[12.6692,55.5865],[12.669,55.5865],[12.6689,55.5866],[12.6689,55.5867],[12.6692,55.5868],[12.6694,55.5868],[12.6696,55.5869],[12.6697,55.587],[12.6698,55.587],[12.6699,55.5869],[12.6702,55.5869],[12.6703,55.587],[12.6705,55.5871],[12.6708,55.5873],[12.671,55.5873],[12.6713,55.5874],[12.6713,55.5875],[12.671,55.5876],[12.6708,55.5876],[12.6704,55.5876],[12.6701,55.5876],[12.6699,55.5877],[12.6697,55.5877],[12.6694,55.5876],[12.6692,55.5876],[12.669,55.5874],[12.6689,55.5874],[12.6688,55.5871],[12.6686,55.587],[12.6687,55.5869],[12.6685,55.5869],[12.6683,55.5868],[12.6681,55.5867],[12.6679,55.5867],[12.6678,55.5866],[12.6676,55.5866],[12.6676,55.5865],[12.6674,55.5864],[12.6673,55.5863],[12.667,55.5862],[12.6669,55.5861],[12.6668,55.586],[12.6666,55.5859],[12.6666,55.5858],[12.6666,55.5857],[12.6664,55.5857],[12.6663,55.5857],[12.6661,55.5856],[12.6659,55.5855],[12.6659,55.5853],[12.6658,55.5851],[12.6657,55.5849],[12.6656,55.5848],[12.6658,55.5845],[12.6657,55.5843],[12.6655,55.5842],[12.6653,55.5842],[12.6651,55.5842],[12.6649,55.5841],[12.6646,55.584],[12.6642,55.5839],[12.664,55.5838],[12.6638,55.5837],[12.6637,55.5836],[12.6634,55.5835],[12.6632,55.5835],[12.663,55.5834],[12.6628,55.5833],[12.6625,55.5832],[12.6625,55.5831],[12.6623,55.583],[12.6621,55.5829],[12.6618,55.5829],[12.6617,55.5827],[12.6615,55.5826],[12.6613,55.5825],[12.6611,55.5824],[12.6607,55.5822],[12.6604,55.5821],[12.6607,55.5821],[12.661,55.5822],[12.6612,55.5821],[12.6615,55.5822],[12.6617,55.5823],[12.6618,55.5824],[12.6619,55.5825],[12.662,55.5824],[12.6621,55.5823],[12.6622,55.5823],[12.6624,55.5823],[12.6625,55.5822],[12.6624,55.5822],[12.662,55.5821],[12.6618,55.5821],[12.6616,55.582],[12.6613,55.5819],[12.6609,55.5819],[12.6606,55.5818],[12.6603,55.5818],[12.6601,55.5817],[12.66,55.5816],[12.6594,55.5816],[12.6593,55.5815],[12.6589,55.5815],[12.6586,55.5815],[12.6584,55.5815],[12.6583,55.5816],[12.6582,55.5817],[12.6583,55.5819],[12.6585,55.582],[12.6588,55.5821],[12.6591,55.5823],[12.6589,55.5825],[12.6586,55.5827],[12.6589,55.5829],[12.6587,55.5832],[12.6592,55.5834],[12.6602,55.5838],[12.6605,55.584],[12.6609,55.5841],[12.6612,55.5843],[12.6616,55.5845],[12.6619,55.5847],[12.6622,55.5848],[12.6625,55.585],[12.6629,55.5852],[12.6632,55.5854],[12.6636,55.5857],[12.6639,55.5859],[12.6643,55.5861],[12.6645,55.5863],[12.6649,55.5866],[12.6653,55.5869],[12.6656,55.5872],[12.6663,55.5877],[12.6667,55.588],[12.6671,55.5882],[12.6675,55.5884],[12.668,55.5886],[12.6684,55.5888],[12.6687,55.5889],[12.669,55.589],[12.6692,55.5891],[12.6693,55.5891]]]},"properties":{"sourceId":"ais_par3.136591","a_type":4210,"hectares":15.969}},{"type":"Feature","id":"ais_par3.136592","geometry":{"type":"Polygon","coordinates":[[[12.5656,55.5761],[12.5653,55.5757],[12.565,55.5752],[12.5648,55.5747],[12.5645,55.5743],[12.564,55.5736],[12.5639,55.5733],[12.5637,55.5731],[12.5636,55.573],[12.5632,55.5731],[12.5632,55.5733],[12.5634,55.5737],[12.5635,55.5739],[12.5637,55.5739],[12.564,55.5739],[12.5642,55.5741],[12.5642,55.5746],[12.5642,55.5749],[12.5642,55.5752],[12.5642,55.5754],[12.5642,55.5756],[12.5641,55.5757],[12.564,55.5757],[12.564,55.5755],[12.564,55.5753],[12.564,55.5751],[12.5639,55.5747],[12.5639,55.5746],[12.564,55.5744],[12.564,55.5742],[12.5638,55.5741],[12.5634,55.5741],[12.5632,55.5739],[12.5631,55.5737],[12.563,55.5735],[12.5629,55.5732],[12.5629,55.5731],[12.5631,55.5729],[12.5635,55.5728],[12.563,55.5721],[12.5629,55.5719],[12.5627,55.5716],[12.5626,55.5714],[12.5626,55.5711],[12.5626,55.571],[12.5627,55.5708],[12.5628,55.5705],[12.5628,55.5703],[12.5629,55.5702],[12.5628,55.5701],[12.5627,55.5701],[12.5626,55.5699],[12.5626,55.5696],[12.5627,55.5691],[12.5629,55.5688],[12.5633,55.5687],[12.5635,55.5682],[12.5635,55.5678],[12.5631,55.5678],[12.5631,55.5675],[12.5631,55.5673],[12.5626,55.5672],[12.5619,55.567],[12.5616,55.5669],[12.5611,55.5668],[12.561,55.5671],[12.5608,55.5674],[12.5605,55.5677],[12.56,55.5682],[12.5598,55.5685],[12.5595,55.5688],[12.5593,55.5691],[12.5592,55.5694],[12.5591,55.5698],[12.5591,55.5702],[12.5591,55.5706],[12.559,55.571],[12.5589,55.5714],[12.5587,55.5717],[12.5587,55.5722],[12.5587,55.5726],[12.5586,55.5729],[12.5588,55.5736],[12.5589,55.5739],[12.559,55.5743],[12.5591,55.5745],[12.5593,55.5748],[12.5596,55.575],[12.5602,55.5752],[12.561,55.5753],[12.5619,55.5755],[12.5625,55.5755],[12.5631,55.5757],[12.5644,55.5759],[12.5649,55.576],[12.5656,55.5761],[12.5656,55.5761]],[[12.5609,55.5734],[12.5608,55.5734],[12.5606,55.5734],[12.5603,55.5734],[12.5601,55.5733],[12.5599,55.5732],[12.5597,55.5729],[12.5596,55.5728],[12.5596,55.5726],[12.5594,55.5721],[12.5593,55.5719],[12.5592,55.5717],[12.5592,55.5715],[12.5592,55.5712],[12.5594,55.5711],[12.5596,55.5711],[12.5596,55.5713],[12.5597,55.5715],[12.5596,55.5717],[12.5596,55.5719],[12.5596,55.5722],[12.5597,55.5724],[12.5598,55.5726],[12.56,55.5729],[12.5603,55.5731],[12.5607,55.5731],[12.5608,55.5733],[12.5609,55.5734]],[[12.5602,55.575],[12.5602,55.575],[12.56,55.5749],[12.5599,55.5748],[12.5598,55.5746],[12.5596,55.5745],[12.5596,55.5743],[12.5596,55.5743],[12.5598,55.5744],[12.5599,55.5745],[12.5601,55.5745],[12.5602,55.5747],[12.5603,55.5748],[12.5602,55.575]],[[12.5596,55.5741],[12.5596,55.5741],[12.5595,55.5741],[12.5595,55.574],[12.5595,55.5739],[12.5593,55.5737],[12.5592,55.5736],[12.5591,55.5736],[12.5591,55.5734],[12.559,55.5733],[12.5592,55.5733],[12.5593,55.5735],[12.5594,55.5736],[12.5595,55.5738],[12.5596,55.574],[12.5596,55.5741]]]},"properties":{"sourceId":"ais_par3.136592","a_type":4210,"hectares":23.365}},{"type":"Feature","id":"ais_par3.136621","geometry":{"type":"Polygon","coordinates":[[[12.5844,55.557],[12.5841,55.557],[12.584,55.5571],[12.5839,55.5572],[12.5839,55.5572],[12.5839,55.5572],[12.5837,55.5572],[12.5836,55.5571],[12.5835,55.5569],[12.5834,55.5569],[12.5833,55.5569],[12.5833,55.5569],[12.5829,55.5572],[12.5828,55.5573],[12.5827,55.5573],[12.5829,55.5575],[12.5826,55.5575],[12.5823,55.5576],[12.5821,55.5574],[12.5821,55.5574],[12.5818,55.5576],[12.5815,55.5576],[12.5814,55.5577],[12.5812,55.5576],[12.581,55.5578],[12.5807,55.5577],[12.5805,55.5578],[12.5804,55.5578],[12.5799,55.5578],[12.5798,55.5579],[12.5795,55.558],[12.5792,55.5579],[12.579,55.5576],[12.5792,55.5576],[12.579,55.5574],[12.5788,55.5577],[12.5783,55.5578],[12.5778,55.5579],[12.5774,55.5579],[12.5773,55.558],[12.5771,55.5582],[12.5771,55.558],[12.577,55.558],[12.577,55.5581],[12.577,55.5582],[12.5769,55.5582],[12.5767,55.5582],[12.5767,55.5582],[12.5767,55.5582],[12.5766,55.558],[12.5765,55.558],[12.576,55.558],[12.5761,55.5582],[12.5759,55.5583],[12.5757,55.5584],[12.5755,55.5583],[12.5749,55.5583],[12.5741,55.5581],[12.5736,55.5581],[12.5732,55.558],[12.5727,55.558],[12.5721,55.558],[12.5722,55.5582],[12.5721,55.5583],[12.5718,55.5584],[12.5715,55.5586],[12.5715,55.5588],[12.5713,55.5589],[12.5716,55.5589],[12.5718,55.5587],[12.5719,55.5585],[12.5721,55.5585],[12.5718,55.5589],[12.5717,55.5591],[12.5717,55.5594],[12.5715,55.5594],[12.5714,55.5593],[12.5713,55.5591],[12.5711,55.5593],[12.571,55.5592],[12.5707,55.5593],[12.5706,55.5592],[12.5699,55.5592],[12.5692,55.5592],[12.5684,55.5592],[12.5687,55.5594],[12.5686,55.5595],[12.5684,55.5595],[12.5683,55.5594],[12.5682,55.5594],[12.5681,55.5593],[12.5679,55.5593],[12.5677,55.5594],[12.5674,55.5593],[12.5673,55.5594],[12.5672,55.5595],[12.5673,55.5597],[12.5672,55.5598],[12.567,55.5599],[12.5669,55.5602],[12.5667,55.5604],[12.5668,55.5605],[12.5667,55.5606],[12.5663,55.5605],[12.5661,55.5606],[12.5661,55.5607],[12.5658,55.5606],[12.5656,55.5604],[12.5651,55.5605],[12.5649,55.5608],[12.5647,55.5608],[12.5647,55.5609],[12.565,55.561],[12.5652,55.5611],[12.5649,55.5612],[12.5649,55.5613],[12.5648,55.5615],[12.5643,55.5614],[12.5641,55.5612],[12.5638,55.5612],[12.5635,55.5613],[12.5633,55.5615],[12.5636,55.5616],[12.5641,55.5619],[12.564,55.5621],[12.5638,55.5622],[12.5637,55.5625],[12.5634,55.5626],[12.5634,55.5627],[12.563,55.5628],[12.563,55.5629],[12.5629,55.5631],[12.5627,55.5632],[12.5627,55.5634],[12.5625,55.5635],[12.5624,55.5637],[12.5623,55.5636],[12.5622,55.5638],[12.562,55.5638],[12.562,55.5637],[12.5621,55.5635],[12.562,55.5635],[12.5621,55.5634],[12.5622,55.5633],[12.562,55.5632],[12.5622,55.5632],[12.5623,55.5631],[12.5625,55.5632],[12.5626,55.563],[12.5627,55.5629],[12.5627,55.5627],[12.5628,55.5627],[12.5628,55.5626],[12.5626,55.5625],[12.5627,55.5624],[12.5626,55.5623],[12.5627,55.5622],[12.5629,55.5624],[12.5631,55.5624],[12.5631,55.5622],[12.5629,55.5622],[12.563,55.5621],[12.5632,55.5622],[12.5634,55.5622],[12.5632,55.562],[12.5632,55.5618],[12.563,55.5617],[12.5632,55.5617],[12.5633,55.5616],[12.563,55.5615],[12.5627,55.5619],[12.5623,55.5623],[12.5619,55.5629],[12.5616,55.5635],[12.5617,55.5643],[12.5618,55.5644],[12.5622,55.5645],[12.5628,55.5638],[12.5635,55.563],[12.564,55.5625],[12.5644,55.5625],[12.5651,55.5619],[12.5657,55.5614],[12.566,55.5612],[12.5673,55.561],[12.5686,55.5608],[12.5701,55.5608],[12.5716,55.5606],[12.5726,55.5605],[12.573,55.5605],[12.5735,55.5606],[12.5743,55.5605],[12.5747,55.5604],[12.5758,55.5603],[12.5772,55.56],[12.5788,55.5598],[12.5798,55.5597],[12.5811,55.56],[12.5812,55.5599],[12.5819,55.5602],[12.5825,55.5604],[12.5828,55.5605],[12.5831,55.5607],[12.584,55.5603],[12.5845,55.5604],[12.5845,55.5604],[12.5854,55.5602],[12.5867,55.5601],[12.5875,55.56],[12.5882,55.5599],[12.589,55.5598],[12.5892,55.5598],[12.5899,55.5599],[12.5903,55.5599],[12.5905,55.5598],[12.5921,55.5597],[12.5932,55.5596],[12.594,55.5596],[12.5946,55.5599],[12.5953,55.5603],[12.5958,55.5605],[12.5965,55.5607],[12.5966,55.5609],[12.5973,55.5611],[12.5979,55.5612],[12.5983,55.5613],[12.5985,55.5612],[12.5997,55.5617],[12.6001,55.5619],[12.6005,55.562],[12.6009,55.5623],[12.6019,55.5628],[12.6026,55.5631],[12.6032,55.5634],[12.6041,55.5637],[12.6054,55.564],[12.6056,55.5639],[12.6064,55.5641],[12.6069,55.5642],[12.6069,55.5644],[12.607,55.5648],[12.6081,55.5648],[12.6093,55.565],[12.6104,55.565],[12.6113,55.5651],[12.6118,55.5651],[12.6121,55.5647],[12.6121,55.5643],[12.6115,55.5641],[12.6111,55.5642],[12.611,55.5642],[12.6107,55.5641],[12.6107,55.5641],[12.6107,55.5641],[12.6107,55.5641],[12.6104,55.564],[12.6103,55.5638],[12.6102,55.5637],[12.6101,55.5636],[12.6102,55.5636],[12.6101,55.5636],[12.6106,55.5635],[12.6108,55.5634],[12.6104,55.5633],[12.6105,55.563],[12.6106,55.563],[12.6103,55.5628],[12.6103,55.5627],[12.6103,55.5626],[12.6101,55.5625],[12.6096,55.5627],[12.6095,55.5627],[12.6094,55.5628],[12.6091,55.5627],[12.609,55.5627],[12.6088,55.5628],[12.6086,55.5628],[12.6085,55.5629],[12.6084,55.563],[12.6082,55.563],[12.6082,55.563],[12.6082,55.563],[12.608,55.563],[12.608,55.563],[12.608,55.563],[12.6079,55.5629],[12.6083,55.5628],[12.6084,55.5625],[12.6084,55.5625],[12.6083,55.5624],[12.6082,55.5625],[12.6082,55.5625],[12.608,55.5625],[12.608,55.5623],[12.6081,55.5623],[12.6081,55.5623],[12.6081,55.5622],[12.608,55.5622],[12.6077,55.5623],[12.6075,55.5625],[12.6075,55.5625],[12.6075,55.5625],[12.6074,55.5625],[12.6074,55.5624],[12.6074,55.5624],[12.6074,55.5624],[12.6074,55.5624],[12.6075,55.5623],[12.6074,55.5622],[12.607,55.5623],[12.607,55.5623],[12.607,55.5623],[12.607,55.5622],[12.607,55.5622],[12.607,55.5622],[12.6073,55.5619],[12.6073,55.5619],[12.6072,55.5618],[12.6071,55.5617],[12.607,55.5617],[12.6069,55.5618],[12.6068,55.5618],[12.6067,55.5618],[12.6066,55.5619],[12.6066,55.562],[12.6064,55.5621],[12.6062,55.5621],[12.6059,55.562],[12.6059,55.562],[12.606,55.562],[12.606,55.562],[12.606,55.5618],[12.606,55.5617],[12.6059,55.5616],[12.6057,55.5615],[12.6054,55.5614],[12.6054,55.5613],[12.6059,55.5612],[12.6059,55.5611],[12.606,55.5609],[12.6058,55.5608],[12.6055,55.5609],[12.6052,55.5609],[12.6052,55.561],[12.6052,55.561],[12.6051,55.5613],[12.605,55.5614],[12.6049,55.5615],[12.6048,55.5614],[12.6048,55.5612],[12.6047,55.5612],[12.6047,55.5612],[12.6043,55.5609],[12.6038,55.5611],[12.6038,55.5611],[12.6038,55.5608],[12.6038,55.5608],[12.6037,55.5607],[12.6034,55.5608],[12.6031,55.561],[12.6031,55.561],[12.6031,55.561],[12.6029,55.561],[12.6029,55.561],[12.6028,55.561],[12.6028,55.561],[12.6028,55.561],[12.6029,55.5608],[12.6029,55.5608],[12.6028,55.5607],[12.6028,55.5607],[12.6028,55.5607],[12.6028,55.5607],[12.6029,55.5606],[12.6028,55.5606],[12.6028,55.5606],[12.6024,55.5606],[12.6024,55.5606],[12.6024,55.5607],[12.6024,55.5607],[12.6024,55.5607],[12.6023,55.5607],[12.6022,55.5608],[12.6022,55.5608],[12.6022,55.5608],[12.602,55.5608],[12.6019,55.5608],[12.6019,55.5608],[12.6019,55.5608],[12.6018,55.5606],[12.6018,55.5605],[12.6018,55.5605],[12.6019,55.5603],[12.6021,55.5601],[12.6016,55.5601],[12.6015,55.5601],[12.6014,55.5601],[12.6012,55.56],[12.6006,55.5592],[12.6004,55.559],[12.6001,55.5589],[12.6,55.5588],[12.6,55.5588],[12.5999,55.5588],[12.5996,55.5583],[12.5989,55.558],[12.5986,55.5578],[12.5982,55.5576],[12.5977,55.5574],[12.5971,55.5572],[12.5964,55.5568],[12.5961,55.5567],[12.595,55.5563],[12.5946,55.5561],[12.5944,55.556],[12.5934,55.5554],[12.5932,55.555],[12.593,55.5548],[12.593,55.5548],[12.5924,55.5547],[12.5918,55.5547],[12.5917,55.5547],[12.5913,55.5548],[12.591,55.5549],[12.5902,55.5553],[12.5899,55.5556],[12.5893,55.5559],[12.5886,55.5562],[12.5886,55.5562],[12.5886,55.5563],[12.588,55.5564],[12.5874,55.5566],[12.5867,55.5567],[12.5862,55.5566],[12.5861,55.5566],[12.5861,55.5566],[12.586,55.5565],[12.586,55.5565],[12.5858,55.5565],[12.5857,55.5567],[12.5853,55.5568],[12.5852,55.5569],[12.5851,55.557],[12.5852,55.5573],[12.5851,55.5573],[12.5849,55.5571],[12.5848,55.5571],[12.5847,55.557],[12.5844,55.557]],[[12.5734,55.5586],[12.5734,55.5586],[12.5733,55.5585],[12.573,55.5584],[12.5731,55.5583],[12.5733,55.5582],[12.5738,55.5585],[12.5738,55.5586],[12.5736,55.5586],[12.5734,55.5586]],[[12.5867,55.5574],[12.5867,55.5574],[12.5869,55.5574],[12.5871,55.5574],[12.5872,55.5574],[12.5873,55.5573],[12.5875,55.5573],[12.5879,55.5573],[12.5879,55.5572],[12.5882,55.5571],[12.5882,55.557],[12.5884,55.5569],[12.5887,55.5569],[12.589,55.5569],[12.5891,55.5569],[12.5891,55.5568],[12.5887,55.5568],[12.5884,55.5568],[12.5884,55.5567],[12.5886,55.5566],[12.5888,55.5566],[12.5889,55.5566],[12.589,55.5565],[12.5892,55.5563],[12.5893,55.5562],[12.5895,55.5561],[12.5896,55.5562],[12.5895,55.5563],[12.5895,55.5565],[12.5895,55.5568],[12.5894,55.557],[12.5892,55.5573],[12.5892,55.5575],[12.5891,55.5577],[12.5891,55.5578],[12.5889,55.558],[12.5889,55.5581],[12.5888,55.5583],[12.5889,55.5584],[12.5888,55.5585],[12.5888,55.5586],[12.589,55.5587],[12.589,55.5588],[12.5889,55.559],[12.5889,55.559],[12.589,55.5591],[12.5891,55.5591],[12.5891,55.5592],[12.5891,55.5592],[12.5891,55.5592],[12.5889,55.5592],[12.5887,55.5592],[12.5881,55.5593],[12.588,55.5593],[12.5877,55.5592],[12.5877,55.5591],[12.5879,55.5591],[12.5882,55.559],[12.5883,55.559],[12.5882,55.5589],[12.5884,55.5588],[12.5884,55.5587],[12.5883,55.5586],[12.588,55.5586],[12.5879,55.5587],[12.5877,55.5586],[12.5876,55.5587],[12.5874,55.5585],[12.5872,55.5584],[12.587,55.5585],[12.587,55.5586],[12.587,55.5587],[12.5869,55.5589],[12.5867,55.5589],[12.5867,55.5591],[12.5866,55.5592],[12.5866,55.5593],[12.5865,55.5592],[12.5865,55.5589],[12.5866,55.5582],[12.5867,55.5574]],[[12.5933,55.556],[12.5934,55.556],[12.5935,55.556],[12.5936,55.556],[12.5936,55.5562],[12.5937,55.5562],[12.5938,55.5562],[12.5938,55.5562],[12.5938,55.5561],[12.5939,55.5561],[12.5942,55.5563],[12.5942,55.5564],[12.5944,55.5564],[12.5945,55.5565],[12.5946,55.5566],[12.5946,55.5568],[12.5948,55.5569],[12.5949,55.557],[12.5952,55.5571],[12.5953,55.557],[12.5952,55.5569],[12.5953,55.5568],[12.5954,55.5568],[12.5955,55.5569],[12.5957,55.557],[12.5959,55.5572],[12.5963,55.5573],[12.5967,55.5575],[12.5971,55.5577],[12.5973,55.5578],[12.5972,55.5579],[12.5967,55.5577],[12.5962,55.5576],[12.5956,55.5573],[12.5951,55.5572],[12.5948,55.5571],[12.5947,55.557],[12.5945,55.5569],[12.5944,55.5569],[12.5943,55.5567],[12.594,55.5566],[12.5935,55.5564],[12.5933,55.5563],[12.5932,55.5562],[12.5933,55.556]],[[12.6037,55.5632],[12.6039,55.5633],[12.6043,55.5634],[12.605,55.5635],[12.6058,55.5636],[12.6069,55.5639],[12.607,55.564],[12.6069,55.5641],[12.6065,55.564],[12.6057,55.5638],[12.6047,55.5636],[12.6037,55.5634],[12.6037,55.5632]],[[12.5973,55.5591],[12.5973,55.5591],[12.5974,55.5592],[12.5975,55.5592],[12.5977,55.5592],[12.5977,55.5592],[12.5977,55.5594],[12.5975,55.5594],[12.5975,55.5595],[12.5973,55.5596],[12.5971,55.5595],[12.597,55.5593],[12.5969,55.5592],[12.5968,55.5592],[12.5969,55.5591],[12.597,55.5591],[12.5972,55.5591],[12.5973,55.5591]],[[12.5865,55.5597],[12.5865,55.5597],[12.5867,55.5597],[12.5869,55.5597],[12.587,55.5597],[12.5874,55.5597],[12.5877,55.5597],[12.5877,55.5597],[12.5875,55.5598],[12.587,55.5598],[12.5865,55.5598],[12.5865,55.5597]],[[12.5846,55.5598],[12.5848,55.5598],[12.5851,55.5597],[12.5856,55.5597],[12.5859,55.5597],[12.586,55.5597],[12.586,55.5598],[12.5857,55.5599],[12.5853,55.56],[12.5846,55.5601],[12.5846,55.5599],[12.5846,55.5598]]]},"properties":{"sourceId":"ais_par3.136621","a_type":4210,"hectares":86.857}},{"type":"Feature","id":"ais_par3.136623","geometry":{"type":"Polygon","coordinates":[[[12.5446,55.6154],[12.5455,55.6154],[12.5534,55.6154],[12.5564,55.6154],[12.56,55.6154],[12.5638,55.6154],[12.5657,55.6154],[12.5694,55.6154],[12.5717,55.6157],[12.5728,55.616],[12.5738,55.6164],[12.5749,55.6168],[12.5761,55.6172],[12.5772,55.6176],[12.5784,55.618],[12.5788,55.6182],[12.5787,55.6181],[12.5786,55.6176],[12.5785,55.617],[12.5783,55.6162],[12.5781,55.6152],[12.5779,55.6143],[12.5777,55.6133],[12.5774,55.6121],[12.5773,55.6114],[12.577,55.61],[12.5768,55.6089],[12.5765,55.6078],[12.5762,55.6064],[12.576,55.6052],[12.5759,55.6047],[12.5756,55.6042],[12.5751,55.6034],[12.5749,55.6029],[12.5737,55.603],[12.5733,55.6021],[12.5739,55.602],[12.5745,55.6019],[12.5743,55.6013],[12.5739,55.6],[12.5734,55.5984],[12.573,55.5969],[12.5725,55.5955],[12.5718,55.5936],[12.5712,55.5916],[12.5706,55.5905],[12.5704,55.5894],[12.5702,55.5885],[12.57,55.5877],[12.57,55.5875],[12.57,55.5867],[12.5698,55.586],[12.5697,55.5858],[12.5692,55.5854],[12.5693,55.5851],[12.5692,55.585],[12.569,55.5848],[12.5688,55.5843],[12.5687,55.584],[12.5679,55.5828],[12.5673,55.5814],[12.567,55.5806],[12.5665,55.58],[12.5659,55.5791],[12.565,55.5779],[12.5641,55.5767],[12.5635,55.5761],[12.5632,55.5759],[12.5618,55.5757],[12.5601,55.5755],[12.5582,55.5752],[12.557,55.5751],[12.5558,55.5749],[12.5555,55.5751],[12.5552,55.5751],[12.555,55.5749],[12.555,55.5748],[12.5541,55.5746],[12.5521,55.5743],[12.5499,55.5739],[12.5476,55.5735],[12.5453,55.5732],[12.5427,55.5729],[12.5406,55.5728],[12.54,55.5728],[12.5383,55.573],[12.5356,55.5735],[12.5334,55.5741],[12.5315,55.5749],[12.53,55.5758],[12.5286,55.5769],[12.5273,55.5782],[12.5263,55.5792],[12.5253,55.5802],[12.5243,55.5813],[12.5233,55.5822],[12.5224,55.5831],[12.5217,55.5838],[12.5204,55.5851],[12.519,55.5866],[12.5176,55.588],[12.5159,55.5897],[12.5144,55.5917],[12.5131,55.5939],[12.5123,55.596],[12.5117,55.598],[12.5114,55.5995],[12.511,55.6003],[12.5107,55.6014],[12.5104,55.6024],[12.5101,55.6035],[12.5097,55.6048],[12.5094,55.6061],[12.5092,55.6073],[12.5092,55.6082],[12.5094,55.6092],[12.51,55.6104],[12.5108,55.6114],[12.5119,55.6124],[12.5128,55.6131],[12.5131,55.6135],[12.5143,55.6135],[12.5153,55.6137],[12.5159,55.6137],[12.5165,55.6138],[12.5172,55.6138],[12.518,55.6139],[12.5188,55.614],[12.5196,55.6142],[12.52,55.6143],[12.5202,55.6143],[12.52,55.6142],[12.5196,55.6139],[12.5193,55.6137],[12.519,55.6135],[12.5189,55.6133],[12.5191,55.6132],[12.5195,55.613],[12.5199,55.613],[12.5203,55.6131],[12.5209,55.6137],[12.5215,55.6141],[12.522,55.6145],[12.5223,55.6148],[12.5226,55.6151],[12.5229,55.6154],[12.5235,55.6155],[12.5263,55.6155],[12.5276,55.6155],[12.5288,55.6155],[12.5295,55.6155],[12.5315,55.6155],[12.5323,55.6155],[12.5329,55.6155],[12.5338,55.6154],[12.5348,55.6154],[12.5354,55.6154],[12.5375,55.6154],[12.539,55.6154],[12.5429,55.6154],[12.544,55.6154],[12.5446,55.6154]],[[12.5774,55.615],[12.5774,55.6151],[12.5774,55.6152],[12.5773,55.6152],[12.5771,55.6153],[12.5769,55.6155],[12.5767,55.6156],[12.5766,55.6157],[12.5765,55.6159],[12.5764,55.6159],[12.5763,55.6159],[12.5762,55.6159],[12.5761,55.6159],[12.576,55.6159],[12.5758,55.6159],[12.5757,55.6159],[12.5756,55.616],[12.5754,55.6161],[12.5753,55.6161],[12.5752,55.6161],[12.575,55.616],[12.5748,55.616],[12.5746,55.6158],[12.5743,55.6157],[12.5742,55.6156],[12.574,55.6155],[12.5739,55.6155],[12.5738,55.6154],[12.5734,55.6152],[12.5732,55.6151],[12.5731,55.615],[12.5731,55.6149],[12.5732,55.6148],[12.5734,55.6149],[12.5736,55.6151],[12.574,55.6152],[12.5741,55.6152],[12.5743,55.6152],[12.5744,55.6153],[12.5746,55.6153],[12.5748,55.6152],[12.575,55.6152],[12.575,55.615],[12.575,55.6148],[12.575,55.6148],[12.5752,55.6148],[12.5752,55.6148],[12.5754,55.6147],[12.5756,55.6144],[12.5758,55.6145],[12.576,55.6146],[12.5762,55.6147],[12.5764,55.6149],[12.5764,55.615],[12.5767,55.615],[12.5767,55.6151],[12.5765,55.6151],[12.5767,55.6152],[12.5768,55.6152],[12.5771,55.6151],[12.5774,55.615]],[[12.5552,55.5757],[12.5551,55.5756],[12.5551,55.5755],[12.5551,55.5754],[12.5555,55.5753],[12.5558,55.5752],[12.5564,55.5753],[12.5573,55.5754],[12.5583,55.5756],[12.5592,55.5758],[12.5601,55.576],[12.5609,55.576],[12.5616,55.5762],[12.5622,55.5764],[12.5626,55.5765],[12.563,55.5768],[12.5633,55.5771],[12.5636,55.5773],[12.5635,55.5775],[12.5634,55.5778],[12.5633,55.5779],[12.563,55.578],[12.5627,55.578],[12.5624,55.5779],[12.5618,55.5777],[12.5607,55.5774],[12.5595,55.577],[12.5593,55.5771],[12.5591,55.577],[12.5587,55.5768],[12.5584,55.5768],[12.558,55.5769],[12.5577,55.5768],[12.5575,55.5766],[12.557,55.5763],[12.5565,55.5761],[12.5558,55.5758],[12.5552,55.5757]],[[12.5514,55.5839],[12.5516,55.5833],[12.5519,55.5826],[12.5521,55.582],[12.5524,55.5815],[12.5524,55.5813],[12.5533,55.5815],[12.5538,55.5817],[12.5541,55.5818],[12.5542,55.582],[12.5542,55.5821],[12.5541,55.5822],[12.5538,55.5822],[12.5534,55.5821],[12.5533,55.5822],[12.5534,55.5823],[12.5534,55.5826],[12.5535,55.5827],[12.5533,55.5828],[12.5531,55.5828],[12.5528,55.5827],[12.5525,55.5828],[12.5522,55.5829],[12.5521,55.583],[12.5521,55.5831],[12.5519,55.5832],[12.552,55.5833],[12.552,55.5834],[12.5522,55.5832],[12.5524,55.5831],[12.5527,55.5831],[12.5529,55.5832],[12.5531,55.5833],[12.553,55.5834],[12.5529,55.5835],[12.5529,55.5836],[12.5527,55.5837],[12.5526,55.5838],[12.5524,55.5839],[12.5521,55.5839],[12.5519,55.5838],[12.5517,55.5838],[12.5516,55.5838],[12.5514,55.5839]],[[12.5631,55.5865],[12.5615,55.5859],[12.5611,55.5857],[12.5613,55.5856],[12.5618,55.5855],[12.5623,55.5856],[12.5627,55.5857],[12.563,55.5856],[12.5631,55.5855],[12.5635,55.5856],[12.5638,55.5858],[12.5642,55.586],[12.5645,55.5862],[12.5644,55.5863],[12.5644,55.5865],[12.5648,55.5866],[12.5652,55.5868],[12.5652,55.5869],[12.5649,55.5869],[12.5644,55.5869],[12.5631,55.5865]],[[12.5424,55.6036],[12.5423,55.6035],[12.5421,55.6034],[12.5423,55.6033],[12.5424,55.603],[12.5427,55.6026],[12.5427,55.6024],[12.5428,55.6022],[12.5432,55.6022],[12.5435,55.6023],[12.5438,55.6025],[12.5439,55.6026],[12.544,55.6029],[12.544,55.603],[12.544,55.6031],[12.5438,55.6035],[12.5436,55.6036],[12.5431,55.6036],[12.5424,55.6036]],[[12.5562,55.6013],[12.5562,55.6013],[12.5562,55.6014],[12.5561,55.6014],[12.556,55.6015],[12.5559,55.6015],[12.5558,55.6016],[12.5557,55.6017],[12.5556,55.6017],[12.5556,55.6018],[12.5555,55.6019],[12.5553,55.6018],[12.5552,55.6018],[12.5553,55.6017],[12.5555,55.6015],[12.5558,55.6013],[12.5562,55.6013]],[[12.5159,55.613],[12.5159,55.613],[12.5156,55.613],[12.5152,55.6128],[12.5142,55.6125],[12.5131,55.6121],[12.5124,55.6117],[12.512,55.6114],[12.5117,55.6109],[12.5114,55.6103],[12.5115,55.61],[12.5117,55.6099],[12.5121,55.6097],[12.513,55.6097],[12.5142,55.6098],[12.5153,55.6101],[12.5161,55.6104],[12.5166,55.6108],[12.5167,55.6112],[12.5168,55.6113],[12.5169,55.6114],[12.517,55.6115],[12.5169,55.6117],[12.5167,55.6117],[12.5167,55.6119],[12.5168,55.6121],[12.5169,55.6124],[12.5167,55.6127],[12.5164,55.6128],[12.5159,55.613]],[[12.5252,55.6093],[12.5265,55.6088],[12.5275,55.6085],[12.5252,55.6093]],[[12.5499,55.5837],[12.5496,55.5837],[12.5496,55.5835],[12.5495,55.5834],[12.5493,55.5834],[12.5493,55.5832],[12.5493,55.5831],[12.5493,55.5829],[12.5495,55.5826],[12.5495,55.5825],[12.5494,55.5822],[12.5492,55.5821],[12.549,55.582],[12.5487,55.5821],[12.5484,55.5821],[12.5482,55.5819],[12.5482,55.5817],[12.5482,55.5817],[12.5484,55.5817],[12.5485,55.5817],[12.5486,55.5816],[12.5483,55.5814],[12.5481,55.5813],[12.5481,55.5812],[12.5482,55.5811],[12.5486,55.581],[12.549,55.581],[12.5493,55.5811],[12.5495,55.5812],[12.5495,55.5813],[12.5494,55.5815],[12.5492,55.5817],[12.5493,55.5818],[12.5494,55.582],[12.5495,55.582],[12.5496,55.5819],[12.5496,55.5817],[12.5496,55.5815],[12.5498,55.5814],[12.55,55.5814],[12.5501,55.5812],[12.5501,55.5811],[12.5503,55.5811],[12.5503,55.5809],[12.5501,55.5809],[12.5499,55.5809],[12.5498,55.5808],[12.5496,55.5808],[12.5493,55.5808],[12.5491,55.5807],[12.549,55.5806],[12.549,55.5805],[12.5493,55.5804],[12.5497,55.5803],[12.55,55.5801],[12.55,55.58],[12.5499,55.5799],[12.5497,55.5797],[12.5498,55.5795],[12.5498,55.5793],[12.5499,55.5792],[12.5499,55.5789],[12.5499,55.5788],[12.5495,55.5787],[12.5494,55.5786],[12.5497,55.5786],[12.5499,55.5785],[12.5496,55.5784],[12.5492,55.5783],[12.5484,55.5781],[12.5482,55.5781],[12.5481,55.5781],[12.5481,55.578],[12.5485,55.5779],[12.5489,55.5779],[12.5494,55.5779],[12.5499,55.578],[12.5503,55.5782],[12.5509,55.5783],[12.5511,55.5785],[12.5511,55.5786],[12.551,55.5787],[12.5511,55.5788],[12.5512,55.579],[12.5515,55.5792],[12.5518,55.5791],[12.5519,55.579],[12.552,55.5789],[12.5519,55.5787],[12.5518,55.5787],[12.5514,55.5786],[12.5514,55.5784],[12.5517,55.5784],[12.5521,55.5785],[12.5522,55.5784],[12.5522,55.5783],[12.5521,55.5782],[12.5519,55.5781],[12.5519,55.578],[12.5519,55.5779],[12.5517,55.5777],[12.5515,55.5777],[12.5515,55.5777],[12.5515,55.5775],[12.5514,55.5774],[12.5511,55.5773],[12.5508,55.5772],[12.5506,55.577],[12.5506,55.5767],[12.5508,55.5767],[12.551,55.5767],[12.5513,55.5767],[12.5516,55.5767],[12.552,55.5767],[12.5527,55.5766],[12.5536,55.5765],[12.5538,55.5766],[12.5538,55.5767],[12.5537,55.5769],[12.5535,55.5771],[12.5533,55.5775],[12.5533,55.5778],[12.5532,55.5781],[12.5529,55.5786],[12.5527,55.5791],[12.5525,55.5794],[12.5525,55.5797],[12.5523,55.58],[12.552,55.5805],[12.5518,55.581],[12.5516,55.5816],[12.5514,55.5822],[12.5512,55.5828],[12.551,55.5832],[12.551,55.5833],[12.5509,55.5834],[12.5507,55.5837],[12.5509,55.5841],[12.5504,55.5842],[12.5506,55.5844],[12.5502,55.5844],[12.5501,55.5845],[12.5503,55.5846],[12.5503,55.5847],[12.5501,55.5848],[12.5502,55.5849],[12.55,55.5851],[12.5498,55.585],[12.5497,55.5849],[12.5494,55.5847],[12.5494,55.5846],[12.5497,55.5846],[12.55,55.5844],[12.55,55.5841],[12.5499,55.5839],[12.5499,55.5837]],[[12.5254,55.5838],[12.5254,55.5839],[12.5253,55.584],[12.5251,55.5841],[12.5245,55.5842],[12.5245,55.5843],[12.524,55.5845],[12.5239,55.5846],[12.5242,55.5847],[12.5244,55.585],[12.5243,55.5851],[12.5241,55.5851],[12.5241,55.5853],[12.5239,55.5853],[12.524,55.5855],[12.5239,55.5856],[12.5236,55.5857],[12.5236,55.5858],[12.5238,55.5859],[12.5237,55.5861],[12.5239,55.5862],[12.5237,55.5863],[12.5235,55.5864],[12.5234,55.5866],[12.523,55.5868],[12.5228,55.587],[12.5228,55.5872],[12.5224,55.5872],[12.5223,55.5871],[12.5221,55.5873],[12.5217,55.5873],[12.5216,55.5875],[12.5214,55.5876],[12.5213,55.5877],[12.5211,55.5879],[12.5209,55.588],[12.5207,55.5881],[12.5207,55.5883],[12.5205,55.5884],[12.5203,55.5884],[12.5202,55.5886],[12.5199,55.5886],[12.5199,55.5888],[12.5197,55.5888],[12.5197,55.5889],[12.5198,55.589],[12.5195,55.5891],[12.5196,55.5892],[12.5198,55.5893],[12.5197,55.5895],[12.5195,55.5895],[12.5195,55.5896],[12.5192,55.5897],[12.5192,55.5898],[12.519,55.5899],[12.5189,55.5899],[12.5186,55.5899],[12.5186,55.5901],[12.5184,55.59],[12.5184,55.5902],[12.5182,55.5902],[12.5182,55.5904],[12.518,55.5905],[12.5178,55.5905],[12.5177,55.5908],[12.5174,55.5908],[12.5174,55.5911],[12.5172,55.5915],[12.5172,55.5919],[12.5171,55.5921],[12.517,55.5923],[12.517,55.5924],[12.5166,55.5925],[12.5167,55.5927],[12.5165,55.5928],[12.5162,55.5927],[12.516,55.5927],[12.5159,55.5926],[12.5159,55.5925],[12.5157,55.5926],[12.5156,55.5924],[12.5151,55.5923],[12.5151,55.5922],[12.5149,55.5919],[12.5151,55.5917],[12.5152,55.5916],[12.5152,55.5914],[12.5156,55.5912],[12.5161,55.5912],[12.5162,55.5911],[12.5164,55.5912],[12.5164,55.5913],[12.5167,55.5912],[12.5168,55.5914],[12.517,55.5914],[12.517,55.5913],[12.5172,55.5912],[12.5172,55.5909],[12.5172,55.5907],[12.5175,55.5907],[12.5177,55.5905],[12.5176,55.5904],[12.5177,55.5902],[12.5177,55.5901],[12.518,55.5902],[12.5181,55.59],[12.5181,55.5899],[12.5183,55.5898],[12.518,55.5895],[12.5182,55.5891],[12.5183,55.5889],[12.5182,55.5888],[12.5179,55.5889],[12.5176,55.589],[12.5177,55.5886],[12.518,55.5883],[12.5184,55.5882],[12.5185,55.588],[12.5184,55.5879],[12.5186,55.5876],[12.5187,55.5873],[12.519,55.5872],[12.5192,55.587],[12.5192,55.5868],[12.5195,55.5867],[12.5195,55.5865],[12.52,55.5863],[12.5201,55.5859],[12.5204,55.5859],[12.5203,55.5862],[12.5203,55.5863],[12.5205,55.5863],[12.5208,55.5863],[12.5209,55.5864],[12.5211,55.5863],[12.521,55.5862],[12.5212,55.586],[12.5213,55.5858],[12.5212,55.5857],[12.5207,55.5857],[12.5204,55.5858],[12.5207,55.5854],[12.5208,55.5853],[12.5209,55.5852],[12.5207,55.5851],[12.521,55.585],[12.5211,55.5849],[12.521,55.5848],[12.5212,55.5848],[12.5212,55.5847],[12.5217,55.5843],[12.5217,55.5841],[12.522,55.584],[12.522,55.5837],[12.5227,55.5834],[12.523,55.5831],[12.523,55.5829],[12.5234,55.5828],[12.5235,55.5826],[12.5238,55.5824],[12.524,55.5821],[12.5242,55.582],[12.5244,55.5818],[12.525,55.5815],[12.5252,55.5818],[12.5255,55.5818],[12.5258,55.5817],[12.5259,55.5819],[12.5256,55.582],[12.5257,55.5822],[12.5255,55.5824],[12.5255,55.5825],[12.526,55.5826],[12.5259,55.5828],[12.5253,55.5831],[12.5253,55.5833],[12.5255,55.5834],[12.5254,55.5838]],[[12.5637,55.5898],[12.5633,55.5899],[12.5628,55.5898],[12.5626,55.5899],[12.5623,55.59],[12.5621,55.59],[12.5619,55.5899],[12.562,55.5898],[12.5621,55.5897],[12.5619,55.5896],[12.5616,55.5896],[12.5615,55.5896],[12.5614,55.5896],[12.5613,55.5895],[12.5613,55.5894],[12.5612,55.5893],[12.561,55.5892],[12.5609,55.5891],[12.561,55.589],[12.5612,55.589],[12.5614,55.5891],[12.5614,55.589],[12.5615,55.5889],[12.5615,55.5888],[12.5612,55.5887],[12.5607,55.5886],[12.5602,55.5884],[12.5597,55.5882],[12.5588,55.5879],[12.5582,55.5876],[12.5596,55.588],[12.5609,55.5885],[12.562,55.5889],[12.5626,55.589],[12.563,55.5891],[12.5631,55.5892],[12.5637,55.5893],[12.5641,55.5896],[12.5647,55.5899],[12.5654,55.5901],[12.5643,55.5911],[12.5635,55.5917],[12.5633,55.5918],[12.5635,55.5921],[12.5632,55.5923],[12.5633,55.5924],[12.5636,55.5926],[12.5639,55.5927],[12.5644,55.5926],[12.5649,55.5927],[12.5651,55.5929],[12.5649,55.5931],[12.565,55.5932],[12.5652,55.5933],[12.5655,55.5933],[12.5657,55.5932],[12.566,55.5933],[12.5662,55.5932],[12.5658,55.593],[12.5653,55.5929],[12.5653,55.5928],[12.5655,55.5926],[12.5657,55.5924],[12.5659,55.5924],[12.566,55.5925],[12.5662,55.5926],[12.5662,55.5927],[12.566,55.5927],[12.566,55.5929],[12.5661,55.5929],[12.5662,55.5928],[12.5663,55.5927],[12.5664,55.5927],[12.5666,55.5926],[12.5667,55.5926],[12.5669,55.5927],[12.567,55.5927],[12.567,55.5928],[12.5668,55.5928],[12.5666,55.5927],[12.5665,55.5928],[12.5665,55.5929],[12.5669,55.593],[12.5672,55.5931],[12.5673,55.5928],[12.5675,55.5925],[12.5677,55.5924],[12.5679,55.5924],[12.5681,55.5925],[12.5684,55.5925],[12.5685,55.5927],[12.5686,55.5929],[12.5684,55.5931],[12.5677,55.5931],[12.5675,55.5931],[12.5673,55.5932],[12.567,55.5931],[12.567,55.5933],[12.5671,55.5933],[12.5675,55.5932],[12.5677,55.5932],[12.5678,55.5933],[12.568,55.5931],[12.5682,55.5932],[12.5684,55.5933],[12.5687,55.5933],[12.5689,55.5934],[12.5683,55.5945],[12.5678,55.5944],[12.5671,55.5943],[12.5663,55.5943],[12.566,55.5944],[12.5653,55.5944],[12.5647,55.5944],[12.5644,55.5942],[12.564,55.5942],[12.5637,55.5945],[12.5632,55.5949],[12.5633,55.5951],[12.5631,55.5952],[12.5627,55.5951],[12.5618,55.5949],[12.5615,55.5951],[12.5619,55.5952],[12.5625,55.5953],[12.5625,55.5956],[12.5624,55.5957],[12.5619,55.5961],[12.5617,55.5962],[12.5615,55.5963],[12.5614,55.5964],[12.5609,55.5966],[12.5606,55.5967],[12.5603,55.5967],[12.5603,55.5965],[12.56,55.5962],[12.5598,55.5963],[12.5595,55.5965],[12.5591,55.5966],[12.5586,55.5965],[12.5584,55.5963],[12.5586,55.5963],[12.5588,55.5962],[12.5591,55.5959],[12.5588,55.5959],[12.5584,55.5961],[12.558,55.5962],[12.5574,55.5963],[12.5573,55.5962],[12.5573,55.5961],[12.5576,55.5957],[12.5579,55.5953],[12.5585,55.595],[12.5589,55.5945],[12.5588,55.5944],[12.5584,55.5943],[12.5581,55.5942],[12.558,55.5939],[12.5576,55.5939],[12.5575,55.594],[12.5571,55.594],[12.5566,55.5939],[12.5562,55.594],[12.5553,55.5937],[12.5547,55.5937],[12.5545,55.5937],[12.5542,55.5938],[12.5538,55.5936],[12.5533,55.5932],[12.5529,55.5932],[12.5527,55.5934],[12.5522,55.5935],[12.5519,55.5934],[12.5521,55.5932],[12.5524,55.5931],[12.553,55.5928],[12.5534,55.5924],[12.5536,55.5921],[12.5535,55.5919],[12.5531,55.5917],[12.5529,55.5915],[12.553,55.5912],[12.5534,55.591],[12.5539,55.591],[12.5544,55.5912],[12.5546,55.5911],[12.5544,55.5909],[12.5544,55.5907],[12.5547,55.5905],[12.5553,55.5903],[12.5559,55.5902],[12.5561,55.5901],[12.5562,55.5899],[12.5559,55.5897],[12.5553,55.5894],[12.5551,55.5892],[12.5551,55.589],[12.5553,55.5883],[12.5554,55.5874],[12.5556,55.5871],[12.5561,55.5869],[12.557,55.5872],[12.5582,55.5876],[12.5576,55.5875],[12.5572,55.5875],[12.557,55.5875],[12.557,55.5876],[12.5582,55.588],[12.5586,55.5881],[12.5587,55.588],[12.5591,55.588],[12.5595,55.5882],[12.5596,55.5883],[12.5595,55.5884],[12.5595,55.5885],[12.5596,55.5886],[12.5598,55.5886],[12.56,55.5887],[12.56,55.5887],[12.5599,55.5888],[12.5599,55.589],[12.56,55.5891],[12.5602,55.5892],[12.5604,55.5893],[12.5607,55.5894],[12.5609,55.5893],[12.5611,55.5894],[12.5611,55.5895],[12.561,55.5896],[12.5609,55.5898],[12.5609,55.5899],[12.561,55.59],[12.5613,55.59],[12.5615,55.59],[12.5617,55.59],[12.5618,55.59],[12.562,55.59],[12.5622,55.59],[12.5622,55.5901],[12.5624,55.5901],[12.5626,55.5901],[12.5628,55.59],[12.563,55.59],[12.5632,55.5899],[12.5634,55.5899],[12.5636,55.59],[12.5637,55.5899],[12.5637,55.5898]],[[12.5514,55.5829],[12.5511,55.5838],[12.5511,55.5836],[12.5514,55.5829]],[[12.5538,55.5862],[12.5538,55.5859],[12.554,55.5859],[12.554,55.5856],[12.5543,55.5854],[12.5545,55.5852],[12.5547,55.585],[12.5546,55.5847],[12.5544,55.5846],[12.5545,55.5844],[12.5545,55.5842],[12.5543,55.5838],[12.5537,55.5837],[12.5536,55.5835],[12.5537,55.5834],[12.554,55.5833],[12.5539,55.5833],[12.5538,55.5832],[12.5538,55.5831],[12.5539,55.5831],[12.5543,55.583],[12.5548,55.583],[12.5548,55.5828],[12.5548,55.5826],[12.5544,55.5825],[12.5542,55.5824],[12.5542,55.5822],[12.5544,55.582],[12.5545,55.5818],[12.5543,55.5816],[12.554,55.5814],[12.5531,55.5811],[12.5527,55.581],[12.5526,55.5808],[12.5526,55.5806],[12.553,55.5803],[12.5535,55.5801],[12.5541,55.58],[12.5542,55.5799],[12.5541,55.5796],[12.5539,55.5793],[12.5539,55.579],[12.5539,55.5786],[12.554,55.578],[12.5539,55.5774],[12.554,55.5771],[12.5542,55.5767],[12.5546,55.576],[12.5548,55.5759],[12.5552,55.5758],[12.5554,55.576],[12.5556,55.5762],[12.5558,55.5766],[12.5559,55.577],[12.5559,55.5773],[12.5562,55.5777],[12.5566,55.5779],[12.5569,55.578],[12.5573,55.5782],[12.5579,55.5783],[12.5589,55.5784],[12.5596,55.5786],[12.5599,55.5788],[12.5603,55.5791],[12.5604,55.5794],[12.56,55.5795],[12.5595,55.5797],[12.559,55.5799],[12.5582,55.5801],[12.5573,55.5803],[12.5567,55.5805],[12.5566,55.5807],[12.5566,55.5809],[12.5564,55.5813],[12.5565,55.5814],[12.5566,55.5814],[12.5568,55.5813],[12.5571,55.5813],[12.5571,55.5814],[12.5571,55.5815],[12.5569,55.5816],[12.5569,55.5817],[12.557,55.5819],[12.5573,55.582],[12.5575,55.5819],[12.5575,55.5818],[12.5578,55.5818],[12.5581,55.582],[12.5582,55.5819],[12.5579,55.5818],[12.5578,55.5817],[12.5579,55.5816],[12.5581,55.5816],[12.5586,55.5817],[12.5592,55.5819],[12.56,55.5821],[12.5597,55.5822],[12.5595,55.5822],[12.5595,55.5823],[12.5591,55.5823],[12.5591,55.5824],[12.559,55.5826],[12.5589,55.5829],[12.559,55.583],[12.5591,55.5829],[12.5593,55.5829],[12.5595,55.5829],[12.5597,55.5831],[12.5598,55.5832],[12.5597,55.5834],[12.5597,55.5836],[12.5596,55.5836],[12.5592,55.5837],[12.5589,55.5837],[12.5587,55.5837],[12.5588,55.5838],[12.5589,55.584],[12.5592,55.584],[12.5594,55.5841],[12.5594,55.5842],[12.5593,55.5844],[12.5593,55.5846],[12.5592,55.5847],[12.5589,55.5847],[12.5588,55.5847],[12.5586,55.5847],[12.5585,55.5848],[12.5588,55.5851],[12.5588,55.5852],[12.5589,55.5853],[12.5589,55.5853],[12.5587,55.5853],[12.5583,55.5853],[12.5581,55.5854],[12.5581,55.5856],[12.5582,55.5857],[12.5585,55.5859],[12.5588,55.5861],[12.5589,55.5862],[12.5589,55.5865],[12.5588,55.5866],[12.5586,55.5866],[12.5582,55.5864],[12.5578,55.5862],[12.5572,55.586],[12.557,55.586],[12.5567,55.586],[12.5567,55.5862],[12.5565,55.5862],[12.5562,55.5863],[12.5558,55.5863],[12.5557,55.5864],[12.5558,55.5866],[12.5564,55.5868],[12.5556,55.5868],[12.5546,55.5865],[12.5538,55.5862]]]},"properties":{"sourceId":"ais_par3.136623","a_type":4210,"hectares":1478.607}},{"type":"Feature","id":"ais_par3.136918","geometry":{"type":"Polygon","coordinates":[[[12.5916,55.5875],[12.5922,55.5877],[12.5929,55.5878],[12.5934,55.5879],[12.5939,55.5879],[12.5942,55.5877],[12.5944,55.5875],[12.5944,55.5874],[12.5942,55.5872],[12.5938,55.5871],[12.5935,55.587],[12.5931,55.5869],[12.5927,55.5868],[12.5923,55.5868],[12.5921,55.5868],[12.5919,55.5869],[12.5917,55.5872],[12.5917,55.5874],[12.5916,55.5875]]]},"properties":{"sourceId":"ais_par3.136918","a_type":4120,"hectares":1.46}},{"type":"Feature","id":"ais_par3.137047","geometry":{"type":"Polygon","coordinates":[[[12.6198,55.5909],[12.62,55.5908],[12.6197,55.5908],[12.6196,55.5908],[12.6196,55.5909],[12.6199,55.591],[12.6198,55.5909]]]},"properties":{"sourceId":"ais_par3.137047","a_type":4120,"hectares":0.039}},{"type":"Feature","id":"ais_par3.137049","geometry":{"type":"Polygon","coordinates":[[[12.6211,55.5904],[12.6214,55.5902],[12.6212,55.59],[12.621,55.5898],[12.6207,55.5899],[12.6206,55.59],[12.6207,55.5902],[12.6208,55.5903],[12.6211,55.5904]]]},"properties":{"sourceId":"ais_par3.137049","a_type":4120,"hectares":0.173}},{"type":"Feature","id":"ais_par3.137050","geometry":{"type":"Polygon","coordinates":[[[12.6273,55.5828],[12.6276,55.5829],[12.6277,55.583],[12.6281,55.5831],[12.6283,55.5831],[12.6287,55.5832],[12.6289,55.5831],[12.629,55.583],[12.6289,55.5829],[12.6288,55.5828],[12.6286,55.5827],[12.6284,55.5827],[12.6282,55.5826],[12.6279,55.5826],[12.6278,55.5826],[12.6276,55.5826],[12.6274,55.5826],[12.6273,55.5826],[12.6273,55.5828],[12.6273,55.5828]]]},"properties":{"sourceId":"ais_par3.137050","a_type":4120,"hectares":0.44}},{"type":"Feature","id":"ais_par3.137327","geometry":{"type":"Polygon","coordinates":[[[12.5716,55.5817],[12.5703,55.5815],[12.5693,55.5813],[12.5683,55.5811],[12.5677,55.581],[12.5677,55.5813],[12.5676,55.5814],[12.568,55.5824],[12.5685,55.5834],[12.5688,55.5843],[12.569,55.5848],[12.5692,55.585],[12.5693,55.5851],[12.5697,55.5853],[12.5713,55.5855],[12.5727,55.5858],[12.5738,55.586],[12.5745,55.5861],[12.5752,55.5862],[12.5756,55.5851],[12.5761,55.5839],[12.5764,55.5832],[12.5767,55.5825],[12.5757,55.5824],[12.5749,55.5823],[12.5742,55.5821],[12.5739,55.5829],[12.5736,55.5834],[12.5735,55.5841],[12.5724,55.5839],[12.5715,55.5837],[12.5709,55.5836],[12.5711,55.5828],[12.5713,55.5823],[12.5715,55.5819],[12.5716,55.5817],[12.5716,55.5817]],[[12.5694,55.583],[12.5694,55.583],[12.5693,55.583],[12.5692,55.583],[12.5692,55.5829],[12.5693,55.5829],[12.5694,55.5829],[12.5694,55.5829],[12.5695,55.583],[12.5695,55.583],[12.5694,55.583]]]},"properties":{"sourceId":"ais_par3.137327","a_type":4110,"hectares":17.087}}]}
