{"type":"FeatureCollection","metadata":{"kommuneKode":"0157","kommuneNavn":"Gentofte","source":"https://wfs2-miljoegis.mim.dk/natur/ows","layer":"natur:ais_par3","bbox":[12.498645151129065,55.72183582740571,12.60558792881775,55.779441573745785],"fetchedAt":"2026-06-12T20:55:36.202650+00:00"},"features":[{"type":"Feature","id":"ais_par3.134949","geometry":{"type":"Polygon","coordinates":[[[12.494,55.7223],[12.4929,55.7223],[12.4925,55.7225],[12.4925,55.7226],[12.4935,55.7228],[12.4936,55.7228],[12.4943,55.7227],[12.4944,55.7226],[12.4944,55.7225],[12.494,55.7223]]]},"properties":{"sourceId":"ais_par3.134949","a_type":5120,"hectares":0.46}},{"type":"Feature","id":"ais_par3.134964","geometry":{"type":"Polygon","coordinates":[[[12.5247,55.7221],[12.5245,55.7221],[12.5244,55.7221],[12.5245,55.7223],[12.5245,55.7223],[12.525,55.7224],[12.5251,55.7224],[12.5251,55.7222],[12.5247,55.7221]]]},"properties":{"sourceId":"ais_par3.134964","a_type":5120,"hectares":0.093}},{"type":"Feature","id":"ais_par3.134967","geometry":{"type":"Polygon","coordinates":[[[12.5207,55.7222],[12.5214,55.7222],[12.5222,55.7222],[12.5224,55.7225],[12.5226,55.7225],[12.5226,55.7221],[12.5228,55.7219],[12.5232,55.7217],[12.5235,55.7213],[12.5238,55.7209],[12.5242,55.7206],[12.5248,55.7202],[12.5251,55.7199],[12.5259,55.72],[12.5261,55.7201],[12.5263,55.7201],[12.5266,55.7202],[12.527,55.7203],[12.5272,55.7206],[12.5278,55.7207],[12.5279,55.7206],[12.5282,55.7205],[12.5282,55.7205],[12.5283,55.7205],[12.5287,55.7202],[12.5288,55.72],[12.5287,55.7198],[12.529,55.7198],[12.529,55.7197],[12.5286,55.7196],[12.5282,55.7193],[12.5276,55.7191],[12.5256,55.719],[12.525,55.719],[12.5237,55.7188],[12.5223,55.7188],[12.5212,55.7187],[12.52,55.7185],[12.5194,55.7183],[12.5188,55.718],[12.5186,55.7174],[12.519,55.7171],[12.5189,55.7171],[12.5186,55.7173],[12.5184,55.7174],[12.5184,55.7174],[12.5183,55.7174],[12.5176,55.7176],[12.5173,55.7175],[12.5173,55.7175],[12.517,55.7172],[12.5166,55.7172],[12.5165,55.7173],[12.5156,55.7177],[12.5149,55.718],[12.5144,55.7184],[12.5141,55.7187],[12.514,55.7188],[12.514,55.7188],[12.5139,55.7188],[12.5135,55.7188],[12.5134,55.7188],[12.5134,55.719],[12.5137,55.719],[12.5137,55.719],[12.5137,55.7191],[12.5138,55.7192],[12.5137,55.7194],[12.514,55.7199],[12.5144,55.7204],[12.5147,55.721],[12.515,55.7214],[12.5151,55.7215],[12.5159,55.7218],[12.5163,55.7221],[12.5154,55.7225],[12.5156,55.7225],[12.5164,55.7222],[12.5168,55.7224],[12.5174,55.7225],[12.5178,55.7224],[12.5179,55.7224],[12.5179,55.7224],[12.5194,55.7224],[12.5207,55.7222]],[[12.5269,55.7192],[12.5271,55.7191],[12.5276,55.7192],[12.5281,55.7193],[12.5284,55.7196],[12.5282,55.7196],[12.5276,55.7196],[12.5272,55.7193],[12.5268,55.7193],[12.5267,55.7192],[12.5269,55.7192]],[[12.5264,55.7199],[12.5275,55.7203],[12.5276,55.7205],[12.5276,55.7206],[12.5273,55.7205],[12.527,55.7202],[12.5262,55.7199],[12.5261,55.7198],[12.5256,55.7198],[12.5256,55.7197],[12.5258,55.7197],[12.5263,55.7198],[12.5264,55.7199]],[[12.5254,55.719],[12.5263,55.7192],[12.5263,55.7193],[12.5262,55.7194],[12.5256,55.7192],[12.5252,55.7192],[12.5251,55.7192],[12.5249,55.7193],[12.5248,55.7193],[12.5246,55.7192],[12.5246,55.719],[12.5247,55.719],[12.5254,55.719]],[[12.5221,55.7189],[12.5227,55.719],[12.5234,55.7189],[12.5236,55.719],[12.523,55.7192],[12.5226,55.7193],[12.5222,55.7191],[12.522,55.719],[12.5221,55.7189]],[[12.5191,55.7199],[12.5196,55.7197],[12.5199,55.7196],[12.5204,55.7197],[12.5205,55.7198],[12.5206,55.72],[12.5205,55.7202],[12.52,55.7205],[12.5197,55.7206],[12.5193,55.7205],[12.5191,55.7204],[12.5186,55.7204],[12.5188,55.7201],[12.5191,55.7199]],[[12.5191,55.7218],[12.5188,55.7217],[12.5186,55.7214],[12.5187,55.7212],[12.519,55.7211],[12.5195,55.7212],[12.5201,55.7212],[12.5206,55.7213],[12.5218,55.7217],[12.5221,55.722],[12.5218,55.7221],[12.5213,55.7221],[12.5204,55.7221],[12.5194,55.7222],[12.5191,55.7221],[12.5192,55.722],[12.5191,55.7218]]]},"properties":{"sourceId":"ais_par3.134967","a_type":5120,"hectares":27.478}},{"type":"Feature","id":"ais_par3.134972","geometry":{"type":"Polygon","coordinates":[[[12.5519,55.7233],[12.5521,55.7234],[12.5522,55.7234],[12.5537,55.7233],[12.554,55.7226],[12.5532,55.7226],[12.5527,55.7226],[12.5513,55.7226],[12.5507,55.7228],[12.5506,55.7228],[12.5502,55.7225],[12.5497,55.7217],[12.5493,55.7216],[12.5483,55.7217],[12.5471,55.7217],[12.5468,55.7223],[12.5468,55.7226],[12.5462,55.7227],[12.5462,55.7228],[12.5469,55.7227],[12.547,55.7229],[12.548,55.723],[12.5496,55.7237],[12.55,55.7238],[12.5511,55.7237],[12.5517,55.7235],[12.5518,55.7233],[12.5519,55.7233]]]},"properties":{"sourceId":"ais_par3.134972","a_type":5120,"hectares":5.709}},{"type":"Feature","id":"ais_par3.134973","geometry":{"type":"Polygon","coordinates":[[[12.5674,55.7226],[12.5674,55.7225],[12.5672,55.7224],[12.5664,55.7217],[12.5653,55.7214],[12.5649,55.7213],[12.5648,55.7214],[12.5648,55.7216],[12.5644,55.7219],[12.5643,55.7218],[12.5644,55.7216],[12.5647,55.7215],[12.5646,55.7213],[12.5643,55.7214],[12.5641,55.7216],[12.5641,55.7219],[12.5643,55.722],[12.5644,55.722],[12.5644,55.7221],[12.5647,55.7222],[12.5648,55.7224],[12.5651,55.7223],[12.5651,55.7222],[12.5649,55.722],[12.5653,55.7217],[12.5655,55.7217],[12.5656,55.7218],[12.5652,55.7222],[12.5652,55.7223],[12.5654,55.7223],[12.5654,55.7224],[12.5665,55.7228],[12.567,55.7226],[12.5674,55.7226]],[[12.5666,55.7224],[12.5662,55.7221],[12.5663,55.7219],[12.5668,55.7223],[12.5666,55.7224]]]},"properties":{"sourceId":"ais_par3.134973","a_type":5120,"hectares":1.461}},{"type":"Feature","id":"ais_par3.135698","geometry":{"type":"Polygon","coordinates":[[[12.4949,55.7236],[12.4947,55.7236],[12.4944,55.7236],[12.4941,55.7236],[12.4938,55.7237],[12.4937,55.7238],[12.4937,55.7238],[12.4939,55.7239],[12.494,55.724],[12.4942,55.7239],[12.4944,55.7239],[12.4944,55.7239],[12.4944,55.724],[12.4946,55.724],[12.4949,55.724],[12.4951,55.7239],[12.4952,55.7239],[12.4953,55.724],[12.4954,55.7239],[12.4954,55.7238],[12.4954,55.7236],[12.4953,55.7234],[12.4951,55.7234],[12.4949,55.7233],[12.4948,55.7233],[12.4947,55.7234],[12.4948,55.7234],[12.4949,55.7236],[12.4949,55.7236]]]},"properties":{"sourceId":"ais_par3.135698","a_type":5120,"hectares":0.504}},{"type":"Feature","id":"ais_par3.137068","geometry":{"type":"Polygon","coordinates":[[[12.4948,55.7231],[12.4946,55.7233],[12.4945,55.7233],[12.4946,55.7234],[12.4945,55.7235],[12.4944,55.7235],[12.4941,55.7235],[12.4939,55.7235],[12.4938,55.7236],[12.4936,55.7237],[12.4935,55.7238],[12.4934,55.7238],[12.4934,55.7239],[12.4935,55.724],[12.4939,55.7241],[12.4943,55.7241],[12.4947,55.7243],[12.4951,55.7243],[12.4953,55.7242],[12.4955,55.7242],[12.4957,55.7242],[12.4959,55.7241],[12.4958,55.7238],[12.4957,55.7237],[12.4954,55.7234],[12.4952,55.7233],[12.495,55.7232],[12.4949,55.7231],[12.4948,55.7231]],[[12.4949,55.7236],[12.4949,55.7236],[12.4948,55.7234],[12.4947,55.7234],[12.4948,55.7233],[12.4949,55.7233],[12.4951,55.7234],[12.4953,55.7234],[12.4954,55.7236],[12.4954,55.7238],[12.4954,55.7239],[12.4953,55.724],[12.4952,55.7239],[12.4951,55.7239],[12.4949,55.724],[12.4946,55.724],[12.4944,55.724],[12.4944,55.7239],[12.4944,55.7239],[12.4942,55.7239],[12.494,55.724],[12.4939,55.7239],[12.4937,55.7238],[12.4937,55.7238],[12.4938,55.7237],[12.4941,55.7236],[12.4944,55.7236],[12.4947,55.7236],[12.4949,55.7236]]]},"properties":{"sourceId":"ais_par3.137068","a_type":4120,"hectares":0.692}},{"type":"Feature","id":"ais_par3.134899","geometry":{"type":"Polygon","coordinates":[[[12.5181,55.7253],[12.5185,55.726],[12.5192,55.7267],[12.5202,55.7273],[12.5213,55.7273],[12.522,55.727],[12.5219,55.7263],[12.5218,55.7255],[12.5215,55.7249],[12.5181,55.7253]]]},"properties":{"sourceId":"ais_par3.134899","a_type":4110,"hectares":4.642}},{"type":"Feature","id":"ais_par3.134901","geometry":{"type":"Polygon","coordinates":[[[12.518,55.7244],[12.5178,55.7244],[12.5177,55.7245],[12.5176,55.7248],[12.518,55.7251],[12.5181,55.7251],[12.5183,55.725],[12.5183,55.7249],[12.5181,55.7245],[12.518,55.7244]]]},"properties":{"sourceId":"ais_par3.134901","a_type":4120,"hectares":0.222}},{"type":"Feature","id":"ais_par3.134902","geometry":{"type":"Polygon","coordinates":[[[12.515,55.7214],[12.515,55.7216],[12.5152,55.7224],[12.5154,55.7227],[12.5165,55.7226],[12.5174,55.7225],[12.5168,55.7224],[12.5164,55.7222],[12.5156,55.7225],[12.5154,55.7225],[12.5163,55.7221],[12.5159,55.7218],[12.5151,55.7215],[12.515,55.7214]]]},"properties":{"sourceId":"ais_par3.134902","a_type":4120,"hectares":0.804}},{"type":"Feature","id":"ais_par3.134903","geometry":{"type":"Polygon","coordinates":[[[12.5218,55.7233],[12.5211,55.7235],[12.5197,55.724],[12.5203,55.7244],[12.5217,55.7239],[12.5217,55.7237],[12.5217,55.7234],[12.5218,55.7233]]]},"properties":{"sourceId":"ais_par3.134903","a_type":4120,"hectares":0.74}},{"type":"Feature","id":"ais_par3.134905","geometry":{"type":"Polygon","coordinates":[[[12.4942,55.7217],[12.4949,55.7219],[12.4958,55.7218],[12.4963,55.7213],[12.497,55.7211],[12.4966,55.7208],[12.4961,55.7206],[12.4949,55.7208],[12.4945,55.7213],[12.4942,55.7217]]]},"properties":{"sourceId":"ais_par3.134905","a_type":4120,"hectares":1.464}},{"type":"Feature","id":"ais_par3.134968","geometry":{"type":"Polygon","coordinates":[[[12.5153,55.7229],[12.5159,55.7236],[12.5166,55.7246],[12.5171,55.7254],[12.5175,55.726],[12.5181,55.7266],[12.5188,55.7272],[12.5197,55.7276],[12.5215,55.7279],[12.5236,55.7275],[12.5236,55.7268],[12.5236,55.7264],[12.5236,55.7263],[12.5243,55.7265],[12.5253,55.7266],[12.5254,55.7265],[12.5237,55.7262],[12.5232,55.726],[12.5228,55.7257],[12.5226,55.7253],[12.5225,55.7248],[12.5222,55.7245],[12.522,55.7243],[12.5219,55.7239],[12.5218,55.7236],[12.5221,55.7232],[12.5226,55.7227],[12.5224,55.7227],[12.5221,55.723],[12.5218,55.7233],[12.5217,55.7234],[12.5217,55.7237],[12.5217,55.7239],[12.5217,55.7242],[12.5219,55.7245],[12.5222,55.7247],[12.5224,55.7254],[12.5225,55.7257],[12.5229,55.7261],[12.5233,55.7262],[12.5234,55.7263],[12.5234,55.7274],[12.5226,55.7276],[12.5214,55.7278],[12.5206,55.7277],[12.5198,55.7275],[12.5192,55.7272],[12.5185,55.7268],[12.518,55.7263],[12.5173,55.7253],[12.5164,55.7241],[12.5156,55.7229],[12.5153,55.7229]]]},"properties":{"sourceId":"ais_par3.134968","a_type":5120,"hectares":1.853}},{"type":"Feature","id":"ais_par3.134969","geometry":{"type":"Polygon","coordinates":[[[12.5258,55.7267],[12.527,55.7269],[12.528,55.727],[12.5296,55.7273],[12.5314,55.7271],[12.5334,55.7271],[12.535,55.7272],[12.5358,55.7271],[12.5368,55.7268],[12.5381,55.7265],[12.5383,55.7264],[12.5386,55.7263],[12.5386,55.7262],[12.5383,55.7263],[12.538,55.7265],[12.5375,55.7266],[12.5369,55.7267],[12.536,55.727],[12.5355,55.7271],[12.535,55.7271],[12.5344,55.727],[12.5333,55.727],[12.5324,55.727],[12.5313,55.727],[12.5301,55.7271],[12.5296,55.7271],[12.5285,55.727],[12.5272,55.7268],[12.5259,55.7266],[12.5258,55.7267]]]},"properties":{"sourceId":"ais_par3.134969","a_type":5120,"hectares":0.847}},{"type":"Feature","id":"ais_par3.134970","geometry":{"type":"Polygon","coordinates":[[[12.5388,55.7263],[12.5395,55.7262],[12.5398,55.726],[12.5402,55.7254],[12.5405,55.7248],[12.5407,55.7244],[12.541,55.7241],[12.5416,55.7238],[12.5424,55.7237],[12.5435,55.7237],[12.5438,55.7237],[12.5438,55.7235],[12.5432,55.7236],[12.5424,55.7236],[12.5419,55.7237],[12.5414,55.7238],[12.5409,55.724],[12.5406,55.7244],[12.5403,55.725],[12.5399,55.7257],[12.5396,55.726],[12.5393,55.7261],[12.5389,55.7262],[12.5388,55.7263]]]},"properties":{"sourceId":"ais_par3.134970","a_type":5120,"hectares":0.463}},{"type":"Feature","id":"ais_par3.134971","geometry":{"type":"Polygon","coordinates":[[[12.544,55.7236],[12.5447,55.7235],[12.5452,55.7232],[12.5458,55.7229],[12.5457,55.7228],[12.5453,55.723],[12.5448,55.7233],[12.5444,55.7234],[12.544,55.7235],[12.544,55.7236]]]},"properties":{"sourceId":"ais_par3.134971","a_type":5120,"hectares":0.133}},{"type":"Feature","id":"ais_par3.135289","geometry":{"type":"Polygon","coordinates":[[[12.5287,55.75],[12.5286,55.7499],[12.5285,55.7499],[12.5284,55.7499],[12.5283,55.7499],[12.5283,55.75],[12.5284,55.75],[12.5285,55.75],[12.5286,55.75],[12.5286,55.75],[12.5287,55.75]]]},"properties":{"sourceId":"ais_par3.135289","a_type":5120,"hectares":0.028}},{"type":"Feature","id":"ais_par3.135600","geometry":{"type":"Polygon","coordinates":[[[12.5292,55.7529],[12.5292,55.7528],[12.529,55.7528],[12.5288,55.7528],[12.5287,55.7529],[12.5288,55.7529],[12.529,55.753],[12.5292,55.753],[12.5292,55.7529]]]},"properties":{"sourceId":"ais_par3.135600","a_type":5120,"hectares":0.044}},{"type":"Feature","id":"ais_par3.135603","geometry":{"type":"Polygon","coordinates":[[[12.529,55.753],[12.5288,55.753],[12.5287,55.753],[12.5285,55.7531],[12.5286,55.7532],[12.5286,55.7533],[12.5288,55.7533],[12.529,55.7533],[12.5291,55.7532],[12.5291,55.7532],[12.5291,55.7531],[12.529,55.753],[12.529,55.753]]]},"properties":{"sourceId":"ais_par3.135603","a_type":5120,"hectares":0.095}},{"type":"Feature","id":"ais_par3.135604","geometry":{"type":"Polygon","coordinates":[[[12.516,55.7446],[12.516,55.7445],[12.5161,55.7445],[12.5162,55.7445],[12.5163,55.7444],[12.5162,55.7443],[12.5161,55.7442],[12.5159,55.7441],[12.5158,55.7441],[12.5157,55.7442],[12.5157,55.7443],[12.5158,55.7444],[12.516,55.7446]]]},"properties":{"sourceId":"ais_par3.135604","a_type":5120,"hectares":0.109}},{"type":"Feature","id":"ais_par3.135606","geometry":{"type":"Polygon","coordinates":[[[12.579,55.7483],[12.5793,55.7483],[12.5794,55.748],[12.5792,55.7479],[12.5789,55.7479],[12.5788,55.748],[12.579,55.7482],[12.579,55.7483],[12.579,55.7483]]]},"properties":{"sourceId":"ais_par3.135606","a_type":5120,"hectares":0.115}},{"type":"Feature","id":"ais_par3.135608","geometry":{"type":"Polygon","coordinates":[[[12.5459,55.7345],[12.5458,55.7346],[12.5456,55.7347],[12.5455,55.7348],[12.5456,55.7349],[12.5458,55.7349],[12.5459,55.735],[12.546,55.735],[12.5462,55.735],[12.5462,55.7349],[12.5461,55.7348],[12.5461,55.7346],[12.546,55.7346],[12.546,55.7345],[12.5459,55.7345]]]},"properties":{"sourceId":"ais_par3.135608","a_type":5120,"hectares":0.138}},{"type":"Feature","id":"ais_par3.135614","geometry":{"type":"Polygon","coordinates":[[[12.5485,55.755],[12.5485,55.7551],[12.5486,55.7551],[12.5488,55.755],[12.549,55.755],[12.5493,55.7545],[12.5493,55.7544],[12.5492,55.7543],[12.549,55.7543],[12.5488,55.7545],[12.5485,55.7549],[12.5485,55.755]]]},"properties":{"sourceId":"ais_par3.135614","a_type":5120,"hectares":0.222}},{"type":"Feature","id":"ais_par3.135617","geometry":{"type":"Polygon","coordinates":[[[12.5739,55.7394],[12.574,55.7394],[12.5741,55.7394],[12.5741,55.7393],[12.5742,55.7391],[12.5746,55.7389],[12.5746,55.7387],[12.5748,55.7385],[12.5752,55.7384],[12.5753,55.7384],[12.5751,55.7383],[12.5745,55.7384],[12.5743,55.7385],[12.5741,55.739],[12.5739,55.7394]]]},"properties":{"sourceId":"ais_par3.135617","a_type":5120,"hectares":0.258}},{"type":"Feature","id":"ais_par3.135618","geometry":{"type":"Polygon","coordinates":[[[12.5164,55.7472],[12.5164,55.7471],[12.5165,55.7471],[12.5167,55.7471],[12.5168,55.7472],[12.5169,55.7472],[12.517,55.7471],[12.5169,55.747],[12.5167,55.747],[12.5167,55.7469],[12.5166,55.7469],[12.5165,55.7468],[12.5164,55.7467],[12.5163,55.7466],[12.5162,55.7466],[12.516,55.7465],[12.5159,55.7466],[12.5159,55.7467],[12.5159,55.7468],[12.516,55.7469],[12.516,55.747],[12.5161,55.7471],[12.5162,55.7472],[12.5164,55.7472],[12.5164,55.7472]]]},"properties":{"sourceId":"ais_par3.135618","a_type":5120,"hectares":0.265}},{"type":"Feature","id":"ais_par3.135620","geometry":{"type":"Polygon","coordinates":[[[12.5379,55.7516],[12.5379,55.7515],[12.5379,55.7514],[12.5379,55.7511],[12.538,55.751],[12.538,55.7508],[12.5378,55.7507],[12.5376,55.7508],[12.5374,55.7509],[12.5373,55.7511],[12.5373,55.7512],[12.5373,55.7513],[12.5374,55.7515],[12.5375,55.7515],[12.5377,55.7516],[12.5377,55.7517],[12.5379,55.7516]]]},"properties":{"sourceId":"ais_par3.135620","a_type":5120,"hectares":0.327}},{"type":"Feature","id":"ais_par3.135621","geometry":{"type":"Polygon","coordinates":[[[12.5289,55.7527],[12.5291,55.7527],[12.5292,55.7526],[12.5293,55.7525],[12.5292,55.7525],[12.5292,55.7524],[12.5292,55.7523],[12.529,55.7522],[12.5288,55.7521],[12.5286,55.7521],[12.5283,55.7521],[12.5281,55.7521],[12.528,55.7522],[12.528,55.7523],[12.5279,55.7523],[12.5279,55.7524],[12.5279,55.7525],[12.528,55.7525],[12.5283,55.7526],[12.5285,55.7526],[12.5286,55.7525],[12.5288,55.7525],[12.529,55.7525],[12.5291,55.7525],[12.529,55.7526],[12.5289,55.7526],[12.5288,55.7527],[12.5289,55.7527]]]},"properties":{"sourceId":"ais_par3.135621","a_type":5120,"hectares":0.376}},{"type":"Feature","id":"ais_par3.135622","geometry":{"type":"Polygon","coordinates":[[[12.5204,55.7458],[12.5205,55.7459],[12.5205,55.7459],[12.5205,55.746],[12.5205,55.746],[12.5203,55.746],[12.5202,55.746],[12.52,55.746],[12.5199,55.746],[12.5197,55.7459],[12.5196,55.7459],[12.5194,55.7459],[12.5193,55.7459],[12.5192,55.746],[12.5191,55.746],[12.519,55.746],[12.5189,55.746],[12.5188,55.746],[12.5188,55.7459],[12.5189,55.7458],[12.519,55.7458],[12.5191,55.7458],[12.5191,55.7457],[12.519,55.7457],[12.5188,55.7457],[12.5187,55.7457],[12.5185,55.7458],[12.5185,55.7459],[12.5185,55.7459],[12.5186,55.746],[12.5187,55.7461],[12.5189,55.7461],[12.5193,55.7462],[12.5203,55.7462],[12.5207,55.7461],[12.5209,55.7461],[12.5209,55.746],[12.5209,55.7459],[12.5208,55.7458],[12.5207,55.7458],[12.5205,55.7457],[12.5204,55.7458]]]},"properties":{"sourceId":"ais_par3.135622","a_type":5120,"hectares":0.413}},{"type":"Feature","id":"ais_par3.135629","geometry":{"type":"Polygon","coordinates":[[[12.5193,55.7469],[12.5197,55.7468],[12.52,55.7466],[12.5202,55.7465],[12.5203,55.7464],[12.5203,55.7463],[12.5201,55.7462],[12.5199,55.7462],[12.5196,55.7462],[12.519,55.7462],[12.5187,55.7462],[12.5184,55.7461],[12.5182,55.7459],[12.518,55.7458],[12.5179,55.7457],[12.5174,55.7458],[12.5164,55.7461],[12.5163,55.7461],[12.5163,55.7462],[12.5165,55.7464],[12.517,55.7469],[12.5174,55.7472],[12.5178,55.7474],[12.518,55.7475],[12.5183,55.7475],[12.5184,55.7475],[12.5187,55.7473],[12.519,55.747],[12.5193,55.7469]],[[12.5174,55.7469],[12.5174,55.7469],[12.5175,55.7468],[12.5177,55.7468],[12.5179,55.7467],[12.5181,55.7466],[12.5183,55.7467],[12.5185,55.7468],[12.5187,55.747],[12.5187,55.7471],[12.5184,55.7471],[12.5183,55.7472],[12.518,55.7472],[12.5178,55.7471],[12.5176,55.747],[12.5174,55.7469]],[[12.5192,55.7468],[12.5192,55.7468],[12.5191,55.7468],[12.5189,55.7468],[12.5187,55.7468],[12.5187,55.7467],[12.5188,55.7467],[12.5189,55.7467],[12.5189,55.7466],[12.5188,55.7466],[12.5187,55.7465],[12.5186,55.7464],[12.5185,55.7464],[12.5186,55.7463],[12.5187,55.7463],[12.5189,55.7463],[12.5191,55.7464],[12.5193,55.7464],[12.5195,55.7463],[12.5198,55.7463],[12.52,55.7464],[12.52,55.7465],[12.5197,55.7465],[12.5194,55.7467],[12.5192,55.7468]],[[12.517,55.7466],[12.517,55.7466],[12.5168,55.7464],[12.5166,55.7462],[12.5166,55.7461],[12.5167,55.7461],[12.5169,55.746],[12.5172,55.746],[12.5175,55.7461],[12.5176,55.7462],[12.5176,55.7463],[12.5175,55.7464],[12.5173,55.7465],[12.517,55.7466]]]},"properties":{"sourceId":"ais_par3.135629","a_type":5120,"hectares":1.712}},{"type":"Feature","id":"ais_par3.135631","geometry":{"type":"Polygon","coordinates":[[[12.5872,55.7477],[12.5872,55.7477],[12.5875,55.7477],[12.5884,55.7473],[12.5884,55.7462],[12.5884,55.745],[12.5882,55.7447],[12.5878,55.7445],[12.5872,55.7445],[12.5864,55.7445],[12.5857,55.7448],[12.5854,55.7452],[12.5854,55.7462],[12.5857,55.7466],[12.5864,55.7472],[12.5872,55.7477]],[[12.5869,55.7471],[12.5868,55.7471],[12.5868,55.747],[12.5866,55.7469],[12.5864,55.7467],[12.5861,55.7465],[12.5861,55.7464],[12.5861,55.7463],[12.5861,55.746],[12.586,55.7453],[12.5861,55.7452],[12.5863,55.7451],[12.5865,55.7449],[12.5868,55.7448],[12.587,55.7447],[12.5874,55.7447],[12.5878,55.7447],[12.588,55.7448],[12.5882,55.7449],[12.5883,55.745],[12.5882,55.7454],[12.5882,55.7456],[12.5882,55.7457],[12.5882,55.7459],[12.5882,55.7461],[12.5882,55.7463],[12.5882,55.7465],[12.5882,55.7467],[12.5882,55.747],[12.588,55.7472],[12.5877,55.7472],[12.5869,55.7471]]]},"properties":{"sourceId":"ais_par3.135631","a_type":5120,"hectares":2.279}},{"type":"Feature","id":"ais_par3.135632","geometry":{"type":"Polygon","coordinates":[[[12.534,55.7535],[12.5344,55.7534],[12.5346,55.7533],[12.5348,55.7532],[12.5347,55.753],[12.5346,55.7528],[12.5344,55.7527],[12.5345,55.7526],[12.5346,55.7524],[12.535,55.752],[12.535,55.7519],[12.5352,55.7518],[12.5354,55.7516],[12.5355,55.7514],[12.5356,55.7512],[12.5356,55.751],[12.5357,55.7508],[12.5357,55.7506],[12.5357,55.7504],[12.5358,55.7502],[12.5359,55.75],[12.5359,55.7499],[12.536,55.7497],[12.5362,55.7495],[12.5363,55.7494],[12.5365,55.7492],[12.5366,55.7491],[12.5367,55.7489],[12.5368,55.7486],[12.537,55.7482],[12.5373,55.7478],[12.5375,55.7475],[12.5376,55.7471],[12.5376,55.7468],[12.5378,55.7465],[12.538,55.7461],[12.5381,55.7459],[12.5383,55.7457],[12.5383,55.7455],[12.5382,55.7454],[12.5381,55.7452],[12.5379,55.745],[12.5378,55.7449],[12.5378,55.7447],[12.5378,55.7444],[12.5378,55.7441],[12.5375,55.7438],[12.5372,55.7435],[12.5362,55.7435],[12.5352,55.7435],[12.5349,55.7435],[12.5346,55.7436],[12.5344,55.7437],[12.5341,55.744],[12.534,55.7442],[12.5341,55.7445],[12.534,55.7446],[12.5333,55.7449],[12.533,55.7451],[12.5328,55.7454],[12.5327,55.7458],[12.5326,55.7459],[12.5326,55.746],[12.5323,55.7467],[12.5321,55.7474],[12.532,55.7478],[12.5321,55.7483],[12.5321,55.7488],[12.5323,55.7495],[12.5325,55.7501],[12.5327,55.7505],[12.5328,55.751],[12.5327,55.7516],[12.5327,55.7519],[12.5328,55.7521],[12.5334,55.7525],[12.5338,55.7529],[12.5339,55.7531],[12.534,55.7534],[12.534,55.7535]],[[12.5329,55.7508],[12.5329,55.7508],[12.533,55.7508],[12.5331,55.7508],[12.5335,55.7508],[12.5338,55.7508],[12.5341,55.7508],[12.5343,55.7508],[12.5344,55.7509],[12.5345,55.751],[12.5345,55.7511],[12.5344,55.7512],[12.5342,55.7513],[12.5343,55.7514],[12.5342,55.7514],[12.5342,55.7516],[12.5343,55.7516],[12.5341,55.7517],[12.534,55.7518],[12.5339,55.7518],[12.5337,55.7518],[12.5335,55.7519],[12.5335,55.752],[12.5333,55.752],[12.533,55.7521],[12.533,55.7519],[12.533,55.7518],[12.5329,55.7517],[12.5329,55.7515],[12.5329,55.7512],[12.5329,55.7508]],[[12.534,55.7458],[12.5338,55.7458],[12.5337,55.7459],[12.5336,55.7459],[12.5335,55.7459],[12.5334,55.7459],[12.5333,55.7459],[12.5331,55.7459],[12.533,55.7459],[12.5329,55.7459],[12.5329,55.7458],[12.5329,55.7457],[12.5329,55.7455],[12.533,55.7454],[12.533,55.7454],[12.5331,55.7453],[12.5332,55.7451],[12.5332,55.7451],[12.5333,55.745],[12.5335,55.7449],[12.5337,55.7449],[12.5338,55.7448],[12.534,55.7448],[12.5341,55.7448],[12.5342,55.7449],[12.5343,55.745],[12.5342,55.7451],[12.5343,55.7451],[12.5344,55.7452],[12.5343,55.7453],[12.5343,55.7453],[12.5342,55.7454],[12.5341,55.7454],[12.534,55.7455],[12.534,55.7456],[12.534,55.7457],[12.534,55.7457],[12.534,55.7458]],[[12.5329,55.7507],[12.5329,55.7506],[12.5327,55.7503],[12.5327,55.7501],[12.5326,55.75],[12.5325,55.7498],[12.5325,55.7497],[12.5325,55.7496],[12.5328,55.7497],[12.533,55.7498],[12.5331,55.7498],[12.5332,55.7499],[12.5333,55.75],[12.5333,55.75],[12.5335,55.7501],[12.5335,55.7502],[12.5334,55.7503],[12.5335,55.7503],[12.5335,55.7504],[12.5336,55.7504],[12.5337,55.7504],[12.5338,55.7505],[12.5338,55.7506],[12.5338,55.7506],[12.5338,55.7507],[12.5338,55.7507],[12.5336,55.7507],[12.5332,55.7507],[12.5331,55.7507],[12.533,55.7507],[12.5329,55.7507]],[[12.5328,55.7495],[12.5326,55.7495],[12.5325,55.7495],[12.5324,55.7494],[12.5324,55.7493],[12.5324,55.7493],[12.5323,55.7492],[12.5323,55.7491],[12.5323,55.749],[12.5323,55.7489],[12.5322,55.7488],[12.5322,55.7486],[12.5322,55.7485],[12.5322,55.7484],[12.5323,55.7483],[12.5324,55.7483],[12.5324,55.7484],[12.5325,55.7485],[12.5325,55.7486],[12.5325,55.7487],[12.5326,55.7488],[12.5326,55.7489],[12.5326,55.7489],[12.5326,55.749],[12.5327,55.749],[12.5328,55.7491],[12.5329,55.7491],[12.5331,55.7492],[12.5331,55.7493],[12.533,55.7494],[12.5329,55.7494],[12.5329,55.7495],[12.5328,55.7495],[12.5328,55.7495],[12.5328,55.7495]],[[12.5343,55.7507],[12.5342,55.7507],[12.5341,55.7507],[12.534,55.7506],[12.534,55.7506],[12.534,55.7505],[12.534,55.7505],[12.534,55.7504],[12.5339,55.7504],[12.5338,55.7504],[12.5337,55.7504],[12.5337,55.7503],[12.5336,55.7503],[12.5337,55.7502],[12.5337,55.7502],[12.5337,55.75],[12.5337,55.75],[12.5338,55.7499],[12.5339,55.7499],[12.5341,55.7499],[12.5343,55.75],[12.5344,55.7501],[12.5345,55.7502],[12.5345,55.7503],[12.5344,55.7504],[12.5344,55.7505],[12.5343,55.7506],[12.5343,55.7506],[12.5343,55.7507],[12.5343,55.7507]],[[12.5324,55.7478],[12.5323,55.7477],[12.5323,55.7476],[12.5323,55.7475],[12.5324,55.7474],[12.5324,55.7473],[12.5324,55.7471],[12.5325,55.7469],[12.5324,55.7468],[12.5325,55.7466],[12.5326,55.7464],[12.5327,55.7462],[12.5328,55.7461],[12.5329,55.746],[12.533,55.7461],[12.5331,55.7461],[12.5332,55.7462],[12.5333,55.7463],[12.5333,55.7464],[12.5333,55.7464],[12.5334,55.7465],[12.5334,55.7466],[12.5332,55.7468],[12.5331,55.7469],[12.533,55.747],[12.5329,55.7471],[12.5328,55.7472],[12.5327,55.7472],[12.5328,55.7474],[12.5326,55.7475],[12.5325,55.7475],[12.5325,55.7476],[12.5325,55.7477],[12.5324,55.7477],[12.5324,55.7478]]]},"properties":{"sourceId":"ais_par3.135632","a_type":5120,"hectares":22.62}},{"type":"Feature","id":"ais_par3.135695","geometry":{"type":"Polygon","coordinates":[[[12.5143,55.7387],[12.5142,55.7387],[12.5141,55.7386],[12.514,55.7386],[12.514,55.7385],[12.514,55.7384],[12.514,55.7383],[12.514,55.7383],[12.5139,55.7382],[12.5138,55.7382],[12.5137,55.7383],[12.5137,55.7384],[12.5137,55.7386],[12.5138,55.7386],[12.5137,55.7388],[12.5136,55.739],[12.5136,55.7391],[12.5136,55.7391],[12.5137,55.7392],[12.5138,55.7393],[12.514,55.7393],[12.5142,55.7393],[12.5143,55.7392],[12.5144,55.7391],[12.5144,55.739],[12.5144,55.7388],[12.5143,55.7388],[12.5143,55.7387]]]},"properties":{"sourceId":"ais_par3.135695","a_type":5120,"hectares":0.376}},{"type":"Feature","id":"ais_par3.136987","geometry":{"type":"Polygon","coordinates":[[[12.534,55.7458],[12.534,55.7457],[12.534,55.7457],[12.534,55.7456],[12.534,55.7455],[12.5341,55.7454],[12.5342,55.7454],[12.5343,55.7453],[12.5343,55.7453],[12.5344,55.7452],[12.5343,55.7451],[12.5342,55.7451],[12.5343,55.745],[12.5342,55.7449],[12.5341,55.7448],[12.534,55.7448],[12.5338,55.7448],[12.5337,55.7449],[12.5335,55.7449],[12.5333,55.745],[12.5332,55.7451],[12.5332,55.7451],[12.5331,55.7453],[12.533,55.7454],[12.533,55.7454],[12.5329,55.7455],[12.5329,55.7457],[12.5329,55.7458],[12.5329,55.7459],[12.533,55.7459],[12.5331,55.7459],[12.5333,55.7459],[12.5334,55.7459],[12.5335,55.7459],[12.5336,55.7459],[12.5337,55.7459],[12.5338,55.7458],[12.534,55.7458]]]},"properties":{"sourceId":"ais_par3.136987","a_type":4120,"hectares":0.8}},{"type":"Feature","id":"ais_par3.136989","geometry":{"type":"Polygon","coordinates":[[[12.5285,55.7538],[12.5286,55.754],[12.5287,55.7541],[12.5287,55.7542],[12.5288,55.7544],[12.5288,55.7546],[12.5289,55.7546],[12.5292,55.7546],[12.5294,55.7546],[12.5294,55.7545],[12.5293,55.7545],[12.5294,55.7544],[12.5293,55.7543],[12.5293,55.7542],[12.5295,55.7542],[12.5296,55.7542],[12.5296,55.7541],[12.5295,55.754],[12.5295,55.7539],[12.5298,55.7538],[12.5294,55.7538],[12.5289,55.7538],[12.5285,55.7538]]]},"properties":{"sourceId":"ais_par3.136989","a_type":4120,"hectares":0.462}},{"type":"Feature","id":"ais_par3.136982","geometry":{"type":"Polygon","coordinates":[[[12.5329,55.7508],[12.5329,55.7512],[12.5329,55.7515],[12.5329,55.7517],[12.533,55.7518],[12.533,55.7519],[12.533,55.7521],[12.5333,55.752],[12.5335,55.752],[12.5335,55.7519],[12.5337,55.7518],[12.5339,55.7518],[12.534,55.7518],[12.5341,55.7517],[12.5343,55.7516],[12.5342,55.7516],[12.5342,55.7514],[12.5343,55.7514],[12.5342,55.7513],[12.5344,55.7512],[12.5345,55.7511],[12.5345,55.751],[12.5344,55.7509],[12.5343,55.7508],[12.5341,55.7508],[12.5338,55.7508],[12.5335,55.7508],[12.5331,55.7508],[12.533,55.7508],[12.5329,55.7508],[12.5329,55.7508]]]},"properties":{"sourceId":"ais_par3.136982","a_type":4120,"hectares":1.034}},{"type":"Feature","id":"ais_par3.136983","geometry":{"type":"Polygon","coordinates":[[[12.5329,55.7507],[12.533,55.7507],[12.5331,55.7507],[12.5332,55.7507],[12.5336,55.7507],[12.5338,55.7507],[12.5338,55.7507],[12.5338,55.7506],[12.5338,55.7506],[12.5338,55.7505],[12.5337,55.7504],[12.5336,55.7504],[12.5335,55.7504],[12.5335,55.7503],[12.5334,55.7503],[12.5335,55.7502],[12.5335,55.7501],[12.5333,55.75],[12.5333,55.75],[12.5332,55.7499],[12.5331,55.7498],[12.533,55.7498],[12.5328,55.7497],[12.5325,55.7496],[12.5325,55.7497],[12.5325,55.7498],[12.5326,55.75],[12.5327,55.7501],[12.5327,55.7503],[12.5329,55.7506],[12.5329,55.7507]]]},"properties":{"sourceId":"ais_par3.136983","a_type":4120,"hectares":0.557}},{"type":"Feature","id":"ais_par3.136984","geometry":{"type":"Polygon","coordinates":[[[12.5343,55.7507],[12.5343,55.7507],[12.5343,55.7506],[12.5343,55.7506],[12.5344,55.7505],[12.5344,55.7504],[12.5345,55.7503],[12.5345,55.7502],[12.5344,55.7501],[12.5343,55.75],[12.5341,55.7499],[12.5339,55.7499],[12.5338,55.7499],[12.5337,55.75],[12.5337,55.75],[12.5337,55.7502],[12.5337,55.7502],[12.5336,55.7503],[12.5337,55.7503],[12.5337,55.7504],[12.5338,55.7504],[12.5339,55.7504],[12.534,55.7504],[12.534,55.7505],[12.534,55.7505],[12.534,55.7506],[12.534,55.7506],[12.5341,55.7507],[12.5342,55.7507],[12.5343,55.7507]]]},"properties":{"sourceId":"ais_par3.136984","a_type":4120,"hectares":0.299}},{"type":"Feature","id":"ais_par3.136985","geometry":{"type":"Polygon","coordinates":[[[12.5328,55.7495],[12.5328,55.7495],[12.5328,55.7495],[12.5329,55.7495],[12.5329,55.7494],[12.533,55.7494],[12.5331,55.7493],[12.5331,55.7492],[12.5329,55.7491],[12.5328,55.7491],[12.5327,55.749],[12.5326,55.749],[12.5326,55.7489],[12.5326,55.7489],[12.5326,55.7488],[12.5325,55.7487],[12.5325,55.7486],[12.5325,55.7485],[12.5324,55.7484],[12.5324,55.7483],[12.5323,55.7483],[12.5322,55.7484],[12.5322,55.7485],[12.5322,55.7486],[12.5322,55.7488],[12.5323,55.7489],[12.5323,55.749],[12.5323,55.7491],[12.5323,55.7492],[12.5324,55.7493],[12.5324,55.7493],[12.5324,55.7494],[12.5325,55.7495],[12.5326,55.7495],[12.5328,55.7495]]]},"properties":{"sourceId":"ais_par3.136985","a_type":4120,"hectares":0.335}},{"type":"Feature","id":"ais_par3.136986","geometry":{"type":"Polygon","coordinates":[[[12.5324,55.7478],[12.5324,55.7477],[12.5325,55.7477],[12.5325,55.7476],[12.5325,55.7475],[12.5326,55.7475],[12.5328,55.7474],[12.5327,55.7472],[12.5328,55.7472],[12.5329,55.7471],[12.533,55.747],[12.5331,55.7469],[12.5332,55.7468],[12.5334,55.7466],[12.5334,55.7465],[12.5333,55.7464],[12.5333,55.7464],[12.5333,55.7463],[12.5332,55.7462],[12.5331,55.7461],[12.533,55.7461],[12.5329,55.746],[12.5328,55.7461],[12.5327,55.7462],[12.5326,55.7464],[12.5325,55.7466],[12.5324,55.7468],[12.5325,55.7469],[12.5324,55.7471],[12.5324,55.7473],[12.5324,55.7474],[12.5323,55.7475],[12.5323,55.7476],[12.5323,55.7477],[12.5324,55.7478]]]},"properties":{"sourceId":"ais_par3.136986","a_type":4120,"hectares":0.637}},{"type":"Feature","id":"ais_par3.137054","geometry":{"type":"Polygon","coordinates":[[[12.5174,55.7469],[12.5176,55.747],[12.5178,55.7471],[12.518,55.7472],[12.5183,55.7472],[12.5184,55.7471],[12.5187,55.7471],[12.5187,55.747],[12.5185,55.7468],[12.5183,55.7467],[12.5181,55.7466],[12.5179,55.7467],[12.5177,55.7468],[12.5175,55.7468],[12.5174,55.7469],[12.5174,55.7469]]]},"properties":{"sourceId":"ais_par3.137054","a_type":4120,"hectares":0.33}},{"type":"Feature","id":"ais_par3.137051","geometry":{"type":"Polygon","coordinates":[[[12.517,55.7466],[12.5173,55.7465],[12.5175,55.7464],[12.5176,55.7463],[12.5176,55.7462],[12.5175,55.7461],[12.5172,55.746],[12.5169,55.746],[12.5167,55.7461],[12.5166,55.7461],[12.5166,55.7462],[12.5168,55.7464],[12.517,55.7466],[12.517,55.7466]]]},"properties":{"sourceId":"ais_par3.137051","a_type":4120,"hectares":0.277}},{"type":"Feature","id":"ais_par3.137052","geometry":{"type":"Polygon","coordinates":[[[12.5524,55.7554],[12.5525,55.7555],[12.5532,55.7555],[12.5535,55.7556],[12.5537,55.7555],[12.5538,55.7553],[12.5535,55.7553],[12.553,55.7552],[12.5526,55.7552],[12.5523,55.7551],[12.5523,55.7551],[12.5524,55.7554]]]},"properties":{"sourceId":"ais_par3.137052","a_type":4120,"hectares":0.279}},{"type":"Feature","id":"ais_par3.137053","geometry":{"type":"Polygon","coordinates":[[[12.5192,55.7468],[12.5194,55.7467],[12.5197,55.7465],[12.52,55.7465],[12.52,55.7464],[12.5198,55.7463],[12.5195,55.7463],[12.5193,55.7464],[12.5191,55.7464],[12.5189,55.7463],[12.5187,55.7463],[12.5186,55.7463],[12.5185,55.7464],[12.5186,55.7464],[12.5187,55.7465],[12.5188,55.7466],[12.5189,55.7466],[12.5189,55.7467],[12.5188,55.7467],[12.5187,55.7467],[12.5187,55.7468],[12.5189,55.7468],[12.5191,55.7468],[12.5192,55.7468],[12.5192,55.7468]]]},"properties":{"sourceId":"ais_par3.137053","a_type":4120,"hectares":0.32}},{"type":"Feature","id":"ais_par3.137062","geometry":{"type":"Polygon","coordinates":[[[12.5008,55.7529],[12.5007,55.7528],[12.5004,55.7528],[12.5002,55.7527],[12.5004,55.7531],[12.5003,55.7536],[12.5003,55.7539],[12.5003,55.7541],[12.5006,55.7544],[12.5007,55.7546],[12.5006,55.755],[12.5006,55.7551],[12.5008,55.7553],[12.5013,55.7556],[12.5018,55.7558],[12.5022,55.7559],[12.5027,55.7562],[12.5032,55.7563],[12.5037,55.7563],[12.5041,55.7564],[12.5047,55.7565],[12.5053,55.7565],[12.5058,55.7565],[12.5063,55.7562],[12.5067,55.7559],[12.507,55.7556],[12.5073,55.7553],[12.5076,55.7551],[12.5078,55.755],[12.5079,55.7545],[12.5077,55.7545],[12.5075,55.7543],[12.5073,55.7542],[12.5072,55.7539],[12.5071,55.7537],[12.507,55.7536],[12.5069,55.7534],[12.5067,55.7533],[12.5065,55.7532],[12.5061,55.7531],[12.5057,55.753],[12.5054,55.7529],[12.5052,55.7528],[12.505,55.7526],[12.5049,55.7524],[12.505,55.7523],[12.5051,55.7522],[12.5047,55.7522],[12.5039,55.7525],[12.5031,55.7526],[12.5025,55.7527],[12.5021,55.7527],[12.502,55.7529],[12.5018,55.753],[12.5015,55.7531],[12.5012,55.7532],[12.501,55.7531],[12.5009,55.753],[12.5008,55.7529]]]},"properties":{"sourceId":"ais_par3.137062","a_type":4120,"hectares":15.739}},{"type":"Feature","id":"ais_par3.137063","geometry":{"type":"Polygon","coordinates":[[[12.5327,55.7458],[12.5321,55.746],[12.5318,55.7461],[12.5316,55.7462],[12.5315,55.7463],[12.5313,55.7464],[12.5311,55.7465],[12.5311,55.7466],[12.5312,55.7466],[12.5314,55.7467],[12.5315,55.7466],[12.5316,55.7466],[12.5317,55.7467],[12.5313,55.7469],[12.5311,55.7473],[12.5311,55.7476],[12.5311,55.7478],[12.5309,55.748],[12.5306,55.7482],[12.5303,55.7483],[12.53,55.7484],[12.5296,55.7485],[12.5293,55.7486],[12.5293,55.7487],[12.5294,55.7491],[12.5294,55.7496],[12.5293,55.7501],[12.5291,55.7504],[12.5289,55.7507],[12.5287,55.7511],[12.5285,55.7514],[12.5282,55.7518],[12.528,55.752],[12.5278,55.7521],[12.5277,55.7522],[12.5274,55.7522],[12.5271,55.7522],[12.527,55.7522],[12.5269,55.7523],[12.5268,55.7525],[12.5267,55.7527],[12.5265,55.753],[12.5264,55.7532],[12.5261,55.7535],[12.526,55.7536],[12.5259,55.7539],[12.5259,55.754],[12.5262,55.7541],[12.5263,55.7541],[12.5265,55.7542],[12.5267,55.7543],[12.527,55.7544],[12.5272,55.7544],[12.5273,55.7543],[12.5274,55.7542],[12.5275,55.754],[12.5277,55.7538],[12.528,55.7539],[12.5284,55.7538],[12.5288,55.7537],[12.5293,55.7537],[12.5298,55.7537],[12.5302,55.7538],[12.5307,55.7537],[12.5309,55.7536],[12.531,55.7534],[12.531,55.7533],[12.531,55.7532],[12.5313,55.7531],[12.5319,55.7531],[12.5325,55.753],[12.533,55.753],[12.5339,55.7531],[12.5338,55.7529],[12.5334,55.7525],[12.5328,55.7521],[12.5327,55.7519],[12.5327,55.7516],[12.5328,55.751],[12.5327,55.7505],[12.5325,55.7501],[12.5323,55.7495],[12.5321,55.7488],[12.5321,55.7483],[12.532,55.7478],[12.5321,55.7474],[12.5323,55.7467],[12.5326,55.746],[12.5326,55.7459],[12.5327,55.7458]],[[12.5312,55.7489],[12.5313,55.7489],[12.5313,55.7489],[12.5313,55.749],[12.5313,55.7491],[12.5314,55.7492],[12.5315,55.7492],[12.5315,55.7493],[12.5315,55.7494],[12.5317,55.7494],[12.5317,55.7495],[12.5317,55.7496],[12.5317,55.7498],[12.5315,55.7499],[12.5313,55.7498],[12.5311,55.7497],[12.5309,55.7498],[12.5307,55.7498],[12.5304,55.7498],[12.5301,55.7498],[12.5299,55.7497],[12.5298,55.7495],[12.5299,55.7494],[12.5301,55.7493],[12.5302,55.7492],[12.5303,55.7491],[12.5303,55.749],[12.5303,55.7489],[12.5305,55.7488],[12.5305,55.7488],[12.5309,55.7488],[12.5312,55.7489]],[[12.5289,55.7527],[12.5288,55.7527],[12.5289,55.7526],[12.529,55.7526],[12.5291,55.7525],[12.529,55.7525],[12.5288,55.7525],[12.5286,55.7525],[12.5285,55.7526],[12.5283,55.7526],[12.528,55.7525],[12.5279,55.7525],[12.5279,55.7524],[12.5279,55.7523],[12.528,55.7523],[12.528,55.7522],[12.5281,55.7521],[12.5283,55.7521],[12.5286,55.7521],[12.5288,55.7521],[12.529,55.7522],[12.5292,55.7523],[12.5292,55.7524],[12.5292,55.7525],[12.5293,55.7525],[12.5292,55.7526],[12.5291,55.7527],[12.5289,55.7527]],[[12.529,55.753],[12.529,55.753],[12.5291,55.7531],[12.5291,55.7532],[12.5291,55.7532],[12.529,55.7533],[12.5288,55.7533],[12.5286,55.7533],[12.5286,55.7532],[12.5285,55.7531],[12.5287,55.753],[12.5288,55.753],[12.529,55.753]],[[12.5292,55.7529],[12.5292,55.753],[12.529,55.753],[12.5288,55.7529],[12.5287,55.7529],[12.5288,55.7528],[12.529,55.7528],[12.5292,55.7528],[12.5292,55.7529]]]},"properties":{"sourceId":"ais_par3.137063","a_type":4120,"hectares":16.686}},{"type":"Feature","id":"ais_par3.137216","geometry":{"type":"Polygon","coordinates":[[[12.5312,55.7489],[12.5309,55.7488],[12.5305,55.7488],[12.5305,55.7488],[12.5303,55.7489],[12.5303,55.749],[12.5303,55.7491],[12.5302,55.7492],[12.5301,55.7493],[12.5299,55.7494],[12.5298,55.7495],[12.5299,55.7497],[12.5301,55.7498],[12.5304,55.7498],[12.5307,55.7498],[12.5309,55.7498],[12.5311,55.7497],[12.5313,55.7498],[12.5315,55.7499],[12.5317,55.7498],[12.5317,55.7496],[12.5317,55.7495],[12.5317,55.7494],[12.5315,55.7494],[12.5315,55.7493],[12.5315,55.7492],[12.5314,55.7492],[12.5313,55.7491],[12.5313,55.749],[12.5313,55.7489],[12.5313,55.7489],[12.5312,55.7489]]]},"properties":{"sourceId":"ais_par3.137216","a_type":4110,"hectares":0.964}},{"type":"Feature","id":"ais_par3.137235","geometry":{"type":"Polygon","coordinates":[[[12.5526,55.7552],[12.553,55.7552],[12.5535,55.7553],[12.5538,55.7553],[12.5536,55.7551],[12.5533,55.7549],[12.5528,55.7548],[12.5526,55.7547],[12.5524,55.7548],[12.5523,55.755],[12.5523,55.7551],[12.5526,55.7552]]]},"properties":{"sourceId":"ais_par3.137235","a_type":4110,"hectares":0.336}},{"type":"Feature","id":"ais_par3.137237","geometry":{"type":"Polygon","coordinates":[[[12.4935,55.724],[12.4936,55.7242],[12.4937,55.7247],[12.4939,55.7246],[12.4942,55.7246],[12.4947,55.7244],[12.495,55.7243],[12.4951,55.7243],[12.4947,55.7243],[12.4943,55.7241],[12.4939,55.7241],[12.4935,55.724]]]},"properties":{"sourceId":"ais_par3.137237","a_type":4110,"hectares":0.36}},{"type":"Feature","id":"ais_par3.135004","geometry":{"type":"Polygon","coordinates":[[[12.5481,55.7694],[12.5479,55.7693],[12.5476,55.7693],[12.5474,55.7691],[12.5471,55.7691],[12.547,55.7691],[12.5471,55.7692],[12.5471,55.7693],[12.5473,55.7693],[12.5476,55.7694],[12.5477,55.7694],[12.5479,55.7694],[12.5481,55.7694]]]},"properties":{"sourceId":"ais_par3.135004","a_type":3210,"hectares":0.096}},{"type":"Feature","id":"ais_par3.135005","geometry":{"type":"Polygon","coordinates":[[[12.5722,55.773],[12.5727,55.7727],[12.5729,55.7727],[12.5728,55.7726],[12.5723,55.7726],[12.572,55.7727],[12.5719,55.7727],[12.5716,55.7728],[12.5715,55.7729],[12.5715,55.773],[12.5716,55.7731],[12.5718,55.7732],[12.5718,55.7732],[12.5721,55.773],[12.5722,55.773]]]},"properties":{"sourceId":"ais_par3.135005","a_type":3210,"hectares":0.274}},{"type":"Feature","id":"ais_par3.135006","geometry":{"type":"Polygon","coordinates":[[[12.5674,55.7784],[12.5677,55.7785],[12.5679,55.7787],[12.5681,55.7789],[12.5682,55.7791],[12.5681,55.7792],[12.5679,55.7792],[12.5675,55.7792],[12.5674,55.7793],[12.5675,55.7793],[12.5679,55.7794],[12.5684,55.7795],[12.5684,55.7796],[12.5683,55.7797],[12.5686,55.7798],[12.5696,55.7801],[12.5701,55.7803],[12.5702,55.7803],[12.5702,55.7804],[12.5703,55.7805],[12.5706,55.7807],[12.571,55.7808],[12.5713,55.7809],[12.5713,55.781],[12.5712,55.7812],[12.5715,55.7812],[12.5726,55.7812],[12.573,55.7812],[12.5731,55.7811],[12.5729,55.781],[12.5724,55.7809],[12.5717,55.7808],[12.5714,55.7807],[12.5713,55.7806],[12.5714,55.7805],[12.5715,55.7803],[12.5714,55.7801],[12.5711,55.7799],[12.5709,55.7797],[12.5709,55.7796],[12.5709,55.7794],[12.5709,55.7792],[12.5707,55.7791],[12.5703,55.7791],[12.57,55.779],[12.5693,55.7786],[12.5685,55.7782],[12.5679,55.7778],[12.5676,55.7781],[12.5671,55.7783],[12.5674,55.7784]],[[12.5687,55.7795],[12.5687,55.7794],[12.5693,55.7793],[12.5699,55.7793],[12.5702,55.7793],[12.5706,55.7793],[12.5707,55.7794],[12.5705,55.7795],[12.5705,55.7796],[12.5706,55.7797],[12.5704,55.7798],[12.5698,55.7798],[12.5694,55.7797],[12.569,55.7796],[12.5688,55.7796],[12.5687,55.7795],[12.5687,55.7795]]]},"properties":{"sourceId":"ais_par3.135006","a_type":3210,"hectares":3.463}},{"type":"Feature","id":"ais_par3.135012","geometry":{"type":"Polygon","coordinates":[[[12.5435,55.77],[12.5434,55.7701],[12.5434,55.7702],[12.5432,55.7703],[12.543,55.7703],[12.5427,55.7703],[12.5425,55.7702],[12.5424,55.77],[12.5426,55.77],[12.5429,55.77],[12.5432,55.7699],[12.5428,55.7699],[12.5425,55.7698],[12.5424,55.7696],[12.5423,55.7695],[12.5421,55.7695],[12.5416,55.7697],[12.5412,55.7697],[12.5409,55.7696],[12.5404,55.7693],[12.5399,55.7689],[12.5396,55.7688],[12.5393,55.7689],[12.5391,55.7691],[12.5388,55.7695],[12.5387,55.7696],[12.5386,55.7696],[12.5384,55.7696],[12.5381,55.7696],[12.538,55.7698],[12.5381,55.77],[12.5385,55.7701],[12.539,55.7701],[12.5396,55.77],[12.5399,55.7701],[12.5402,55.7703],[12.5404,55.7705],[12.5406,55.7706],[12.5408,55.7707],[12.5411,55.7709],[12.5411,55.7711],[12.5412,55.7713],[12.5415,55.7714],[12.542,55.7715],[12.5433,55.7716],[12.5439,55.7717],[12.5442,55.7718],[12.5444,55.7721],[12.5445,55.7723],[12.5447,55.7723],[12.545,55.7723],[12.5455,55.7722],[12.5458,55.7722],[12.5459,55.7721],[12.5459,55.772],[12.5464,55.7717],[12.5464,55.7714],[12.5461,55.7713],[12.5457,55.7712],[12.5452,55.7709],[12.5448,55.7706],[12.5448,55.7703],[12.5448,55.7701],[12.5447,55.7701],[12.5442,55.77],[12.5435,55.77],[12.5435,55.77]]]},"properties":{"sourceId":"ais_par3.135012","a_type":3210,"hectares":7.605}},{"type":"Feature","id":"ais_par3.135027","geometry":{"type":"Polygon","coordinates":[[[12.5821,55.7793],[12.582,55.7793],[12.5818,55.7791],[12.5817,55.7788],[12.5817,55.7785],[12.5815,55.7785],[12.5812,55.7786],[12.5811,55.7788],[12.5811,55.7789],[12.5811,55.7791],[12.5812,55.7792],[12.5812,55.7793],[12.581,55.7794],[12.5808,55.7796],[12.5806,55.7797],[12.5805,55.7798],[12.5806,55.7799],[12.5808,55.7798],[12.5811,55.7798],[12.5813,55.7797],[12.5815,55.7796],[12.5817,55.7794],[12.5819,55.7794],[12.5821,55.7793]]]},"properties":{"sourceId":"ais_par3.135027","a_type":3210,"hectares":0.602}},{"type":"Feature","id":"ais_par3.135029","geometry":{"type":"Polygon","coordinates":[[[12.5574,55.7824],[12.5574,55.7824],[12.5575,55.7823],[12.5576,55.7821],[12.5578,55.7818],[12.558,55.7815],[12.5583,55.7813],[12.5589,55.7809],[12.559,55.7808],[12.559,55.7805],[12.5589,55.7804],[12.5588,55.7802],[12.5585,55.7801],[12.5578,55.7802],[12.5572,55.7802],[12.5572,55.7804],[12.5572,55.7812],[12.5573,55.7818],[12.5573,55.7823],[12.5574,55.7824]]]},"properties":{"sourceId":"ais_par3.135029","a_type":3210,"hectares":1.691}},{"type":"Feature","id":"ais_par3.135035","geometry":{"type":"Polygon","coordinates":[[[12.5615,55.7839],[12.5615,55.7839],[12.5621,55.784],[12.5626,55.784],[12.5631,55.7838],[12.5636,55.7836],[12.564,55.7833],[12.5643,55.7829],[12.5644,55.7826],[12.5641,55.7823],[12.5639,55.7821],[12.5639,55.7818],[12.5642,55.7815],[12.5645,55.7812],[12.5648,55.7805],[12.5648,55.7801],[12.565,55.7799],[12.5653,55.7798],[12.5655,55.7797],[12.5658,55.7797],[12.5661,55.7797],[12.5663,55.7795],[12.5665,55.7791],[12.5666,55.7786],[12.566,55.7783],[12.565,55.7781],[12.5654,55.7776],[12.5647,55.7778],[12.5644,55.7781],[12.5639,55.7785],[12.5631,55.7782],[12.5627,55.7786],[12.5624,55.7789],[12.5622,55.7793],[12.5619,55.7796],[12.5615,55.7796],[12.5608,55.7796],[12.5606,55.7796],[12.5608,55.7799],[12.5611,55.7804],[12.5608,55.7804],[12.5606,55.7806],[12.5603,55.781],[12.5601,55.7813],[12.5601,55.7818],[12.5607,55.7819],[12.5612,55.782],[12.5616,55.7822],[12.562,55.7825],[12.5623,55.783],[12.5625,55.7834],[12.5623,55.7835],[12.5618,55.7837],[12.5615,55.7839]],[[12.5632,55.7828],[12.5632,55.7828],[12.5631,55.7828],[12.563,55.7827],[12.5629,55.7826],[12.5629,55.7824],[12.5632,55.7824],[12.5634,55.7825],[12.5636,55.7826],[12.5635,55.7828],[12.5632,55.7828]]]},"properties":{"sourceId":"ais_par3.135035","a_type":3210,"hectares":13.4}},{"type":"Feature","id":"ais_par3.135036","geometry":{"type":"Polygon","coordinates":[[[12.5685,55.7773],[12.5689,55.777],[12.5695,55.7768],[12.5694,55.7766],[12.5696,55.7764],[12.5698,55.7762],[12.5695,55.7761],[12.5685,55.7759],[12.5677,55.7756],[12.5668,55.7752],[12.5661,55.7749],[12.5659,55.7747],[12.5659,55.7745],[12.5652,55.7748],[12.5641,55.7746],[12.5633,55.7745],[12.5627,55.7743],[12.5623,55.7739],[12.5617,55.7735],[12.5614,55.7735],[12.561,55.7738],[12.5605,55.774],[12.5598,55.7742],[12.5593,55.774],[12.5592,55.7737],[12.5594,55.7735],[12.5597,55.7734],[12.5588,55.7732],[12.558,55.7732],[12.5575,55.7734],[12.5571,55.7735],[12.557,55.7737],[12.5572,55.7739],[12.5572,55.7741],[12.5569,55.7741],[12.5559,55.7743],[12.5552,55.7743],[12.5544,55.7743],[12.5534,55.7744],[12.5526,55.7746],[12.5516,55.7749],[12.5509,55.7752],[12.5503,55.7754],[12.5495,55.7755],[12.5487,55.7755],[12.548,55.7755],[12.5477,55.7754],[12.5476,55.7751],[12.5475,55.7749],[12.547,55.7748],[12.5462,55.775],[12.5453,55.7752],[12.5446,55.7753],[12.5445,55.7756],[12.5445,55.7762],[12.5448,55.7764],[12.5454,55.7767],[12.546,55.7767],[12.5465,55.7766],[12.5473,55.7765],[12.5481,55.7764],[12.549,55.7763],[12.55,55.7762],[12.5508,55.7762],[12.5516,55.7762],[12.5519,55.7762],[12.5525,55.776],[12.5532,55.7758],[12.554,55.7756],[12.5552,55.7756],[12.5564,55.7757],[12.5575,55.7757],[12.5584,55.7758],[12.5589,55.7759],[12.5591,55.7762],[12.5591,55.7765],[12.5591,55.7767],[12.5594,55.7768],[12.5595,55.7769],[12.5596,55.7771],[12.5597,55.7773],[12.5598,55.7775],[12.56,55.7776],[12.5602,55.7776],[12.5603,55.7773],[12.5603,55.7769],[12.5604,55.7765],[12.5605,55.7763],[12.5608,55.7761],[12.5613,55.776],[12.5619,55.776],[12.5623,55.7761],[12.5625,55.7763],[12.5622,55.7764],[12.5617,55.7764],[12.5613,55.7765],[12.5611,55.7766],[12.5614,55.7768],[12.5619,55.777],[12.5623,55.777],[12.5625,55.7769],[12.5625,55.7767],[12.5623,55.7765],[12.5624,55.7764],[12.563,55.7764],[12.5635,55.7763],[12.5641,55.7763],[12.5647,55.7764],[12.566,55.7765],[12.5666,55.7763],[12.567,55.7764],[12.5673,55.7768],[12.5676,55.7775],[12.5685,55.7773]],[[12.5581,55.7747],[12.5582,55.7747],[12.5583,55.7747],[12.5585,55.7749],[12.5585,55.7752],[12.5586,55.7754],[12.5583,55.7756],[12.5576,55.7756],[12.5569,55.7756],[12.5563,55.7755],[12.5558,55.7756],[12.5552,55.7754],[12.5546,55.7752],[12.5545,55.7751],[12.5547,55.775],[12.555,55.7749],[12.5555,55.7748],[12.5561,55.7748],[12.5568,55.7747],[12.5574,55.7747],[12.5581,55.7747]],[[12.5652,55.7753],[12.5649,55.7756],[12.5646,55.7758],[12.5643,55.7758],[12.5635,55.7758],[12.5628,55.7758],[12.5624,55.7757],[12.5616,55.7756],[12.5608,55.7754],[12.5606,55.7752],[12.5605,55.7751],[12.5608,55.7748],[12.5615,55.7747],[12.5623,55.7747],[12.5631,55.7748],[12.5639,55.7749],[12.5647,55.775],[12.5652,55.7751],[12.5654,55.7752],[12.5653,55.7753],[12.5652,55.7753]]]},"properties":{"sourceId":"ais_par3.135036","a_type":3210,"hectares":24.344}},{"type":"Feature","id":"ais_par3.135290","geometry":{"type":"Polygon","coordinates":[[[12.539,55.7655],[12.5393,55.7654],[12.5396,55.7653],[12.5402,55.7654],[12.5407,55.7652],[12.5409,55.765],[12.5409,55.7649],[12.5411,55.7644],[12.5414,55.7642],[12.5418,55.7642],[12.5423,55.7643],[12.5424,55.7643],[12.5423,55.7642],[12.5421,55.7641],[12.5411,55.7641],[12.5398,55.7641],[12.5391,55.7642],[12.5389,55.7644],[12.5388,55.7649],[12.5389,55.7655],[12.539,55.7655],[12.539,55.7655]],[[12.5393,55.7648],[12.5394,55.7644],[12.5396,55.7643],[12.5404,55.7643],[12.5407,55.7643],[12.5408,55.7644],[12.5407,55.7647],[12.5408,55.7649],[12.5407,55.765],[12.5401,55.7652],[12.5396,55.7653],[12.5394,55.7652],[12.5393,55.7648]]]},"properties":{"sourceId":"ais_par3.135290","a_type":5120,"hectares":1.08}},{"type":"Feature","id":"ais_par3.135593","geometry":{"type":"Polygon","coordinates":[[[12.5535,55.7643],[12.5536,55.7644],[12.5537,55.7644],[12.5537,55.7644],[12.5537,55.7643],[12.5536,55.7643],[12.5535,55.7643],[12.5535,55.7643]]]},"properties":{"sourceId":"ais_par3.135593","a_type":5120,"hectares":0.011}},{"type":"Feature","id":"ais_par3.135594","geometry":{"type":"Polygon","coordinates":[[[12.548,55.7621],[12.5479,55.762],[12.5478,55.7621],[12.5478,55.7622],[12.5479,55.7622],[12.548,55.7621],[12.548,55.7621]]]},"properties":{"sourceId":"ais_par3.135594","a_type":5120,"hectares":0.014}},{"type":"Feature","id":"ais_par3.135595","geometry":{"type":"Polygon","coordinates":[[[12.5609,55.7636],[12.5608,55.7637],[12.5609,55.7637],[12.5611,55.7637],[12.5611,55.7637],[12.5611,55.7636],[12.5609,55.7636],[12.5609,55.7636]]]},"properties":{"sourceId":"ais_par3.135595","a_type":5120,"hectares":0.017}},{"type":"Feature","id":"ais_par3.135596","geometry":{"type":"Polygon","coordinates":[[[12.5474,55.7637],[12.5475,55.7637],[12.5476,55.7637],[12.5477,55.7637],[12.5477,55.7636],[12.5476,55.7636],[12.5475,55.7636],[12.5474,55.7637],[12.5474,55.7637]]]},"properties":{"sourceId":"ais_par3.135596","a_type":5120,"hectares":0.018}},{"type":"Feature","id":"ais_par3.135597","geometry":{"type":"Polygon","coordinates":[[[12.5267,55.7637],[12.5268,55.7638],[12.527,55.7638],[12.5271,55.7637],[12.527,55.7636],[12.5268,55.7636],[12.5268,55.7636],[12.5267,55.7637]]]},"properties":{"sourceId":"ais_par3.135597","a_type":5120,"hectares":0.028}},{"type":"Feature","id":"ais_par3.135598","geometry":{"type":"Polygon","coordinates":[[[12.583,55.7697],[12.583,55.7696],[12.5829,55.7696],[12.5828,55.7695],[12.5827,55.7696],[12.5828,55.7696],[12.5829,55.7697],[12.583,55.7697],[12.5831,55.7697],[12.5831,55.7697],[12.583,55.7697]]]},"properties":{"sourceId":"ais_par3.135598","a_type":5120,"hectares":0.029}},{"type":"Feature","id":"ais_par3.135599","geometry":{"type":"Polygon","coordinates":[[[12.5584,55.7664],[12.5584,55.7664],[12.5582,55.7664],[12.5581,55.7664],[12.5581,55.7665],[12.5582,55.7666],[12.5584,55.7666],[12.5584,55.7664]]]},"properties":{"sourceId":"ais_par3.135599","a_type":5120,"hectares":0.038}},{"type":"Feature","id":"ais_par3.135601","geometry":{"type":"Polygon","coordinates":[[[12.582,55.7739],[12.582,55.7739],[12.5819,55.7737],[12.5816,55.7738],[12.5816,55.7739],[12.5817,55.774],[12.5818,55.774],[12.582,55.7739]]]},"properties":{"sourceId":"ais_par3.135601","a_type":5120,"hectares":0.052}},{"type":"Feature","id":"ais_par3.135602","geometry":{"type":"Polygon","coordinates":[[[12.5666,55.7664],[12.5667,55.7666],[12.5669,55.7667],[12.567,55.7667],[12.5671,55.7667],[12.5672,55.7665],[12.5671,55.7664],[12.567,55.7664],[12.5666,55.7664],[12.5666,55.7664]]]},"properties":{"sourceId":"ais_par3.135602","a_type":5120,"hectares":0.065}},{"type":"Feature","id":"ais_par3.135605","geometry":{"type":"Polygon","coordinates":[[[12.5604,55.7638],[12.5604,55.7638],[12.5603,55.7638],[12.5601,55.7637],[12.5599,55.7638],[12.5599,55.7639],[12.5598,55.7641],[12.56,55.7642],[12.5601,55.7642],[12.5602,55.7641],[12.5604,55.7638]]]},"properties":{"sourceId":"ais_par3.135605","a_type":5120,"hectares":0.114}},{"type":"Feature","id":"ais_par3.135607","geometry":{"type":"Polygon","coordinates":[[[12.5738,55.7644],[12.5738,55.7642],[12.5737,55.7642],[12.5736,55.7642],[12.5734,55.7643],[12.5733,55.7643],[12.5732,55.7645],[12.5733,55.7646],[12.5734,55.7646],[12.5737,55.7645],[12.5738,55.7644],[12.5738,55.7644]]]},"properties":{"sourceId":"ais_par3.135607","a_type":5120,"hectares":0.118}},{"type":"Feature","id":"ais_par3.135609","geometry":{"type":"Polygon","coordinates":[[[12.541,55.7692],[12.541,55.7693],[12.5411,55.7694],[12.5414,55.7695],[12.5415,55.7695],[12.5415,55.7693],[12.5413,55.7691],[12.5412,55.769],[12.5411,55.7689],[12.541,55.7688],[12.5408,55.7688],[12.5407,55.7689],[12.5408,55.7691],[12.5411,55.7692],[12.541,55.7692]]]},"properties":{"sourceId":"ais_par3.135609","a_type":5120,"hectares":0.157}},{"type":"Feature","id":"ais_par3.135610","geometry":{"type":"Polygon","coordinates":[[[12.5538,55.7612],[12.5536,55.761],[12.5535,55.761],[12.5534,55.761],[12.5532,55.7612],[12.553,55.7613],[12.553,55.7614],[12.5531,55.7614],[12.5533,55.7615],[12.5535,55.7615],[12.5537,55.7614],[12.5538,55.7612]]]},"properties":{"sourceId":"ais_par3.135610","a_type":5120,"hectares":0.167}},{"type":"Feature","id":"ais_par3.135611","geometry":{"type":"Polygon","coordinates":[[[12.561,55.7642],[12.5613,55.7642],[12.5618,55.7642],[12.5621,55.7643],[12.5623,55.7643],[12.5628,55.764],[12.563,55.7638],[12.563,55.7638],[12.5628,55.7638],[12.5625,55.764],[12.5621,55.7641],[12.5618,55.7642],[12.5614,55.7641],[12.5611,55.7642],[12.561,55.7642],[12.561,55.7642]]]},"properties":{"sourceId":"ais_par3.135611","a_type":5120,"hectares":0.176}},{"type":"Feature","id":"ais_par3.135612","geometry":{"type":"Polygon","coordinates":[[[12.5669,55.7646],[12.5671,55.7649],[12.5674,55.7652],[12.5678,55.7653],[12.5682,55.7654],[12.5686,55.7653],[12.5689,55.7653],[12.5688,55.7652],[12.5684,55.7652],[12.568,55.7652],[12.5676,55.7651],[12.5672,55.7648],[12.567,55.7646],[12.5668,55.7645],[12.5669,55.7646]]]},"properties":{"sourceId":"ais_par3.135612","a_type":5120,"hectares":0.213}},{"type":"Feature","id":"ais_par3.135613","geometry":{"type":"Polygon","coordinates":[[[12.5871,55.7726],[12.5872,55.7725],[12.587,55.7724],[12.5867,55.7724],[12.5864,55.7724],[12.5862,55.7724],[12.586,55.7724],[12.5858,55.7723],[12.5857,55.7723],[12.5851,55.7724],[12.585,55.7725],[12.5851,55.7725],[12.5854,55.7725],[12.5856,55.7725],[12.5859,55.7725],[12.586,55.7726],[12.5862,55.7725],[12.5864,55.7725],[12.5869,55.7726],[12.5869,55.7726],[12.5871,55.7726]]]},"properties":{"sourceId":"ais_par3.135613","a_type":5120,"hectares":0.221}},{"type":"Feature","id":"ais_par3.135615","geometry":{"type":"Polygon","coordinates":[[[12.5795,55.768],[12.5797,55.7679],[12.5797,55.7677],[12.5796,55.7675],[12.5795,55.7674],[12.5794,55.7673],[12.5792,55.7673],[12.5791,55.7674],[12.579,55.7676],[12.579,55.7677],[12.5792,55.7679],[12.5793,55.7679],[12.5795,55.768],[12.5795,55.768]]]},"properties":{"sourceId":"ais_par3.135615","a_type":5120,"hectares":0.238}},{"type":"Feature","id":"ais_par3.135616","geometry":{"type":"Polygon","coordinates":[[[12.5435,55.77],[12.5437,55.7699],[12.5437,55.7699],[12.5436,55.7698],[12.5433,55.7698],[12.5432,55.7699],[12.543,55.77],[12.5426,55.77],[12.5424,55.77],[12.5425,55.7702],[12.5427,55.7703],[12.543,55.7703],[12.5432,55.7703],[12.5434,55.7702],[12.5434,55.7701],[12.5435,55.77],[12.5435,55.77]]]},"properties":{"sourceId":"ais_par3.135616","a_type":5120,"hectares":0.241}},{"type":"Feature","id":"ais_par3.135619","geometry":{"type":"Polygon","coordinates":[[[12.5322,55.7666],[12.5327,55.7666],[12.533,55.7665],[12.5332,55.7663],[12.5331,55.7662],[12.5328,55.7661],[12.5324,55.7661],[12.5323,55.7662],[12.5322,55.7665],[12.5322,55.7666],[12.5322,55.7666]]]},"properties":{"sourceId":"ais_par3.135619","a_type":5120,"hectares":0.279}},{"type":"Feature","id":"ais_par3.135623","geometry":{"type":"Polygon","coordinates":[[[12.5309,55.7651],[12.5309,55.7651],[12.531,55.765],[12.5313,55.7648],[12.5316,55.7646],[12.5318,55.7646],[12.5318,55.7645],[12.5315,55.7644],[12.5312,55.7645],[12.5308,55.7644],[12.5305,55.7644],[12.5303,55.7646],[12.5305,55.7648],[12.5307,55.7651],[12.5309,55.7651]]]},"properties":{"sourceId":"ais_par3.135623","a_type":5120,"hectares":0.427}},{"type":"Feature","id":"ais_par3.135624","geometry":{"type":"Polygon","coordinates":[[[12.5398,55.759],[12.5398,55.759],[12.5399,55.7589],[12.5399,55.7588],[12.5394,55.7586],[12.5389,55.7586],[12.5385,55.7588],[12.5385,55.7588],[12.5385,55.759],[12.5387,55.7591],[12.5388,55.7591],[12.5392,55.7593],[12.5398,55.7594],[12.54,55.7592],[12.5398,55.7592],[12.5392,55.7591],[12.5391,55.759],[12.5392,55.7589],[12.5394,55.7588],[12.5396,55.7589],[12.5398,55.759]]]},"properties":{"sourceId":"ais_par3.135624","a_type":5120,"hectares":0.432}},{"type":"Feature","id":"ais_par3.135625","geometry":{"type":"Polygon","coordinates":[[[12.5904,55.7698],[12.5903,55.7697],[12.5902,55.7696],[12.5901,55.7695],[12.59,55.7694],[12.5896,55.7696],[12.5895,55.7697],[12.5895,55.7699],[12.5897,55.77],[12.5899,55.7702],[12.5901,55.7705],[12.5902,55.7708],[12.5902,55.771],[12.5902,55.7712],[12.5904,55.7712],[12.5905,55.7711],[12.5904,55.7708],[12.5903,55.7704],[12.5902,55.7702],[12.5903,55.77],[12.5904,55.7699],[12.5904,55.7698]]]},"properties":{"sourceId":"ais_par3.135625","a_type":5120,"hectares":0.484}},{"type":"Feature","id":"ais_par3.135626","geometry":{"type":"Polygon","coordinates":[[[12.5359,55.7652],[12.5359,55.7652],[12.5362,55.7647],[12.5361,55.7647],[12.5355,55.7646],[12.5347,55.7646],[12.5343,55.7646],[12.5337,55.7647],[12.5336,55.7648],[12.5337,55.765],[12.5341,55.765],[12.535,55.7652],[12.5359,55.7652]]]},"properties":{"sourceId":"ais_par3.135626","a_type":5120,"hectares":0.907}},{"type":"Feature","id":"ais_par3.135627","geometry":{"type":"Polygon","coordinates":[[[12.5552,55.7704],[12.5554,55.7704],[12.5556,55.7703],[12.5557,55.7702],[12.5558,55.7701],[12.5559,55.7701],[12.556,55.7701],[12.5561,55.77],[12.5559,55.7699],[12.5558,55.7699],[12.5556,55.7699],[12.5556,55.7698],[12.5554,55.7697],[12.5552,55.7696],[12.5549,55.7696],[12.5545,55.7695],[12.5543,55.7693],[12.5537,55.7692],[12.5535,55.7692],[12.5532,55.7693],[12.5531,55.7694],[12.5533,55.7696],[12.5536,55.7697],[12.5538,55.7697],[12.5539,55.7698],[12.5539,55.7698],[12.5538,55.77],[12.5539,55.7702],[12.5542,55.7703],[12.5543,55.7703],[12.5543,55.7702],[12.5544,55.7701],[12.5544,55.7702],[12.5546,55.7703],[12.5548,55.7704],[12.5552,55.7704]]]},"properties":{"sourceId":"ais_par3.135627","a_type":5120,"hectares":1.262}},{"type":"Feature","id":"ais_par3.135628","geometry":{"type":"Polygon","coordinates":[[[12.5444,55.7724],[12.5443,55.7725],[12.5443,55.7726],[12.5445,55.7727],[12.5446,55.7729],[12.5447,55.773],[12.5448,55.7731],[12.545,55.7732],[12.5452,55.7733],[12.5454,55.7734],[12.5457,55.7734],[12.5462,55.7734],[12.5464,55.7733],[12.5466,55.7732],[12.5467,55.7732],[12.5469,55.7731],[12.5471,55.7731],[12.5472,55.773],[12.5471,55.7729],[12.5469,55.7729],[12.5468,55.7726],[12.5466,55.7725],[12.5464,55.7724],[12.5459,55.7723],[12.5455,55.7722],[12.5452,55.7723],[12.545,55.7724],[12.5448,55.7724],[12.5446,55.7724],[12.5444,55.7724],[12.5444,55.7724]]]},"properties":{"sourceId":"ais_par3.135628","a_type":5120,"hectares":1.546}},{"type":"Feature","id":"ais_par3.135630","geometry":{"type":"Polygon","coordinates":[[[12.5128,55.7629],[12.5134,55.7629],[12.5141,55.7629],[12.5144,55.762],[12.5146,55.7612],[12.5146,55.761],[12.5143,55.761],[12.5137,55.761],[12.5133,55.7613],[12.5129,55.7617],[12.5127,55.7621],[12.5128,55.7626],[12.5128,55.7629],[12.5128,55.7629]]]},"properties":{"sourceId":"ais_par3.135630","a_type":5120,"hectares":1.941}},{"type":"Feature","id":"ais_par3.136348","geometry":{"type":"Polygon","coordinates":[[[12.5373,55.7809],[12.5374,55.7809],[12.5375,55.7808],[12.5374,55.7807],[12.5373,55.7808],[12.5373,55.7808],[12.5373,55.7809]]]},"properties":{"sourceId":"ais_par3.136348","a_type":5120,"hectares":0.014}},{"type":"Feature","id":"ais_par3.136357","geometry":{"type":"Polygon","coordinates":[[[12.5361,55.7734],[12.5361,55.7732],[12.5361,55.7731],[12.536,55.7731],[12.5359,55.7732],[12.5359,55.7733],[12.5359,55.7733],[12.536,55.7734],[12.5361,55.7734]]]},"properties":{"sourceId":"ais_par3.136357","a_type":5120,"hectares":0.035}},{"type":"Feature","id":"ais_par3.136373","geometry":{"type":"Polygon","coordinates":[[[12.5617,55.7712],[12.5617,55.7711],[12.5616,55.7711],[12.5614,55.7711],[12.5614,55.7712],[12.5614,55.7713],[12.5614,55.7713],[12.5616,55.7713],[12.5618,55.7713],[12.5619,55.7713],[12.5619,55.7712],[12.5619,55.7712],[12.5617,55.7712],[12.5617,55.7712]]]},"properties":{"sourceId":"ais_par3.136373","a_type":5120,"hectares":0.06}},{"type":"Feature","id":"ais_par3.136374","geometry":{"type":"Polygon","coordinates":[[[12.55,55.774],[12.5501,55.7738],[12.5502,55.7737],[12.5503,55.7736],[12.5503,55.7736],[12.5501,55.7736],[12.5499,55.7737],[12.5498,55.7738],[12.5498,55.7739],[12.55,55.7739],[12.55,55.774]]]},"properties":{"sourceId":"ais_par3.136374","a_type":5120,"hectares":0.061}},{"type":"Feature","id":"ais_par3.136375","geometry":{"type":"Polygon","coordinates":[[[12.5246,55.7684],[12.5247,55.7683],[12.5248,55.7683],[12.5247,55.7682],[12.5245,55.7681],[12.5243,55.7682],[12.5243,55.7684],[12.5246,55.7684]]]},"properties":{"sourceId":"ais_par3.136375","a_type":5120,"hectares":0.062}},{"type":"Feature","id":"ais_par3.136378","geometry":{"type":"Polygon","coordinates":[[[12.5272,55.7708],[12.5271,55.7708],[12.5268,55.7708],[12.5266,55.7709],[12.5267,55.771],[12.527,55.771],[12.5272,55.7709],[12.5273,55.7709],[12.5273,55.7708],[12.5272,55.7708]]]},"properties":{"sourceId":"ais_par3.136378","a_type":5120,"hectares":0.063}},{"type":"Feature","id":"ais_par3.136379","geometry":{"type":"Polygon","coordinates":[[[12.5716,55.7793],[12.5714,55.7792],[12.5712,55.7792],[12.5711,55.7792],[12.571,55.7793],[12.5709,55.7794],[12.571,55.7794],[12.5713,55.7794],[12.5715,55.7794],[12.5716,55.7793]]]},"properties":{"sourceId":"ais_par3.136379","a_type":5120,"hectares":0.064}},{"type":"Feature","id":"ais_par3.136380","geometry":{"type":"Polygon","coordinates":[[[12.5315,55.7738],[12.5317,55.7737],[12.5318,55.7737],[12.5318,55.7736],[12.5317,55.7735],[12.5316,55.7734],[12.5314,55.7734],[12.5314,55.7735],[12.5316,55.7736],[12.5315,55.7737],[12.5315,55.7737],[12.5315,55.7738]]]},"properties":{"sourceId":"ais_par3.136380","a_type":5120,"hectares":0.068}},{"type":"Feature","id":"ais_par3.136408","geometry":{"type":"Polygon","coordinates":[[[12.5182,55.7639],[12.5184,55.7639],[12.5186,55.7638],[12.5187,55.7636],[12.5186,55.7635],[12.5184,55.7634],[12.5181,55.7634],[12.5178,55.7635],[12.5177,55.7637],[12.5177,55.7638],[12.5177,55.7638],[12.5179,55.7639],[12.5182,55.7639],[12.5182,55.7639]]]},"properties":{"sourceId":"ais_par3.136408","a_type":5120,"hectares":0.265}},{"type":"Feature","id":"ais_par3.136420","geometry":{"type":"Polygon","coordinates":[[[12.5711,55.7768],[12.5715,55.7768],[12.5717,55.7767],[12.5719,55.7764],[12.5721,55.7763],[12.5722,55.7761],[12.5724,55.7758],[12.5726,55.7756],[12.5729,55.7755],[12.573,55.7754],[12.5728,55.7752],[12.5722,55.7751],[12.5718,55.775],[12.5714,55.7749],[12.5711,55.775],[12.5709,55.7751],[12.5709,55.7752],[12.5709,55.7754],[12.5709,55.7754],[12.5709,55.7757],[12.5709,55.7759],[12.5709,55.776],[12.5706,55.7762],[12.5704,55.7764],[12.5706,55.7767],[12.5711,55.7768]],[[12.5709,55.7767],[12.5707,55.7767],[12.5706,55.7766],[12.5706,55.7764],[12.5707,55.7763],[12.5708,55.7762],[12.5709,55.7762],[12.5711,55.7762],[12.5713,55.7762],[12.5714,55.7763],[12.5715,55.7764],[12.5714,55.7766],[12.5713,55.7767],[12.5712,55.7767],[12.571,55.7767],[12.5709,55.7767]],[[12.5716,55.7758],[12.5715,55.7758],[12.5714,55.7758],[12.5713,55.7757],[12.5714,55.7756],[12.5715,55.7756],[12.5717,55.7756],[12.5718,55.7757],[12.5718,55.7758],[12.5716,55.7758],[12.5716,55.7758]]]},"properties":{"sourceId":"ais_par3.136420","a_type":5120,"hectares":1.599}},{"type":"Feature","id":"ais_par3.136423","geometry":{"type":"Polygon","coordinates":[[[12.5664,55.7734],[12.5662,55.7733],[12.5658,55.7732],[12.5654,55.7732],[12.5651,55.7731],[12.5648,55.7732],[12.5646,55.7732],[12.5645,55.773],[12.5641,55.7728],[12.5637,55.7727],[12.5632,55.7728],[12.5627,55.773],[12.5623,55.7731],[12.5618,55.7732],[12.5618,55.7733],[12.562,55.7734],[12.5622,55.7735],[12.5622,55.7736],[12.5625,55.7738],[12.5627,55.7739],[12.5625,55.774],[12.5627,55.774],[12.5627,55.7742],[12.5629,55.7743],[12.5631,55.7742],[12.5631,55.7741],[12.5634,55.774],[12.5636,55.774],[12.5637,55.7741],[12.5638,55.7742],[12.564,55.7743],[12.5644,55.774],[12.5647,55.7741],[12.5649,55.7741],[12.5649,55.774],[12.5652,55.7739],[12.5654,55.7738],[12.5659,55.7737],[12.5663,55.7737],[12.5665,55.7736],[12.5665,55.7735],[12.5664,55.7734]]]},"properties":{"sourceId":"ais_par3.136423","a_type":5120,"hectares":2.903}},{"type":"Feature","id":"ais_par3.136837","geometry":{"type":"Polygon","coordinates":[[[12.5709,55.7767],[12.571,55.7767],[12.5712,55.7767],[12.5713,55.7767],[12.5714,55.7766],[12.5715,55.7764],[12.5714,55.7763],[12.5713,55.7762],[12.5711,55.7762],[12.5709,55.7762],[12.5708,55.7762],[12.5707,55.7763],[12.5706,55.7764],[12.5706,55.7766],[12.5707,55.7767],[12.5709,55.7767]]]},"properties":{"sourceId":"ais_par3.136837","a_type":4120,"hectares":0.271}},{"type":"Feature","id":"ais_par3.136840","geometry":{"type":"Polygon","coordinates":[[[12.5243,55.7685],[12.5247,55.7684],[12.5251,55.7684],[12.5253,55.7683],[12.5254,55.7682],[12.5253,55.7681],[12.525,55.7679],[12.5246,55.7678],[12.5244,55.7678],[12.5243,55.7678],[12.5243,55.768],[12.5243,55.7682],[12.5245,55.7681],[12.5247,55.7682],[12.5248,55.7683],[12.5247,55.7683],[12.5246,55.7684],[12.5243,55.7684],[12.5243,55.7684],[12.5243,55.7685]]]},"properties":{"sourceId":"ais_par3.136840","a_type":4120,"hectares":0.336}},{"type":"Feature","id":"ais_par3.136832","geometry":{"type":"Polygon","coordinates":[[[12.5716,55.7793],[12.5715,55.7794],[12.5713,55.7794],[12.571,55.7794],[12.5712,55.7795],[12.5714,55.7795],[12.5715,55.7794],[12.5716,55.7793]]]},"properties":{"sourceId":"ais_par3.136832","a_type":4120,"hectares":0.029}},{"type":"Feature","id":"ais_par3.136835","geometry":{"type":"Polygon","coordinates":[[[12.5274,55.7707],[12.5271,55.7707],[12.5268,55.7707],[12.5265,55.7708],[12.5264,55.7709],[12.5265,55.771],[12.5267,55.7711],[12.527,55.7711],[12.5273,55.7711],[12.5275,55.771],[12.5275,55.7709],[12.5275,55.7707],[12.5274,55.7707]],[[12.5272,55.7708],[12.5273,55.7708],[12.5273,55.7709],[12.5272,55.7709],[12.527,55.771],[12.5267,55.771],[12.5266,55.7709],[12.5268,55.7708],[12.5271,55.7708],[12.5272,55.7708]]]},"properties":{"sourceId":"ais_par3.136835","a_type":4120,"hectares":0.204}},{"type":"Feature","id":"ais_par3.136848","geometry":{"type":"Polygon","coordinates":[[[12.5316,55.7703],[12.5315,55.7702],[12.5312,55.7702],[12.531,55.7702],[12.5306,55.7701],[12.5303,55.77],[12.5301,55.77],[12.5299,55.7701],[12.5298,55.7702],[12.5298,55.7703],[12.5298,55.7704],[12.53,55.7704],[12.5301,55.7704],[12.5302,55.7705],[12.5307,55.7707],[12.5309,55.7707],[12.5312,55.7706],[12.5314,55.7704],[12.5316,55.7703],[12.5316,55.7703]]]},"properties":{"sourceId":"ais_par3.136848","a_type":4120,"hectares":0.512}},{"type":"Feature","id":"ais_par3.136852","geometry":{"type":"Polygon","coordinates":[[[12.5706,55.7767],[12.5704,55.7764],[12.5706,55.7762],[12.5709,55.776],[12.5709,55.7759],[12.5709,55.7757],[12.5709,55.7754],[12.5709,55.7754],[12.5707,55.7756],[12.5705,55.7759],[12.5702,55.7761],[12.5698,55.7762],[12.5696,55.7764],[12.5694,55.7766],[12.5695,55.7768],[12.5697,55.7769],[12.57,55.7769],[12.5703,55.7769],[12.5706,55.7767]]]},"properties":{"sourceId":"ais_par3.136852","a_type":4120,"hectares":0.682}},{"type":"Feature","id":"ais_par3.136856","geometry":{"type":"Polygon","coordinates":[[[12.5548,55.7737],[12.5547,55.7735],[12.5546,55.7732],[12.5543,55.773],[12.5541,55.7729],[12.554,55.7728],[12.5536,55.7727],[12.5534,55.7729],[12.5533,55.7732],[12.5534,55.7734],[12.5535,55.7736],[12.5536,55.7738],[12.554,55.7739],[12.5543,55.7738],[12.5545,55.7738],[12.5548,55.7737],[12.5548,55.7737]]]},"properties":{"sourceId":"ais_par3.136856","a_type":4120,"hectares":0.784}},{"type":"Feature","id":"ais_par3.136858","geometry":{"type":"Polygon","coordinates":[[[12.5694,55.7729],[12.5693,55.7731],[12.5692,55.7732],[12.5692,55.7732],[12.5693,55.7735],[12.5694,55.7735],[12.5698,55.7737],[12.5701,55.7738],[12.5704,55.7739],[12.5709,55.7739],[12.5711,55.7738],[12.5712,55.7736],[12.5713,55.7735],[12.5699,55.773],[12.5694,55.7729],[12.5694,55.7729]]]},"properties":{"sourceId":"ais_par3.136858","a_type":4120,"hectares":0.899}},{"type":"Feature","id":"ais_par3.136866","geometry":{"type":"Polygon","coordinates":[[[12.561,55.7713],[12.5609,55.7716],[12.5608,55.7718],[12.5607,55.7719],[12.5608,55.7721],[12.561,55.7722],[12.5613,55.7722],[12.5615,55.7721],[12.5617,55.772],[12.5619,55.7719],[12.5623,55.7717],[12.5628,55.7715],[12.5634,55.7713],[12.564,55.7712],[12.5641,55.7711],[12.5641,55.7711],[12.5637,55.7709],[12.5632,55.7707],[12.5626,55.7706],[12.5613,55.7706],[12.5612,55.7707],[12.5609,55.7708],[12.5608,55.7708],[12.5601,55.7708],[12.5597,55.7708],[12.5594,55.7708],[12.5593,55.7709],[12.5593,55.771],[12.5594,55.7711],[12.5604,55.7711],[12.5607,55.7711],[12.5609,55.7712],[12.561,55.7713],[12.561,55.7713]],[[12.5617,55.7712],[12.5617,55.7712],[12.5619,55.7712],[12.5619,55.7712],[12.5619,55.7713],[12.5618,55.7713],[12.5616,55.7713],[12.5614,55.7713],[12.5614,55.7713],[12.5614,55.7712],[12.5614,55.7711],[12.5616,55.7711],[12.5617,55.7711],[12.5617,55.7712]]]},"properties":{"sourceId":"ais_par3.136866","a_type":4120,"hectares":2.543}},{"type":"Feature","id":"ais_par3.136867","geometry":{"type":"Polygon","coordinates":[[[12.5659,55.7745],[12.5663,55.7742],[12.5667,55.7739],[12.5667,55.7735],[12.5664,55.7734],[12.5665,55.7735],[12.5665,55.7736],[12.5663,55.7737],[12.5659,55.7737],[12.5654,55.7738],[12.5652,55.7739],[12.5649,55.774],[12.5649,55.7741],[12.5647,55.7741],[12.5644,55.774],[12.564,55.7743],[12.5638,55.7742],[12.5637,55.7741],[12.5636,55.774],[12.5634,55.774],[12.5631,55.7741],[12.5631,55.7742],[12.5629,55.7743],[12.5627,55.7742],[12.5627,55.774],[12.5625,55.774],[12.5627,55.7739],[12.5625,55.7738],[12.5622,55.7736],[12.5622,55.7735],[12.562,55.7734],[12.5618,55.7733],[12.5618,55.7732],[12.5623,55.7731],[12.5627,55.773],[12.5632,55.7728],[12.5637,55.7727],[12.5641,55.7728],[12.5645,55.773],[12.5646,55.7732],[12.5648,55.7732],[12.5651,55.7731],[12.5654,55.7732],[12.5658,55.7732],[12.5662,55.7733],[12.5659,55.7732],[12.5654,55.773],[12.5647,55.7729],[12.5644,55.7728],[12.5639,55.7725],[12.5636,55.7726],[12.5632,55.7727],[12.5629,55.7727],[12.5626,55.7726],[12.5623,55.7725],[12.5621,55.7726],[12.5618,55.7727],[12.5615,55.7726],[12.5609,55.7725],[12.5606,55.7727],[12.5605,55.7729],[12.5607,55.7731],[12.5606,55.7733],[12.5604,55.7734],[12.56,55.7735],[12.5597,55.7734],[12.5594,55.7735],[12.5592,55.7737],[12.5593,55.774],[12.5598,55.7742],[12.5605,55.774],[12.561,55.7738],[12.5614,55.7735],[12.5617,55.7735],[12.5623,55.7739],[12.5627,55.7743],[12.5633,55.7745],[12.5641,55.7746],[12.5652,55.7748],[12.5659,55.7745]]]},"properties":{"sourceId":"ais_par3.136867","a_type":4120,"hectares":4.005}},{"type":"Feature","id":"ais_par3.136990","geometry":{"type":"Polygon","coordinates":[[[12.5365,55.7679],[12.5365,55.7679],[12.5366,55.7679],[12.5367,55.768],[12.537,55.768],[12.5373,55.7681],[12.5377,55.7682],[12.5384,55.7683],[12.5387,55.7683],[12.5388,55.7684],[12.5388,55.7684],[12.5389,55.7685],[12.539,55.7686],[12.5391,55.7685],[12.5392,55.7684],[12.5393,55.7683],[12.5394,55.7683],[12.5398,55.7682],[12.5402,55.7683],[12.5407,55.7683],[12.5413,55.7683],[12.5418,55.7683],[12.5423,55.7683],[12.5425,55.7684],[12.5429,55.7684],[12.543,55.7684],[12.5433,55.7685],[12.5434,55.7685],[12.5433,55.7686],[12.5432,55.7687],[12.543,55.7688],[12.5429,55.7688],[12.5428,55.7689],[12.5427,55.769],[12.5428,55.769],[12.543,55.7691],[12.5432,55.7691],[12.5435,55.7692],[12.5436,55.7691],[12.5438,55.769],[12.5437,55.7689],[12.5436,55.7687],[12.5436,55.7685],[12.5437,55.7684],[12.5443,55.7685],[12.5444,55.7685],[12.5445,55.7685],[12.5446,55.7683],[12.5448,55.7681],[12.5447,55.7681],[12.5445,55.7681],[12.5441,55.768],[12.5434,55.7677],[12.5428,55.7676],[12.5422,55.7674],[12.5408,55.7675],[12.5403,55.7675],[12.5401,55.7675],[12.5389,55.7675],[12.5382,55.7676],[12.5372,55.7677],[12.5364,55.7678],[12.5365,55.7679]]]},"properties":{"sourceId":"ais_par3.136990","a_type":4120,"hectares":4.202}},{"type":"Feature","id":"ais_par3.136991","geometry":{"type":"Polygon","coordinates":[[[12.5481,55.7695],[12.5483,55.7695],[12.5483,55.7694],[12.5483,55.7693],[12.5482,55.7692],[12.5481,55.7691],[12.5478,55.7691],[12.5472,55.7689],[12.5471,55.769],[12.5471,55.7691],[12.5474,55.7691],[12.5476,55.7693],[12.5479,55.7693],[12.5481,55.7694],[12.5481,55.7695]]]},"properties":{"sourceId":"ais_par3.136991","a_type":4120,"hectares":0.184}},{"type":"Feature","id":"ais_par3.137055","geometry":{"type":"Polygon","coordinates":[[[12.5474,55.7589],[12.5473,55.7589],[12.5474,55.7589],[12.5472,55.7589],[12.5461,55.7589],[12.5449,55.759],[12.5449,55.7591],[12.5449,55.7593],[12.5452,55.7593],[12.5462,55.7591],[12.5474,55.7589]]]},"properties":{"sourceId":"ais_par3.137055","a_type":4120,"hectares":0.379}},{"type":"Feature","id":"ais_par3.137056","geometry":{"type":"Polygon","coordinates":[[[12.549,55.7576],[12.549,55.7578],[12.5491,55.758],[12.5493,55.7582],[12.5494,55.7583],[12.5494,55.7584],[12.5498,55.7584],[12.5501,55.7584],[12.5505,55.7584],[12.5504,55.7583],[12.5502,55.758],[12.5501,55.7577],[12.55,55.7575],[12.5498,55.7575],[12.5495,55.7575],[12.549,55.7576]]]},"properties":{"sourceId":"ais_par3.137056","a_type":4120,"hectares":0.624}},{"type":"Feature","id":"ais_par3.137057","geometry":{"type":"Polygon","coordinates":[[[12.5399,55.7589],[12.5398,55.759],[12.5398,55.759],[12.5396,55.7589],[12.5394,55.7588],[12.5392,55.7589],[12.5391,55.759],[12.5392,55.7591],[12.5398,55.7592],[12.54,55.7592],[12.5398,55.7594],[12.5392,55.7593],[12.5388,55.7591],[12.5387,55.7591],[12.5385,55.759],[12.5385,55.7588],[12.5384,55.7588],[12.5381,55.7589],[12.5383,55.7592],[12.5385,55.7593],[12.5394,55.7595],[12.54,55.7596],[12.5405,55.7595],[12.5404,55.7594],[12.5402,55.7593],[12.5402,55.7591],[12.5401,55.7588],[12.5397,55.7586],[12.5394,55.7586],[12.5399,55.7587],[12.5399,55.7589]]]},"properties":{"sourceId":"ais_par3.137057","a_type":4120,"hectares":0.638}},{"type":"Feature","id":"ais_par3.137058","geometry":{"type":"Polygon","coordinates":[[[12.5394,55.7652],[12.5396,55.7653],[12.5401,55.7652],[12.5407,55.765],[12.5408,55.7649],[12.5407,55.7647],[12.5408,55.7644],[12.5407,55.7643],[12.5404,55.7643],[12.5396,55.7643],[12.5394,55.7644],[12.5393,55.7648],[12.5394,55.7652]]]},"properties":{"sourceId":"ais_par3.137058","a_type":4120,"hectares":0.832}},{"type":"Feature","id":"ais_par3.137059","geometry":{"type":"Polygon","coordinates":[[[12.5409,55.7659],[12.541,55.7659],[12.5412,55.7659],[12.5415,55.7657],[12.5413,55.765],[12.5415,55.7646],[12.542,55.7645],[12.5425,55.7643],[12.5424,55.7641],[12.5419,55.7639],[12.5412,55.7639],[12.5406,55.7639],[12.5401,55.7638],[12.5395,55.7637],[12.5391,55.7638],[12.5386,55.7642],[12.5383,55.7646],[12.5382,55.7652],[12.5384,55.7656],[12.5388,55.7658],[12.5398,55.7658],[12.5406,55.7658],[12.5409,55.7659]],[[12.5389,55.7655],[12.5388,55.7649],[12.5389,55.7644],[12.5391,55.7642],[12.5398,55.7641],[12.5411,55.7641],[12.5421,55.7641],[12.5423,55.7642],[12.5424,55.7643],[12.5423,55.7643],[12.5418,55.7642],[12.5414,55.7642],[12.5411,55.7644],[12.5409,55.7649],[12.5409,55.765],[12.5407,55.7652],[12.5402,55.7654],[12.5396,55.7653],[12.5393,55.7654],[12.539,55.7655],[12.539,55.7655],[12.5389,55.7655]]]},"properties":{"sourceId":"ais_par3.137059","a_type":4120,"hectares":2.592}},{"type":"Feature","id":"ais_par3.137060","geometry":{"type":"Polygon","coordinates":[[[12.5721,55.773],[12.5725,55.7733],[12.573,55.7736],[12.5735,55.7739],[12.5742,55.7742],[12.5746,55.7742],[12.5749,55.7741],[12.5753,55.7739],[12.5755,55.7737],[12.5757,55.7733],[12.5754,55.773],[12.575,55.7729],[12.5745,55.7727],[12.5738,55.7725],[12.5734,55.7724],[12.573,55.7724],[12.5726,55.7724],[12.5722,55.7725],[12.572,55.7726],[12.572,55.7727],[12.5723,55.7726],[12.5728,55.7726],[12.5729,55.7727],[12.5727,55.7727],[12.5722,55.773],[12.5721,55.773]]]},"properties":{"sourceId":"ais_par3.137060","a_type":4120,"hectares":2.768}},{"type":"Feature","id":"ais_par3.137061","geometry":{"type":"Polygon","coordinates":[[[12.5632,55.7648],[12.5633,55.7655],[12.5637,55.7659],[12.5644,55.766],[12.5652,55.7661],[12.5655,55.7661],[12.5658,55.7659],[12.5659,55.7655],[12.5657,55.7653],[12.5657,55.7651],[12.5658,55.7647],[12.566,55.7644],[12.5659,55.764],[12.5656,55.7638],[12.5651,55.7637],[12.5646,55.7636],[12.564,55.7636],[12.5636,55.7637],[12.5633,55.764],[12.5632,55.7645],[12.5632,55.7648],[12.5632,55.7648]]]},"properties":{"sourceId":"ais_par3.137061","a_type":4120,"hectares":4.07}},{"type":"Feature","id":"ais_par3.137064","geometry":{"type":"Polygon","coordinates":[[[12.5552,55.7704],[12.5548,55.7704],[12.5546,55.7703],[12.5544,55.7702],[12.5544,55.7701],[12.5543,55.7702],[12.5543,55.7703],[12.5542,55.7703],[12.5539,55.7702],[12.5538,55.77],[12.5539,55.7698],[12.5539,55.7698],[12.5538,55.7697],[12.5536,55.7697],[12.5533,55.7696],[12.5531,55.7694],[12.5531,55.7695],[12.553,55.7696],[12.5528,55.7696],[12.5527,55.7696],[12.5526,55.7698],[12.5524,55.7698],[12.5525,55.7696],[12.5525,55.7695],[12.5523,55.7694],[12.5522,55.7693],[12.5521,55.7693],[12.552,55.7695],[12.5517,55.7696],[12.5515,55.7696],[12.5511,55.7696],[12.5506,55.7695],[12.5501,55.7695],[12.5495,55.7694],[12.5492,55.7694],[12.5489,55.7694],[12.5487,55.7694],[12.5487,55.7694],[12.5488,55.7695],[12.5488,55.7695],[12.5492,55.7696],[12.5502,55.7699],[12.5509,55.7702],[12.5513,55.7703],[12.5519,55.7704],[12.5524,55.7705],[12.5531,55.7707],[12.5538,55.7709],[12.5546,55.7711],[12.5551,55.7712],[12.5555,55.7712],[12.556,55.7713],[12.5561,55.7713],[12.5563,55.7711],[12.5563,55.771],[12.5563,55.771],[12.5564,55.7709],[12.5564,55.7708],[12.5565,55.7707],[12.5565,55.7706],[12.5565,55.7705],[12.5565,55.7703],[12.5564,55.7701],[12.5564,55.7701],[12.5563,55.77],[12.5562,55.77],[12.5561,55.77],[12.5561,55.7699],[12.5559,55.7698],[12.5557,55.7698],[12.5556,55.7698],[12.5556,55.7699],[12.5558,55.7699],[12.5559,55.7699],[12.5561,55.77],[12.556,55.7701],[12.5559,55.7701],[12.5558,55.7701],[12.5557,55.7702],[12.5556,55.7703],[12.5554,55.7704],[12.5552,55.7704]]]},"properties":{"sourceId":"ais_par3.137064","a_type":4120,"hectares":4.143}},{"type":"Feature","id":"ais_par3.137217","geometry":{"type":"Polygon","coordinates":[[[12.5532,55.7693],[12.5529,55.7693],[12.5526,55.7693],[12.5523,55.7692],[12.5522,55.7693],[12.5523,55.7694],[12.5525,55.7695],[12.5525,55.7696],[12.5524,55.7698],[12.5526,55.7698],[12.5527,55.7696],[12.5528,55.7696],[12.553,55.7696],[12.5531,55.7695],[12.5531,55.7694],[12.5532,55.7693]]]},"properties":{"sourceId":"ais_par3.137217","a_type":4110,"hectares":0.178}},{"type":"Feature","id":"ais_par3.137219","geometry":{"type":"Polygon","coordinates":[[[12.5821,55.7793],[12.5823,55.7792],[12.5824,55.779],[12.5826,55.7789],[12.5828,55.7789],[12.5831,55.7789],[12.5832,55.779],[12.5833,55.7792],[12.5835,55.7793],[12.5838,55.7793],[12.584,55.7792],[12.5841,55.779],[12.5844,55.7788],[12.5844,55.7787],[12.5842,55.7785],[12.5841,55.7783],[12.5841,55.7781],[12.5836,55.778],[12.583,55.778],[12.5828,55.7782],[12.5825,55.7785],[12.5822,55.7785],[12.5817,55.7785],[12.5817,55.7788],[12.5818,55.7791],[12.582,55.7793],[12.5821,55.7793]]]},"properties":{"sourceId":"ais_par3.137219","a_type":4110,"hectares":1.499}},{"type":"Feature","id":"ais_par3.137236","geometry":{"type":"Polygon","coordinates":[[[12.5491,55.7594],[12.549,55.7594],[12.5493,55.7594],[12.5498,55.7593],[12.5503,55.7591],[12.5505,55.7588],[12.5507,55.7585],[12.5506,55.7585],[12.55,55.7585],[12.5496,55.7585],[12.5492,55.7585],[12.5487,55.7588],[12.5487,55.7589],[12.5488,55.7592],[12.5491,55.7594]]]},"properties":{"sourceId":"ais_par3.137236","a_type":4110,"hectares":0.921}},{"type":"Feature","id":"ais_par3.137309","geometry":{"type":"Polygon","coordinates":[[[12.5671,55.7783],[12.5676,55.7781],[12.5679,55.7778],[12.5676,55.7775],[12.5673,55.7768],[12.567,55.7764],[12.5666,55.7763],[12.566,55.7765],[12.5661,55.7769],[12.5658,55.7773],[12.5654,55.7776],[12.565,55.7781],[12.566,55.7783],[12.5666,55.7786],[12.5671,55.7783]]]},"properties":{"sourceId":"ais_par3.137309","a_type":4110,"hectares":2.58}},{"type":"Feature","id":"ais_par3.136398","geometry":{"type":"Polygon","coordinates":[[[12.4992,55.7762],[12.4993,55.776],[12.4994,55.7759],[12.4995,55.7758],[12.4994,55.7757],[12.4991,55.7758],[12.4989,55.7758],[12.4988,55.776],[12.499,55.7761],[12.4992,55.7762],[12.4992,55.7762]]]},"properties":{"sourceId":"ais_par3.136398","a_type":5120,"hectares":0.138}},{"type":"Feature","id":"ais_par3.136404","geometry":{"type":"Polygon","coordinates":[[[12.4996,55.7748],[12.4996,55.7746],[12.4996,55.7744],[12.4995,55.7743],[12.4995,55.7741],[12.4993,55.774],[12.4991,55.7739],[12.4988,55.7743],[12.4991,55.7744],[12.4993,55.7746],[12.4995,55.7748],[12.4996,55.7748],[12.4997,55.7748],[12.4996,55.7748]],[[12.4992,55.7744],[12.4992,55.7745],[12.4991,55.7743],[12.4991,55.7742],[12.4993,55.7742],[12.4994,55.7743],[12.4994,55.7744],[12.4994,55.7744],[12.4992,55.7744]]]},"properties":{"sourceId":"ais_par3.136404","a_type":5120,"hectares":0.208}},{"type":"Feature","id":"ais_par3.136413","geometry":{"type":"Polygon","coordinates":[[[12.4957,55.7726],[12.4964,55.7725],[12.4973,55.7724],[12.4983,55.7723],[12.4991,55.7723],[12.4995,55.7724],[12.4998,55.7726],[12.5001,55.7727],[12.5003,55.7726],[12.5002,55.7725],[12.4998,55.7723],[12.4994,55.7722],[12.4989,55.7722],[12.4983,55.7722],[12.4973,55.7723],[12.4964,55.7724],[12.4958,55.7725],[12.4957,55.7726],[12.4957,55.7726]]]},"properties":{"sourceId":"ais_par3.136413","a_type":5120,"hectares":0.431}},{"type":"Feature","id":"ais_par3.136416","geometry":{"type":"Polygon","coordinates":[[[12.495,55.7745],[12.4953,55.7745],[12.4955,55.7745],[12.4959,55.7743],[12.4963,55.7742],[12.4966,55.7742],[12.4967,55.7741],[12.4969,55.7743],[12.4971,55.7743],[12.4973,55.7743],[12.4975,55.7742],[12.4978,55.7741],[12.4981,55.774],[12.4983,55.7739],[12.4983,55.7737],[12.4979,55.7737],[12.4976,55.7737],[12.4974,55.7737],[12.4971,55.7738],[12.4962,55.7737],[12.4958,55.7737],[12.4955,55.7737],[12.4952,55.7737],[12.4951,55.7738],[12.4953,55.7738],[12.4957,55.7738],[12.4961,55.7738],[12.4964,55.7738],[12.4967,55.7739],[12.4967,55.774],[12.4964,55.7741],[12.4958,55.7743],[12.4952,55.7745],[12.495,55.7745]]]},"properties":{"sourceId":"ais_par3.136416","a_type":5120,"hectares":0.738}},{"type":"Feature","id":"ais_par3.136833","geometry":{"type":"Polygon","coordinates":[[[12.4992,55.7744],[12.4994,55.7744],[12.4994,55.7744],[12.4994,55.7743],[12.4993,55.7742],[12.4991,55.7742],[12.4991,55.7743],[12.4992,55.7745],[12.4992,55.7744]]]},"properties":{"sourceId":"ais_par3.136833","a_type":4120,"hectares":0.039}},{"type":"Feature","id":"ais_par3.136844","geometry":{"type":"Polygon","coordinates":[[[12.4999,55.7783],[12.5,55.7784],[12.5,55.778],[12.4999,55.7777],[12.4998,55.7774],[12.4995,55.7775],[12.4992,55.7776],[12.4992,55.7778],[12.4992,55.7779],[12.4993,55.7781],[12.4994,55.7783],[12.4995,55.7784],[12.4997,55.7785],[12.4999,55.7784],[12.4999,55.7783]]]},"properties":{"sourceId":"ais_par3.136844","a_type":4120,"hectares":0.425}},{"type":"Feature","id":"ais_par3.137200","geometry":{"type":"Polygon","coordinates":[[[12.4967,55.783],[12.4971,55.7826],[12.4975,55.7823],[12.4981,55.7819],[12.4986,55.7814],[12.4991,55.7811],[12.4994,55.7807],[12.4996,55.7805],[12.5002,55.7802],[12.5006,55.78],[12.5009,55.7793],[12.501,55.7792],[12.501,55.779],[12.5009,55.7787],[12.5006,55.7786],[12.5001,55.7784],[12.5,55.7787],[12.5001,55.7789],[12.5002,55.7792],[12.5002,55.7794],[12.4999,55.7796],[12.4997,55.7798],[12.4993,55.78],[12.499,55.7801],[12.4988,55.7803],[12.4987,55.7806],[12.4985,55.7808],[12.4982,55.7809],[12.498,55.7812],[12.4978,55.7814],[12.4975,55.7815],[12.4971,55.7817],[12.4968,55.7819],[12.4964,55.7821],[12.4961,55.7823],[12.4959,55.7825],[12.4957,55.7826],[12.4957,55.7829],[12.4959,55.7831],[12.4963,55.7831],[12.4965,55.7833],[12.4967,55.783]]]},"properties":{"sourceId":"ais_par3.137200","a_type":4120,"hectares":3.358}},{"type":"Feature","id":"ais_par3.137205","geometry":{"type":"Polygon","coordinates":[[[12.4957,55.7826],[12.4959,55.7824],[12.4961,55.7822],[12.4964,55.782],[12.4967,55.7819],[12.4969,55.7817],[12.4971,55.7817],[12.4972,55.7816],[12.4975,55.7814],[12.4977,55.7813],[12.4981,55.7809],[12.4984,55.7806],[12.4985,55.7805],[12.4986,55.7803],[12.4988,55.7801],[12.499,55.78],[12.4992,55.7799],[12.4994,55.7799],[12.4996,55.7798],[12.4998,55.7796],[12.5,55.7794],[12.5,55.7789],[12.4999,55.7787],[12.4998,55.7787],[12.4996,55.7786],[12.4996,55.7787],[12.4997,55.779],[12.4996,55.7792],[12.4993,55.7795],[12.4989,55.7798],[12.4986,55.78],[12.4983,55.7802],[12.4981,55.7804],[12.498,55.7806],[12.4979,55.7809],[12.4977,55.7812],[12.4974,55.7813],[12.4971,55.7815],[12.4968,55.7816],[12.4964,55.7817],[12.4961,55.7819],[12.4958,55.7821],[12.4956,55.7823],[12.4953,55.7826],[12.4952,55.7828],[12.4952,55.783],[12.4954,55.7827],[12.4957,55.7826]]]},"properties":{"sourceId":"ais_par3.137205","a_type":4120,"hectares":1.167}}]}
