{"type":"FeatureCollection","metadata":{"kommuneKode":"0161","kommuneNavn":"Glostrup","source":"https://wfs2-miljoegis.mim.dk/natur/ows","layer":"natur:ais_par3","bbox":[12.367807499264897,55.657952562420334,12.432360820465949,55.7094783983631],"fetchedAt":"2026-06-12T20:55:36.270769+00:00"},"features":[{"type":"Feature","id":"ais_par3.135310","geometry":{"type":"Polygon","coordinates":[[[12.3871,55.6902],[12.3872,55.6902],[12.3871,55.6901],[12.3871,55.6901],[12.3871,55.6901],[12.3871,55.6902]]]},"properties":{"sourceId":"ais_par3.135310","a_type":5120,"hectares":0.006}},{"type":"Feature","id":"ais_par3.135316","geometry":{"type":"Polygon","coordinates":[[[12.3666,55.6883],[12.3665,55.6882],[12.3665,55.6882],[12.3664,55.6882],[12.3664,55.6882],[12.3664,55.6883],[12.3664,55.6884],[12.3664,55.6884],[12.3664,55.6885],[12.3664,55.6885],[12.3664,55.6884],[12.3665,55.6883],[12.3665,55.6883],[12.3666,55.6883],[12.3666,55.6883]]]},"properties":{"sourceId":"ais_par3.135316","a_type":5120,"hectares":0.024}},{"type":"Feature","id":"ais_par3.135322","geometry":{"type":"Polygon","coordinates":[[[12.368,55.6859],[12.3679,55.6859],[12.3678,55.6859],[12.3677,55.686],[12.3677,55.6861],[12.3678,55.6861],[12.3679,55.6861],[12.368,55.686],[12.368,55.686],[12.3681,55.6859],[12.368,55.6859]]]},"properties":{"sourceId":"ais_par3.135322","a_type":5120,"hectares":0.04}},{"type":"Feature","id":"ais_par3.135333","geometry":{"type":"Polygon","coordinates":[[[12.3732,55.6858],[12.3734,55.6857],[12.3735,55.6856],[12.3735,55.6855],[12.3735,55.6854],[12.3733,55.6853],[12.3731,55.6853],[12.373,55.6853],[12.3729,55.6854],[12.3729,55.6855],[12.3729,55.6856],[12.373,55.6857],[12.3732,55.6858]]]},"properties":{"sourceId":"ais_par3.135333","a_type":5120,"hectares":0.154}},{"type":"Feature","id":"ais_par3.135335","geometry":{"type":"Polygon","coordinates":[[[12.3838,55.6908],[12.3837,55.6908],[12.3835,55.6907],[12.3834,55.6907],[12.3833,55.6908],[12.3834,55.6908],[12.3835,55.6909],[12.3835,55.691],[12.3835,55.6911],[12.3833,55.6911],[12.3832,55.6911],[12.3832,55.6912],[12.3833,55.6912],[12.3835,55.6913],[12.3836,55.6913],[12.3838,55.6912],[12.3839,55.6911],[12.3839,55.691],[12.3839,55.6909],[12.3838,55.6908]]]},"properties":{"sourceId":"ais_par3.135335","a_type":5120,"hectares":0.176}},{"type":"Feature","id":"ais_par3.135342","geometry":{"type":"Polygon","coordinates":[[[12.3844,55.6923],[12.3845,55.6925],[12.3847,55.6926],[12.3848,55.6927],[12.385,55.6927],[12.3853,55.6926],[12.3853,55.6924],[12.3852,55.6923],[12.3852,55.6921],[12.3851,55.692],[12.3851,55.6919],[12.3849,55.6919],[12.3848,55.692],[12.3846,55.6922],[12.3845,55.6923],[12.3844,55.6923]]]},"properties":{"sourceId":"ais_par3.135342","a_type":5120,"hectares":0.3}},{"type":"Feature","id":"ais_par3.135350","geometry":{"type":"Polygon","coordinates":[[[12.3808,55.6786],[12.3811,55.6783],[12.3813,55.6781],[12.3809,55.678],[12.3806,55.678],[12.3802,55.678],[12.3801,55.6782],[12.3801,55.6784],[12.3801,55.6786],[12.3802,55.6788],[12.3803,55.679],[12.3806,55.6791],[12.3808,55.6791],[12.381,55.679],[12.3811,55.6789],[12.381,55.6787],[12.3809,55.6786],[12.3808,55.6786]]]},"properties":{"sourceId":"ais_par3.135350","a_type":5120,"hectares":0.632}},{"type":"Feature","id":"ais_par3.135351","geometry":{"type":"Polygon","coordinates":[[[12.3801,55.6893],[12.3802,55.6892],[12.3802,55.689],[12.3801,55.6888],[12.3799,55.6887],[12.3797,55.6885],[12.3795,55.6884],[12.3793,55.6883],[12.3791,55.6883],[12.379,55.6884],[12.3789,55.6885],[12.3789,55.6887],[12.3789,55.6889],[12.3789,55.689],[12.3789,55.6891],[12.379,55.6892],[12.3793,55.6893],[12.3796,55.6893],[12.38,55.6893],[12.3801,55.6893]]]},"properties":{"sourceId":"ais_par3.135351","a_type":5120,"hectares":0.689}},{"type":"Feature","id":"ais_par3.135399","geometry":{"type":"Polygon","coordinates":[[[12.3848,55.7046],[12.3848,55.7045],[12.3847,55.7045],[12.3845,55.7045],[12.3843,55.7044],[12.3842,55.7044],[12.3841,55.7045],[12.3842,55.7045],[12.3844,55.7045],[12.3846,55.7046],[12.3847,55.7046],[12.3848,55.7046]]]},"properties":{"sourceId":"ais_par3.135399","a_type":5120,"hectares":0.045}},{"type":"Feature","id":"ais_par3.135400","geometry":{"type":"Polygon","coordinates":[[[12.3758,55.7062],[12.3758,55.7061],[12.3758,55.7059],[12.3757,55.7059],[12.3756,55.7059],[12.3756,55.7059],[12.3756,55.706],[12.3755,55.7061],[12.3756,55.7062],[12.3757,55.7062],[12.3758,55.7062]]]},"properties":{"sourceId":"ais_par3.135400","a_type":5120,"hectares":0.045}},{"type":"Feature","id":"ais_par3.135401","geometry":{"type":"Polygon","coordinates":[[[12.3768,55.7024],[12.3771,55.7024],[12.3772,55.7023],[12.3772,55.7022],[12.377,55.7022],[12.3769,55.7022],[12.3768,55.7023],[12.3768,55.7024]]]},"properties":{"sourceId":"ais_par3.135401","a_type":5120,"hectares":0.046}},{"type":"Feature","id":"ais_par3.135439","geometry":{"type":"Polygon","coordinates":[[[12.3697,55.7079],[12.3698,55.7078],[12.3695,55.7077],[12.3693,55.7076],[12.3692,55.7075],[12.369,55.7075],[12.3692,55.7077],[12.3694,55.7078],[12.3696,55.7079],[12.3697,55.7079]]]},"properties":{"sourceId":"ais_par3.135439","a_type":5120,"hectares":0.08}},{"type":"Feature","id":"ais_par3.135463","geometry":{"type":"Polygon","coordinates":[[[12.371,55.7081],[12.3709,55.7079],[12.3709,55.7078],[12.3706,55.7077],[12.3703,55.7077],[12.3702,55.7077],[12.3703,55.7079],[12.3706,55.708],[12.3709,55.7081],[12.371,55.7081]]]},"properties":{"sourceId":"ais_par3.135463","a_type":5120,"hectares":0.118}},{"type":"Feature","id":"ais_par3.135484","geometry":{"type":"Polygon","coordinates":[[[12.3822,55.7029],[12.3824,55.7029],[12.3825,55.7028],[12.3826,55.7028],[12.3827,55.7026],[12.3828,55.7025],[12.3828,55.7024],[12.3827,55.7023],[12.3827,55.7023],[12.3826,55.7023],[12.3825,55.7024],[12.3823,55.7025],[12.3822,55.7026],[12.3822,55.7027],[12.3821,55.7027],[12.3821,55.7028],[12.3822,55.7029],[12.3822,55.7029]]]},"properties":{"sourceId":"ais_par3.135484","a_type":5120,"hectares":0.167}},{"type":"Feature","id":"ais_par3.135541","geometry":{"type":"Polygon","coordinates":[[[12.375,55.7071],[12.375,55.7069],[12.375,55.7069],[12.3746,55.7066],[12.3743,55.7065],[12.374,55.7064],[12.3739,55.7066],[12.3738,55.7066],[12.3737,55.7068],[12.3736,55.7069],[12.3735,55.7071],[12.3732,55.7072],[12.3728,55.7074],[12.3724,55.7074],[12.3722,55.7077],[12.3725,55.7078],[12.3727,55.7077],[12.3736,55.7076],[12.3741,55.7075],[12.3745,55.7074],[12.3749,55.7073],[12.375,55.7071]]]},"properties":{"sourceId":"ais_par3.135541","a_type":5120,"hectares":1.21}},{"type":"Feature","id":"ais_par3.135549","geometry":{"type":"Polygon","coordinates":[[[12.3688,55.7122],[12.3692,55.7122],[12.3696,55.7122],[12.3699,55.7122],[12.3704,55.7121],[12.3708,55.7121],[12.3712,55.712],[12.3716,55.7119],[12.372,55.7119],[12.3724,55.7118],[12.3726,55.7117],[12.3728,55.7116],[12.373,55.7116],[12.3731,55.7115],[12.3731,55.7113],[12.3731,55.7112],[12.3731,55.711],[12.3731,55.711],[12.3727,55.7108],[12.3722,55.7107],[12.3717,55.7107],[12.3711,55.7107],[12.3707,55.7107],[12.3702,55.7107],[12.3697,55.7108],[12.3694,55.7108],[12.369,55.7109],[12.3686,55.7111],[12.3683,55.7112],[12.368,55.7113],[12.3679,55.7114],[12.3677,55.7115],[12.3676,55.7117],[12.3677,55.7119],[12.3678,55.7119],[12.3679,55.712],[12.3681,55.7121],[12.3685,55.7122],[12.3688,55.7122]]]},"properties":{"sourceId":"ais_par3.135549","a_type":5120,"hectares":4.431}},{"type":"Feature","id":"ais_par3.135707","geometry":{"type":"Polygon","coordinates":[[[12.4086,55.7087],[12.4087,55.7087],[12.4087,55.7086],[12.4086,55.7086],[12.4085,55.7086],[12.4084,55.7086],[12.4083,55.7086],[12.4082,55.7085],[12.4081,55.7085],[12.4081,55.7085],[12.4081,55.7086],[12.4081,55.7086],[12.4083,55.7087],[12.4084,55.7087],[12.4086,55.7087],[12.4087,55.7087],[12.4087,55.7087],[12.4086,55.7087]]]},"properties":{"sourceId":"ais_par3.135707","a_type":5120,"hectares":0.039}},{"type":"Feature","id":"ais_par3.135708","geometry":{"type":"Polygon","coordinates":[[[12.4032,55.7062],[12.4033,55.7062],[12.4032,55.7061],[12.4032,55.7059],[12.4032,55.7058],[12.4032,55.7057],[12.4031,55.7057],[12.4031,55.7058],[12.4031,55.7059],[12.4031,55.706],[12.4032,55.7061],[12.4031,55.7062],[12.4031,55.7062],[12.403,55.7063],[12.4031,55.7063],[12.4032,55.7063],[12.4033,55.7062],[12.4032,55.7062]]]},"properties":{"sourceId":"ais_par3.135708","a_type":5120,"hectares":0.039}},{"type":"Feature","id":"ais_par3.135709","geometry":{"type":"Polygon","coordinates":[[[12.4136,55.6913],[12.4137,55.6913],[12.4138,55.6913],[12.4139,55.6912],[12.4139,55.6912],[12.4138,55.6911],[12.4137,55.6911],[12.4136,55.6911],[12.4135,55.6912],[12.4134,55.6912],[12.4135,55.6913],[12.4135,55.6913],[12.4136,55.6913]]]},"properties":{"sourceId":"ais_par3.135709","a_type":5120,"hectares":0.048}},{"type":"Feature","id":"ais_par3.135711","geometry":{"type":"Polygon","coordinates":[[[12.4192,55.6909],[12.4192,55.6909],[12.4193,55.691],[12.4194,55.691],[12.4195,55.691],[12.4196,55.691],[12.4196,55.6909],[12.4195,55.6908],[12.4195,55.6908],[12.4193,55.6907],[12.4192,55.6907],[12.4191,55.6908],[12.4191,55.6908],[12.4191,55.6909],[12.4192,55.6909],[12.4192,55.6909]]]},"properties":{"sourceId":"ais_par3.135711","a_type":5120,"hectares":0.068}},{"type":"Feature","id":"ais_par3.135712","geometry":{"type":"Polygon","coordinates":[[[12.4035,55.6907],[12.4033,55.6907],[12.4033,55.6908],[12.4033,55.6909],[12.4034,55.691],[12.4035,55.691],[12.4036,55.6911],[12.4037,55.691],[12.4037,55.6909],[12.4035,55.6907],[12.4035,55.6907],[12.4035,55.6907]]]},"properties":{"sourceId":"ais_par3.135712","a_type":5120,"hectares":0.068}},{"type":"Feature","id":"ais_par3.135714","geometry":{"type":"Polygon","coordinates":[[[12.4081,55.6962],[12.4079,55.6962],[12.4077,55.6963],[12.4078,55.6964],[12.4078,55.6964],[12.408,55.6965],[12.4082,55.6964],[12.4083,55.6964],[12.4083,55.6963],[12.4083,55.6962],[12.4082,55.6962],[12.4081,55.6962],[12.4081,55.6962]]]},"properties":{"sourceId":"ais_par3.135714","a_type":5120,"hectares":0.083}},{"type":"Feature","id":"ais_par3.135715","geometry":{"type":"Polygon","coordinates":[[[12.3993,55.6946],[12.3992,55.6947],[12.3992,55.6948],[12.3992,55.6948],[12.3993,55.6949],[12.3994,55.6949],[12.3996,55.6949],[12.3996,55.6948],[12.3997,55.6947],[12.3996,55.6947],[12.3996,55.6946],[12.3995,55.6946],[12.3995,55.6945],[12.3995,55.6945],[12.3994,55.6945],[12.3994,55.6945],[12.3993,55.6945],[12.3993,55.6946],[12.3993,55.6946],[12.3993,55.6947],[12.3993,55.6946]]]},"properties":{"sourceId":"ais_par3.135715","a_type":5120,"hectares":0.098}},{"type":"Feature","id":"ais_par3.135717","geometry":{"type":"Polygon","coordinates":[[[12.4025,55.7061],[12.4026,55.7061],[12.4028,55.7061],[12.4028,55.7061],[12.4029,55.706],[12.4028,55.7059],[12.4028,55.7058],[12.4027,55.7057],[12.4025,55.7057],[12.4023,55.7057],[12.4021,55.7058],[12.402,55.7059],[12.402,55.7059],[12.4021,55.7059],[12.4022,55.706],[12.4024,55.7061],[12.4024,55.7061],[12.4025,55.7062],[12.4025,55.7061]]]},"properties":{"sourceId":"ais_par3.135717","a_type":5120,"hectares":0.179}},{"type":"Feature","id":"ais_par3.135718","geometry":{"type":"Polygon","coordinates":[[[12.414,55.6808],[12.4142,55.6808],[12.4144,55.6808],[12.4145,55.6808],[12.4148,55.6807],[12.4148,55.6806],[12.4148,55.6806],[12.4147,55.6805],[12.4146,55.6804],[12.4144,55.6804],[12.4142,55.6805],[12.4141,55.6806],[12.414,55.6806],[12.4139,55.6807],[12.4139,55.6807],[12.414,55.6808]]]},"properties":{"sourceId":"ais_par3.135718","a_type":5120,"hectares":0.183}},{"type":"Feature","id":"ais_par3.135719","geometry":{"type":"Polygon","coordinates":[[[12.4188,55.6793],[12.4187,55.6793],[12.4181,55.6794],[12.418,55.6795],[12.4179,55.6796],[12.4181,55.6797],[12.4183,55.6797],[12.4186,55.6797],[12.4188,55.6797],[12.4189,55.6797],[12.419,55.6796],[12.419,55.6796],[12.419,55.6795],[12.4189,55.6794],[12.4188,55.6793]]]},"properties":{"sourceId":"ais_par3.135719","a_type":5120,"hectares":0.211}},{"type":"Feature","id":"ais_par3.135720","geometry":{"type":"Polygon","coordinates":[[[12.4047,55.6937],[12.4049,55.6937],[12.4051,55.6936],[12.4052,55.6935],[12.4053,55.6934],[12.4052,55.6933],[12.4051,55.6932],[12.4049,55.6932],[12.4047,55.6932],[12.4045,55.6933],[12.4044,55.6934],[12.4044,55.6935],[12.4046,55.6936],[12.4047,55.6937]]]},"properties":{"sourceId":"ais_par3.135720","a_type":5120,"hectares":0.213}},{"type":"Feature","id":"ais_par3.135721","geometry":{"type":"Polygon","coordinates":[[[12.3994,55.6885],[12.3994,55.6883],[12.3993,55.6882],[12.3992,55.6881],[12.399,55.6881],[12.3989,55.688],[12.3988,55.688],[12.3986,55.688],[12.3985,55.688],[12.3983,55.6881],[12.3982,55.6882],[12.3982,55.6882],[12.3984,55.6883],[12.3984,55.6883],[12.3985,55.6883],[12.3987,55.6884],[12.3988,55.6884],[12.3989,55.6884],[12.3991,55.6884],[12.3992,55.6885],[12.3993,55.6885],[12.3994,55.6885],[12.3994,55.6885]]]},"properties":{"sourceId":"ais_par3.135721","a_type":5120,"hectares":0.238}},{"type":"Feature","id":"ais_par3.135722","geometry":{"type":"Polygon","coordinates":[[[12.3907,55.7027],[12.3907,55.7028],[12.3908,55.7029],[12.3909,55.703],[12.3913,55.7033],[12.3915,55.7034],[12.3917,55.7035],[12.3919,55.7035],[12.3921,55.7034],[12.3922,55.7033],[12.3923,55.7032],[12.3923,55.703],[12.3922,55.7029],[12.3922,55.7029],[12.3919,55.7028],[12.3916,55.7028],[12.3914,55.7026],[12.3913,55.7025],[12.3912,55.7025],[12.391,55.7026],[12.3909,55.7026],[12.3907,55.7026],[12.3907,55.7027]],[[12.391,55.703],[12.391,55.703],[12.391,55.7029],[12.3911,55.7028],[12.3911,55.7027],[12.3912,55.7027],[12.3913,55.7028],[12.3914,55.7028],[12.3914,55.7029],[12.3914,55.703],[12.3914,55.7031],[12.3913,55.7031],[12.3912,55.7031],[12.391,55.703]]]},"properties":{"sourceId":"ais_par3.135722","a_type":5120,"hectares":0.536}},{"type":"Feature","id":"ais_par3.135723","geometry":{"type":"Polygon","coordinates":[[[12.4212,55.7035],[12.4212,55.7035],[12.4214,55.7035],[12.4214,55.7034],[12.4215,55.7034],[12.4215,55.7033],[12.4215,55.7033],[12.4213,55.7032],[12.4212,55.7032],[12.4211,55.7032],[12.4209,55.7033],[12.4209,55.7034],[12.421,55.7034],[12.4211,55.7035],[12.4211,55.7036],[12.4211,55.7038],[12.421,55.7039],[12.421,55.7039],[12.4208,55.7039],[12.4208,55.7038],[12.4206,55.7037],[12.4203,55.7034],[12.4201,55.7034],[12.4198,55.7034],[12.4195,55.7036],[12.4193,55.7038],[12.419,55.7039],[12.4187,55.704],[12.4185,55.704],[12.4181,55.704],[12.4179,55.7041],[12.4177,55.7042],[12.4177,55.7044],[12.4175,55.7046],[12.4169,55.7048],[12.4166,55.7047],[12.4164,55.7047],[12.4163,55.7046],[12.4162,55.7045],[12.4162,55.7045],[12.4165,55.7042],[12.4165,55.7041],[12.4164,55.7037],[12.4164,55.7036],[12.4166,55.7035],[12.4168,55.7035],[12.4171,55.7034],[12.4173,55.7032],[12.4173,55.7031],[12.4172,55.703],[12.417,55.7031],[12.4169,55.7031],[12.4168,55.7032],[12.4167,55.7034],[12.4164,55.7035],[12.4158,55.7037],[12.4157,55.7038],[12.4156,55.704],[12.4155,55.7042],[12.4154,55.7045],[12.4154,55.7047],[12.4155,55.7048],[12.4158,55.7048],[12.4161,55.7048],[12.4165,55.7048],[12.4168,55.7049],[12.4168,55.7049],[12.4167,55.7051],[12.4166,55.7052],[12.4166,55.7053],[12.4168,55.7054],[12.4171,55.7055],[12.4173,55.7055],[12.4176,55.7055],[12.418,55.7055],[12.4182,55.7056],[12.4183,55.7057],[12.4184,55.7055],[12.4185,55.7053],[12.4189,55.7052],[12.4192,55.705],[12.4194,55.7049],[12.4198,55.7048],[12.42,55.7047],[12.4204,55.7046],[12.4205,55.7045],[12.4205,55.7044],[12.4205,55.7043],[12.4206,55.7041],[12.4206,55.7041],[12.4207,55.704],[12.4209,55.704],[12.4211,55.704],[12.4213,55.704],[12.4214,55.704],[12.4215,55.704],[12.4216,55.7041],[12.4218,55.7042],[12.422,55.7042],[12.4222,55.7042],[12.4222,55.7041],[12.4222,55.7041],[12.4223,55.7041],[12.4224,55.7041],[12.4224,55.704],[12.4224,55.704],[12.4223,55.704],[12.4222,55.704],[12.4221,55.7039],[12.4221,55.7039],[12.422,55.7039],[12.4218,55.704],[12.4217,55.7039],[12.4216,55.7038],[12.4215,55.7039],[12.4213,55.7039],[12.4212,55.7039],[12.4212,55.7039],[12.4212,55.7038],[12.4212,55.7036],[12.4212,55.7035]],[[12.419,55.7048],[12.419,55.7045],[12.4189,55.7043],[12.4189,55.7042],[12.4192,55.7041],[12.4194,55.7041],[12.4196,55.7041],[12.4198,55.7041],[12.42,55.7042],[12.4201,55.7044],[12.4202,55.7045],[12.42,55.7046],[12.4196,55.7046],[12.4194,55.7047],[12.4192,55.7047],[12.4191,55.7048],[12.419,55.7048]],[[12.419,55.7051],[12.4188,55.7051],[12.4186,55.7052],[12.4185,55.7052],[12.4184,55.7051],[12.4184,55.7049],[12.4185,55.7049],[12.4186,55.7048],[12.4187,55.7048],[12.4189,55.7049],[12.419,55.7049],[12.419,55.705],[12.419,55.7051]]]},"properties":{"sourceId":"ais_par3.135723","a_type":5120,"hectares":3.831}},{"type":"Feature","id":"ais_par3.136426","geometry":{"type":"Polygon","coordinates":[[[12.4304,55.6918],[12.4305,55.6917],[12.4306,55.6916],[12.4306,55.6916],[12.4305,55.6915],[12.4304,55.6915],[12.4302,55.6915],[12.4301,55.6915],[12.4301,55.6916],[12.4301,55.6917],[12.4302,55.6917],[12.4304,55.6918],[12.4304,55.6918]]]},"properties":{"sourceId":"ais_par3.136426","a_type":5120,"hectares":0.095}},{"type":"Feature","id":"ais_par3.136996","geometry":{"type":"Polygon","coordinates":[[[12.3837,55.6907],[12.3835,55.6906],[12.3833,55.6906],[12.3832,55.6907],[12.3831,55.6908],[12.383,55.6909],[12.383,55.6911],[12.383,55.6911],[12.3833,55.6912],[12.3832,55.6912],[12.3832,55.6911],[12.3833,55.6911],[12.3835,55.6911],[12.3835,55.691],[12.3835,55.6909],[12.3834,55.6908],[12.3833,55.6908],[12.3834,55.6907],[12.3835,55.6907],[12.3837,55.6908],[12.3838,55.6908],[12.3837,55.6907]]]},"properties":{"sourceId":"ais_par3.136996","a_type":4120,"hectares":0.125}},{"type":"Feature","id":"ais_par3.137028","geometry":{"type":"Polygon","coordinates":[[[12.3754,55.706],[12.3753,55.7061],[12.3752,55.7062],[12.375,55.7063],[12.3748,55.7064],[12.3746,55.7064],[12.3743,55.7065],[12.3746,55.7066],[12.375,55.7069],[12.3752,55.7065],[12.3755,55.7063],[12.3757,55.7062],[12.3761,55.7062],[12.3757,55.7055],[12.3754,55.7056],[12.3754,55.7059],[12.3754,55.706]],[[12.3758,55.7062],[12.3757,55.7062],[12.3756,55.7062],[12.3755,55.7061],[12.3756,55.706],[12.3756,55.7059],[12.3756,55.7059],[12.3757,55.7059],[12.3758,55.7059],[12.3758,55.7061],[12.3758,55.7062]]]},"properties":{"sourceId":"ais_par3.137028","a_type":4120,"hectares":0.437}},{"type":"Feature","id":"ais_par3.137041","geometry":{"type":"Polygon","coordinates":[[[12.3684,55.7074],[12.3686,55.7076],[12.3689,55.7078],[12.3692,55.708],[12.3699,55.7081],[12.3705,55.7082],[12.3708,55.7083],[12.3715,55.7081],[12.3721,55.708],[12.3727,55.7079],[12.3738,55.7077],[12.3745,55.7076],[12.3747,55.7075],[12.3749,55.7073],[12.3745,55.7074],[12.3741,55.7075],[12.3736,55.7076],[12.3727,55.7077],[12.3725,55.7078],[12.3725,55.7078],[12.3722,55.7077],[12.3724,55.7074],[12.3718,55.7076],[12.3713,55.7076],[12.3709,55.7076],[12.3707,55.7076],[12.3704,55.7075],[12.3703,55.7076],[12.37,55.7076],[12.3698,55.7075],[12.3696,55.7074],[12.3694,55.7073],[12.3692,55.7072],[12.3687,55.7073],[12.3685,55.7073],[12.3684,55.7074]],[[12.371,55.7081],[12.3709,55.7081],[12.3706,55.708],[12.3703,55.7079],[12.3702,55.7077],[12.3703,55.7077],[12.3706,55.7077],[12.3709,55.7078],[12.3709,55.7079],[12.371,55.7081]],[[12.3697,55.7079],[12.3696,55.7079],[12.3694,55.7078],[12.3692,55.7077],[12.369,55.7075],[12.3692,55.7075],[12.3693,55.7076],[12.3695,55.7077],[12.3698,55.7078],[12.3697,55.7079]]]},"properties":{"sourceId":"ais_par3.137041","a_type":4120,"hectares":1.723}},{"type":"Feature","id":"ais_par3.137074","geometry":{"type":"Polygon","coordinates":[[[12.391,55.703],[12.3912,55.7031],[12.3913,55.7031],[12.3914,55.7031],[12.3914,55.703],[12.3914,55.7029],[12.3914,55.7028],[12.3913,55.7028],[12.3912,55.7027],[12.3911,55.7027],[12.3911,55.7028],[12.391,55.7029],[12.391,55.703],[12.391,55.703]]]},"properties":{"sourceId":"ais_par3.137074","a_type":4120,"hectares":0.091}},{"type":"Feature","id":"ais_par3.137075","geometry":{"type":"Polygon","coordinates":[[[12.419,55.7051],[12.419,55.705],[12.419,55.7049],[12.4189,55.7049],[12.4187,55.7048],[12.4186,55.7048],[12.4185,55.7049],[12.4184,55.7049],[12.4184,55.7051],[12.4185,55.7052],[12.4186,55.7052],[12.4188,55.7051],[12.419,55.7051]]]},"properties":{"sourceId":"ais_par3.137075","a_type":4120,"hectares":0.116}},{"type":"Feature","id":"ais_par3.137076","geometry":{"type":"Polygon","coordinates":[[[12.4168,55.7049],[12.4168,55.7049],[12.4165,55.7048],[12.4161,55.7048],[12.4158,55.7048],[12.4155,55.7048],[12.4154,55.7047],[12.4154,55.7048],[12.4158,55.7049],[12.416,55.705],[12.4163,55.705],[12.4165,55.705],[12.4167,55.7051],[12.4168,55.7049]]]},"properties":{"sourceId":"ais_par3.137076","a_type":4120,"hectares":0.173}},{"type":"Feature","id":"ais_par3.137077","geometry":{"type":"Polygon","coordinates":[[[12.3907,55.7026],[12.3906,55.7028],[12.3907,55.703],[12.391,55.7032],[12.3912,55.7035],[12.3914,55.7037],[12.3916,55.7039],[12.3917,55.704],[12.3919,55.704],[12.392,55.7039],[12.392,55.7038],[12.3921,55.7037],[12.3922,55.7036],[12.3922,55.7035],[12.3922,55.7035],[12.3921,55.7034],[12.3919,55.7035],[12.3917,55.7035],[12.3915,55.7034],[12.3913,55.7033],[12.3909,55.703],[12.3908,55.7029],[12.3907,55.7028],[12.3907,55.7027],[12.3907,55.7026]]]},"properties":{"sourceId":"ais_par3.137077","a_type":4120,"hectares":0.344}},{"type":"Feature","id":"ais_par3.137078","geometry":{"type":"Polygon","coordinates":[[[12.419,55.7048],[12.4191,55.7048],[12.4192,55.7047],[12.4194,55.7047],[12.4196,55.7046],[12.42,55.7046],[12.4202,55.7045],[12.4201,55.7044],[12.42,55.7042],[12.4198,55.7041],[12.4196,55.7041],[12.4194,55.7041],[12.4192,55.7041],[12.4189,55.7042],[12.4189,55.7043],[12.419,55.7045],[12.419,55.7048]]]},"properties":{"sourceId":"ais_par3.137078","a_type":4120,"hectares":0.432}},{"type":"Feature","id":"ais_par3.137079","geometry":{"type":"Polygon","coordinates":[[[12.4205,55.7033],[12.4204,55.7033],[12.4201,55.7033],[12.4199,55.7032],[12.4197,55.7033],[12.4195,55.7033],[12.4192,55.7035],[12.419,55.7037],[12.4187,55.7038],[12.4185,55.7038],[12.4183,55.7038],[12.418,55.7038],[12.4178,55.7037],[12.4175,55.7036],[12.4174,55.7035],[12.4173,55.7035],[12.4172,55.7036],[12.4172,55.7038],[12.4171,55.704],[12.417,55.7041],[12.4169,55.7043],[12.4169,55.7044],[12.4169,55.7045],[12.4168,55.7045],[12.4166,55.7046],[12.4165,55.7046],[12.4163,55.7046],[12.4164,55.7047],[12.4166,55.7047],[12.4169,55.7048],[12.4175,55.7046],[12.4177,55.7044],[12.4177,55.7042],[12.4179,55.7041],[12.4181,55.704],[12.4185,55.704],[12.4187,55.704],[12.419,55.7039],[12.4193,55.7038],[12.4195,55.7036],[12.4198,55.7034],[12.4201,55.7034],[12.4203,55.7034],[12.4206,55.7037],[12.4208,55.7038],[12.4208,55.7039],[12.421,55.7039],[12.421,55.7039],[12.4209,55.7038],[12.4208,55.7036],[12.4207,55.7035],[12.4206,55.7034],[12.4205,55.7033]]]},"properties":{"sourceId":"ais_par3.137079","a_type":4120,"hectares":1.128}},{"type":"Feature","id":"ais_par3.137234","geometry":{"type":"Polygon","coordinates":[[[12.3722,55.7107],[12.3727,55.7108],[12.3731,55.711],[12.3731,55.711],[12.3731,55.7112],[12.3731,55.7113],[12.3731,55.7115],[12.373,55.7116],[12.3728,55.7116],[12.3726,55.7117],[12.3724,55.7118],[12.372,55.7119],[12.3716,55.7119],[12.3712,55.712],[12.3708,55.7121],[12.3704,55.7121],[12.3699,55.7122],[12.3696,55.7122],[12.3692,55.7122],[12.3688,55.7122],[12.3689,55.7129],[12.3702,55.7129],[12.3714,55.713],[12.3727,55.7131],[12.3733,55.7128],[12.3739,55.7124],[12.3747,55.7119],[12.3755,55.7114],[12.3762,55.711],[12.3759,55.7106],[12.3755,55.71],[12.3752,55.7095],[12.3745,55.7098],[12.3738,55.7101],[12.3729,55.7103],[12.3722,55.7103],[12.3722,55.7107]]]},"properties":{"sourceId":"ais_par3.137234","a_type":4110,"hectares":7.301}},{"type":"Feature","id":"ais_par3.135328","geometry":{"type":"Polygon","coordinates":[[[12.3656,55.6637],[12.3656,55.6638],[12.3659,55.6638],[12.3662,55.6638],[12.3664,55.6638],[12.3667,55.6638],[12.3669,55.6638],[12.367,55.6638],[12.3667,55.6637],[12.3664,55.6637],[12.3661,55.6637],[12.3658,55.6637],[12.3657,55.6637],[12.3656,55.6637]]]},"properties":{"sourceId":"ais_par3.135328","a_type":5120,"hectares":0.088}},{"type":"Feature","id":"ais_par3.135349","geometry":{"type":"Polygon","coordinates":[[[12.3725,55.6701],[12.3725,55.6702],[12.3726,55.6703],[12.3727,55.6704],[12.373,55.6704],[12.3733,55.6704],[12.3737,55.6703],[12.374,55.6703],[12.3745,55.6703],[12.3745,55.6702],[12.3745,55.6701],[12.3742,55.67],[12.3735,55.6699],[12.3728,55.6698],[12.3726,55.6698],[12.3725,55.6699],[12.3725,55.6701]]]},"properties":{"sourceId":"ais_par3.135349","a_type":5120,"hectares":0.614}},{"type":"Feature","id":"ais_par3.135555","geometry":{"type":"Polygon","coordinates":[[[12.4233,55.6667],[12.4235,55.6667],[12.423,55.6663],[12.423,55.6666],[12.423,55.6667],[12.4233,55.6667]]]},"properties":{"sourceId":"ais_par3.135555","a_type":5120,"hectares":0.07}},{"type":"Feature","id":"ais_par3.135556","geometry":{"type":"Polygon","coordinates":[[[12.3687,55.6593],[12.3688,55.6593],[12.3688,55.6592],[12.3686,55.6591],[12.3684,55.6591],[12.3683,55.6591],[12.3682,55.6591],[12.3681,55.6591],[12.3682,55.6592],[12.3682,55.6593],[12.3684,55.6593],[12.3685,55.6593],[12.3686,55.6593],[12.3687,55.6593],[12.3687,55.6593]]]},"properties":{"sourceId":"ais_par3.135556","a_type":5120,"hectares":0.084}},{"type":"Feature","id":"ais_par3.135706","geometry":{"type":"Polygon","coordinates":[[[12.3949,55.6607],[12.395,55.6607],[12.3951,55.6608],[12.3952,55.6607],[12.3952,55.6606],[12.3951,55.6606],[12.395,55.6606],[12.3949,55.6606],[12.3949,55.6607],[12.3949,55.6607]]]},"properties":{"sourceId":"ais_par3.135706","a_type":5120,"hectares":0.03}},{"type":"Feature","id":"ais_par3.135710","geometry":{"type":"Polygon","coordinates":[[[12.3738,55.6691],[12.3739,55.6691],[12.3739,55.669],[12.3737,55.669],[12.3735,55.669],[12.3733,55.6691],[12.3733,55.6691],[12.3733,55.6692],[12.3734,55.6692],[12.3736,55.6692],[12.3738,55.6692],[12.3738,55.6691],[12.3738,55.6691]]]},"properties":{"sourceId":"ais_par3.135710","a_type":5120,"hectares":0.067}},{"type":"Feature","id":"ais_par3.135713","geometry":{"type":"Polygon","coordinates":[[[12.4131,55.6654],[12.4133,55.6653],[12.4133,55.6652],[12.4133,55.6652],[12.4132,55.6651],[12.4131,55.6651],[12.4129,55.6651],[12.4128,55.6652],[12.4128,55.6653],[12.4128,55.6654],[12.4129,55.6654],[12.413,55.6655],[12.4131,55.6655],[12.4131,55.6654],[12.4131,55.6654]]]},"properties":{"sourceId":"ais_par3.135713","a_type":5120,"hectares":0.083}},{"type":"Feature","id":"ais_par3.135716","geometry":{"type":"Polygon","coordinates":[[[12.3683,55.6681],[12.3686,55.6682],[12.3688,55.6682],[12.369,55.6681],[12.3688,55.668],[12.3686,55.6678],[12.3684,55.668],[12.3682,55.6681],[12.3683,55.6681]]]},"properties":{"sourceId":"ais_par3.135716","a_type":5120,"hectares":0.103}},{"type":"Feature","id":"ais_par3.135544","geometry":{"type":"Polygon","coordinates":[[[12.4237,55.7103],[12.4239,55.7101],[12.4241,55.7097],[12.4242,55.7093],[12.4242,55.7091],[12.4242,55.709],[12.4239,55.7089],[12.4235,55.7089],[12.4231,55.7089],[12.4227,55.709],[12.4225,55.7091],[12.4224,55.7092],[12.4223,55.7094],[12.4224,55.7098],[12.4225,55.7099],[12.4228,55.71],[12.4232,55.7101],[12.4237,55.7103],[12.4237,55.7103]]]},"properties":{"sourceId":"ais_par3.135544","a_type":5120,"hectares":1.391}}]}
