{"type":"FeatureCollection","metadata":{"kommuneKode":"0163","kommuneNavn":"Herlev","source":"https://wfs2-miljoegis.mim.dk/natur/ows","layer":"natur:ais_par3","bbox":[12.39337347076061,55.70758931061264,12.458730568872472,55.759863342235626],"fetchedAt":"2026-06-12T20:55:36.357016+00:00"},"features":[{"type":"Feature","id":"ais_par3.134981","geometry":{"type":"Polygon","coordinates":[[[12.4574,55.7142],[12.4578,55.7146],[12.458,55.7149],[12.4584,55.7158],[12.4586,55.7163],[12.4588,55.7163],[12.4584,55.7155],[12.4581,55.7148],[12.458,55.7145],[12.4575,55.7142],[12.4574,55.7142]]]},"properties":{"sourceId":"ais_par3.134981","a_type":5120,"hectares":0.26}},{"type":"Feature","id":"ais_par3.134982","geometry":{"type":"Polygon","coordinates":[[[12.453,55.7119],[12.453,55.7124],[12.4536,55.7126],[12.4543,55.7131],[12.4549,55.7134],[12.4555,55.7136],[12.4564,55.7139],[12.457,55.714],[12.4573,55.7141],[12.4574,55.7141],[12.4562,55.7138],[12.4552,55.7135],[12.4548,55.7133],[12.4542,55.7129],[12.4537,55.7126],[12.4532,55.7124],[12.4531,55.712],[12.453,55.7119]]]},"properties":{"sourceId":"ais_par3.134982","a_type":5120,"hectares":0.285}},{"type":"Feature","id":"ais_par3.134983","geometry":{"type":"Polygon","coordinates":[[[12.4561,55.7081],[12.457,55.7087],[12.4581,55.7095],[12.4594,55.7105],[12.4602,55.711],[12.461,55.7116],[12.4613,55.7118],[12.4614,55.7117],[12.461,55.7114],[12.4611,55.711],[12.4611,55.7109],[12.4609,55.7108],[12.4602,55.7108],[12.4595,55.7103],[12.4585,55.7096],[12.4571,55.7085],[12.4572,55.7083],[12.4569,55.708],[12.4563,55.708],[12.4561,55.7081]]]},"properties":{"sourceId":"ais_par3.134983","a_type":5120,"hectares":1.088}},{"type":"Feature","id":"ais_par3.134984","geometry":{"type":"Polygon","coordinates":[[[12.4542,55.7067],[12.4551,55.7073],[12.456,55.708],[12.4561,55.7079],[12.4561,55.7077],[12.4555,55.7074],[12.4544,55.7067],[12.4542,55.7067]]]},"properties":{"sourceId":"ais_par3.134984","a_type":5120,"hectares":0.311}},{"type":"Feature","id":"ais_par3.134985","geometry":{"type":"Polygon","coordinates":[[[12.4547,55.7062],[12.4552,55.7056],[12.4556,55.705],[12.4562,55.7047],[12.457,55.7043],[12.458,55.7041],[12.4593,55.7038],[12.46,55.7036],[12.4609,55.7033],[12.4614,55.7032],[12.4622,55.7032],[12.4632,55.7031],[12.4635,55.703],[12.4639,55.7027],[12.4642,55.7024],[12.4642,55.702],[12.464,55.7016],[12.464,55.7011],[12.4638,55.7011],[12.4639,55.7017],[12.464,55.7023],[12.4639,55.7026],[12.4634,55.7029],[12.4632,55.703],[12.4622,55.7031],[12.4611,55.7031],[12.4597,55.7035],[12.4587,55.7038],[12.458,55.704],[12.4573,55.7041],[12.4568,55.7043],[12.4561,55.7046],[12.4557,55.7049],[12.4552,55.7052],[12.4546,55.7061],[12.4547,55.7062]]]},"properties":{"sourceId":"ais_par3.134985","a_type":5120,"hectares":1.043}},{"type":"Feature","id":"ais_par3.135482","geometry":{"type":"Polygon","coordinates":[[[12.3934,55.72],[12.3936,55.7201],[12.3938,55.7201],[12.3939,55.7202],[12.394,55.7203],[12.3941,55.7203],[12.3942,55.7202],[12.3942,55.7201],[12.394,55.7201],[12.394,55.7201],[12.3939,55.72],[12.3939,55.72],[12.3938,55.72],[12.3937,55.7199],[12.3938,55.7198],[12.3939,55.7198],[12.394,55.7197],[12.3941,55.7197],[12.3941,55.7197],[12.3939,55.7197],[12.3937,55.7197],[12.3935,55.7198],[12.3934,55.7198],[12.3933,55.7199],[12.3932,55.7199],[12.3932,55.72],[12.3932,55.72],[12.3934,55.72]]]},"properties":{"sourceId":"ais_par3.135482","a_type":5120,"hectares":0.161}},{"type":"Feature","id":"ais_par3.135497","geometry":{"type":"Polygon","coordinates":[[[12.4044,55.7168],[12.4051,55.7166],[12.4053,55.7166],[12.4053,55.7164],[12.4052,55.7163],[12.4049,55.7163],[12.4047,55.7163],[12.4045,55.7163],[12.4044,55.7164],[12.4044,55.7166],[12.4043,55.7167],[12.4044,55.7168],[12.4044,55.7168]]]},"properties":{"sourceId":"ais_par3.135497","a_type":5120,"hectares":0.223}},{"type":"Feature","id":"ais_par3.135707","geometry":{"type":"Polygon","coordinates":[[[12.4086,55.7087],[12.4087,55.7087],[12.4087,55.7086],[12.4086,55.7086],[12.4085,55.7086],[12.4084,55.7086],[12.4083,55.7086],[12.4082,55.7085],[12.4081,55.7085],[12.4081,55.7085],[12.4081,55.7086],[12.4081,55.7086],[12.4083,55.7087],[12.4084,55.7087],[12.4086,55.7087],[12.4087,55.7087],[12.4087,55.7087],[12.4086,55.7087]]]},"properties":{"sourceId":"ais_par3.135707","a_type":5120,"hectares":0.039}},{"type":"Feature","id":"ais_par3.135162","geometry":{"type":"Polygon","coordinates":[[[12.4067,55.7594],[12.4068,55.7593],[12.4067,55.7592],[12.4065,55.7592],[12.4064,55.7592],[12.4064,55.7593],[12.4065,55.7593],[12.4067,55.7593],[12.4067,55.7594]]]},"properties":{"sourceId":"ais_par3.135162","a_type":5120,"hectares":0.028}},{"type":"Feature","id":"ais_par3.135150","geometry":{"type":"Polygon","coordinates":[[[12.396,55.7591],[12.3959,55.7591],[12.3959,55.7592],[12.396,55.7592],[12.396,55.7593],[12.3961,55.7593],[12.3962,55.7593],[12.3962,55.7592],[12.3961,55.7592],[12.3961,55.7592],[12.396,55.7592],[12.396,55.7592],[12.396,55.7591],[12.396,55.7591]]]},"properties":{"sourceId":"ais_par3.135150","a_type":5120,"hectares":0.018}},{"type":"Feature","id":"ais_par3.135154","geometry":{"type":"Polygon","coordinates":[[[12.4058,55.7574],[12.4058,55.7574],[12.4058,55.7575],[12.4057,55.7575],[12.4057,55.7576],[12.4057,55.7576],[12.4058,55.7576],[12.4059,55.7576],[12.4059,55.7575],[12.4059,55.7575],[12.4059,55.7574],[12.4058,55.7574]]]},"properties":{"sourceId":"ais_par3.135154","a_type":5120,"hectares":0.025}},{"type":"Feature","id":"ais_par3.135147","geometry":{"type":"Polygon","coordinates":[[[12.4164,55.7584],[12.4164,55.7584],[12.4165,55.7583],[12.4164,55.7582],[12.4163,55.7583],[12.4163,55.7583],[12.4163,55.7583],[12.4164,55.7584]]]},"properties":{"sourceId":"ais_par3.135147","a_type":5120,"hectares":0.011}},{"type":"Feature","id":"ais_par3.135148","geometry":{"type":"Polygon","coordinates":[[[12.3952,55.7597],[12.3952,55.7597],[12.3953,55.7598],[12.3954,55.7598],[12.3954,55.7597],[12.3954,55.7596],[12.3953,55.7597],[12.3952,55.7597]]]},"properties":{"sourceId":"ais_par3.135148","a_type":5120,"hectares":0.012}},{"type":"Feature","id":"ais_par3.135163","geometry":{"type":"Polygon","coordinates":[[[12.4161,55.7579],[12.4161,55.7579],[12.4162,55.7578],[12.4163,55.7578],[12.4164,55.7577],[12.4164,55.7577],[12.4163,55.7576],[12.4162,55.7577],[12.4161,55.7577],[12.4161,55.7578],[12.4161,55.7579]]]},"properties":{"sourceId":"ais_par3.135163","a_type":5120,"hectares":0.03}},{"type":"Feature","id":"ais_par3.135181","geometry":{"type":"Polygon","coordinates":[[[12.4092,55.7607],[12.4091,55.7609],[12.4091,55.7609],[12.4092,55.761],[12.4093,55.761],[12.4094,55.761],[12.4095,55.7609],[12.4095,55.7609],[12.4094,55.7608],[12.4093,55.7607],[12.4092,55.7607]]]},"properties":{"sourceId":"ais_par3.135181","a_type":5120,"hectares":0.044}},{"type":"Feature","id":"ais_par3.135184","geometry":{"type":"Polygon","coordinates":[[[12.3954,55.7595],[12.3954,55.7595],[12.3954,55.7596],[12.3955,55.7597],[12.3956,55.7597],[12.3957,55.7596],[12.3958,55.7596],[12.3958,55.7595],[12.3956,55.7594],[12.3954,55.7595]]]},"properties":{"sourceId":"ais_par3.135184","a_type":5120,"hectares":0.051}},{"type":"Feature","id":"ais_par3.135188","geometry":{"type":"Polygon","coordinates":[[[12.4157,55.7533],[12.4157,55.7533],[12.4159,55.7533],[12.4158,55.7532],[12.4159,55.7532],[12.416,55.7532],[12.416,55.7531],[12.416,55.753],[12.4159,55.7531],[12.4158,55.7531],[12.4157,55.7531],[12.4156,55.7531],[12.4156,55.7532],[12.4157,55.7533]]]},"properties":{"sourceId":"ais_par3.135188","a_type":5120,"hectares":0.057}},{"type":"Feature","id":"ais_par3.135195","geometry":{"type":"Polygon","coordinates":[[[12.4007,55.7599],[12.4007,55.7599],[12.4007,55.76],[12.4006,55.76],[12.4006,55.7601],[12.4006,55.7602],[12.4006,55.7602],[12.4006,55.7603],[12.4007,55.7603],[12.4007,55.7603],[12.4009,55.7603],[12.4009,55.7602],[12.4009,55.7601],[12.4008,55.76],[12.4007,55.7599]]]},"properties":{"sourceId":"ais_par3.135195","a_type":5120,"hectares":0.069}},{"type":"Feature","id":"ais_par3.135199","geometry":{"type":"Polygon","coordinates":[[[12.4066,55.7611],[12.4066,55.761],[12.4068,55.7611],[12.4069,55.7609],[12.4069,55.7608],[12.4067,55.7607],[12.4065,55.7608],[12.4065,55.7608],[12.4065,55.7609],[12.4066,55.7611]]]},"properties":{"sourceId":"ais_par3.135199","a_type":5120,"hectares":0.074}},{"type":"Feature","id":"ais_par3.135222","geometry":{"type":"Polygon","coordinates":[[[12.4058,55.7583],[12.4059,55.7584],[12.4059,55.7584],[12.406,55.7585],[12.4061,55.7585],[12.4062,55.7585],[12.4063,55.7584],[12.4063,55.7584],[12.4062,55.7583],[12.4062,55.7583],[12.4061,55.7582],[12.4061,55.7581],[12.4061,55.7581],[12.406,55.758],[12.4059,55.758],[12.4058,55.758],[12.4058,55.7581],[12.4058,55.7581],[12.4059,55.7582],[12.4058,55.7583]]]},"properties":{"sourceId":"ais_par3.135222","a_type":5120,"hectares":0.119}},{"type":"Feature","id":"ais_par3.135244","geometry":{"type":"Polygon","coordinates":[[[12.4095,55.7608],[12.4095,55.7608],[12.4096,55.7608],[12.4097,55.7608],[12.4098,55.7607],[12.4098,55.7607],[12.4099,55.7606],[12.41,55.7605],[12.4102,55.7604],[12.4102,55.7603],[12.4102,55.7602],[12.4102,55.7601],[12.41,55.76],[12.4098,55.7601],[12.4097,55.7602],[12.4097,55.7602],[12.4097,55.7603],[12.4097,55.7604],[12.4096,55.7605],[12.4096,55.7606],[12.4094,55.7607],[12.4094,55.7608],[12.4095,55.7608]]]},"properties":{"sourceId":"ais_par3.135244","a_type":5120,"hectares":0.224}},{"type":"Feature","id":"ais_par3.135246","geometry":{"type":"Polygon","coordinates":[[[12.3986,55.7606],[12.3987,55.7606],[12.3987,55.7606],[12.3988,55.7605],[12.3989,55.7605],[12.3989,55.7604],[12.3991,55.7604],[12.3993,55.7604],[12.3994,55.7603],[12.3996,55.7602],[12.3996,55.7602],[12.3996,55.7601],[12.3996,55.76],[12.3998,55.7599],[12.3997,55.7598],[12.3996,55.7599],[12.3994,55.7599],[12.3993,55.76],[12.3991,55.7601],[12.3988,55.7603],[12.3986,55.7604],[12.3986,55.7606]]]},"properties":{"sourceId":"ais_par3.135246","a_type":5120,"hectares":0.226}},{"type":"Feature","id":"ais_par3.135247","geometry":{"type":"Polygon","coordinates":[[[12.4092,55.7587],[12.409,55.7587],[12.4089,55.7588],[12.4087,55.7588],[12.4086,55.7588],[12.4084,55.7589],[12.4083,55.759],[12.4083,55.7591],[12.4084,55.7592],[12.4086,55.7592],[12.4089,55.7592],[12.4091,55.7591],[12.4092,55.759],[12.4093,55.7589],[12.4093,55.7588],[12.4092,55.7587],[12.4092,55.7587]]]},"properties":{"sourceId":"ais_par3.135247","a_type":5120,"hectares":0.243}},{"type":"Feature","id":"ais_par3.135251","geometry":{"type":"Polygon","coordinates":[[[12.4138,55.7569],[12.4139,55.7569],[12.414,55.7569],[12.4141,55.7569],[12.4142,55.7568],[12.4142,55.7567],[12.4142,55.7566],[12.4141,55.7566],[12.414,55.7565],[12.4138,55.7564],[12.4136,55.7564],[12.4134,55.7564],[12.4133,55.7565],[12.4133,55.7566],[12.4133,55.7567],[12.4134,55.7568],[12.4136,55.7568],[12.4138,55.7569]]]},"properties":{"sourceId":"ais_par3.135251","a_type":5120,"hectares":0.255}},{"type":"Feature","id":"ais_par3.135252","geometry":{"type":"Polygon","coordinates":[[[12.4087,55.7611],[12.4087,55.761],[12.4085,55.761],[12.4085,55.761],[12.4083,55.761],[12.4081,55.7611],[12.4078,55.761],[12.4077,55.761],[12.4075,55.7609],[12.4073,55.7609],[12.4072,55.7609],[12.407,55.761],[12.407,55.7611],[12.4071,55.7611],[12.4072,55.7612],[12.4074,55.7612],[12.4077,55.7613],[12.408,55.7613],[12.4084,55.7613],[12.4085,55.7612],[12.4087,55.7612],[12.4087,55.7611]]]},"properties":{"sourceId":"ais_par3.135252","a_type":5120,"hectares":0.262}},{"type":"Feature","id":"ais_par3.135266","geometry":{"type":"Polygon","coordinates":[[[12.3985,55.7587],[12.3987,55.7587],[12.3989,55.7586],[12.3991,55.7586],[12.3991,55.7586],[12.3991,55.7585],[12.3991,55.7584],[12.3991,55.7584],[12.3992,55.7583],[12.3993,55.7582],[12.3994,55.7581],[12.3994,55.7581],[12.3995,55.758],[12.3995,55.7579],[12.3994,55.7578],[12.3993,55.7578],[12.3991,55.7578],[12.3989,55.7578],[12.3988,55.7579],[12.3987,55.758],[12.3986,55.758],[12.3985,55.758],[12.3985,55.7581],[12.3986,55.7582],[12.3987,55.7582],[12.3987,55.7583],[12.3988,55.7585],[12.3987,55.7585],[12.3986,55.7586],[12.3985,55.7587],[12.3985,55.7587]]]},"properties":{"sourceId":"ais_par3.135266","a_type":5120,"hectares":0.358}},{"type":"Feature","id":"ais_par3.135279","geometry":{"type":"Polygon","coordinates":[[[12.4096,55.7584],[12.4096,55.7584],[12.4098,55.7585],[12.41,55.7585],[12.4102,55.7584],[12.4103,55.7583],[12.4105,55.7583],[12.4107,55.7583],[12.4109,55.7583],[12.4112,55.7583],[12.4113,55.7583],[12.4113,55.7582],[12.4113,55.7581],[12.4111,55.758],[12.4109,55.7578],[12.4106,55.7577],[12.4104,55.7576],[12.4101,55.7574],[12.41,55.7573],[12.41,55.7572],[12.41,55.7572],[12.4101,55.7571],[12.4102,55.757],[12.4102,55.7568],[12.4102,55.7567],[12.4102,55.7565],[12.4102,55.7564],[12.4102,55.7563],[12.4103,55.7563],[12.4104,55.7562],[12.4108,55.7562],[12.411,55.7562],[12.411,55.7561],[12.4109,55.756],[12.4108,55.7559],[12.4107,55.7558],[12.4104,55.7556],[12.4103,55.7555],[12.4102,55.7556],[12.4101,55.7557],[12.4101,55.7558],[12.4101,55.7559],[12.4102,55.756],[12.4104,55.7561],[12.4103,55.7562],[12.4102,55.7562],[12.41,55.7562],[12.4099,55.7563],[12.4098,55.7564],[12.4097,55.7564],[12.4095,55.7565],[12.4092,55.7567],[12.4091,55.7568],[12.4092,55.7569],[12.4093,55.7569],[12.4094,55.757],[12.4095,55.757],[12.4097,55.7571],[12.4098,55.7572],[12.4098,55.7573],[12.4097,55.7574],[12.4096,55.7575],[12.4096,55.7576],[12.4096,55.7577],[12.4095,55.7577],[12.4095,55.7579],[12.4096,55.7581],[12.4096,55.7583],[12.4095,55.7584],[12.4096,55.7584]]]},"properties":{"sourceId":"ais_par3.135279","a_type":5120,"hectares":1.647}},{"type":"Feature","id":"ais_par3.135361","geometry":{"type":"Polygon","coordinates":[[[12.3948,55.7431],[12.3949,55.7431],[12.3951,55.743],[12.395,55.743],[12.3949,55.743],[12.3948,55.743],[12.3948,55.743],[12.3948,55.7431]]]},"properties":{"sourceId":"ais_par3.135361","a_type":5120,"hectares":0.014}},{"type":"Feature","id":"ais_par3.135363","geometry":{"type":"Polygon","coordinates":[[[12.398,55.7421],[12.3982,55.7422],[12.3982,55.7421],[12.3982,55.7421],[12.3982,55.742],[12.3981,55.742],[12.398,55.7421],[12.398,55.7421]]]},"properties":{"sourceId":"ais_par3.135363","a_type":5120,"hectares":0.016}},{"type":"Feature","id":"ais_par3.135366","geometry":{"type":"Polygon","coordinates":[[[12.3931,55.7412],[12.3931,55.7413],[12.3931,55.7413],[12.3932,55.7414],[12.3932,55.7413],[12.3933,55.7413],[12.3932,55.7412],[12.3931,55.7412],[12.3931,55.7412]]]},"properties":{"sourceId":"ais_par3.135366","a_type":5120,"hectares":0.018}},{"type":"Feature","id":"ais_par3.135385","geometry":{"type":"Polygon","coordinates":[[[12.3984,55.7296],[12.3984,55.7296],[12.3983,55.7295],[12.3981,55.7295],[12.3981,55.7296],[12.3981,55.7296],[12.3982,55.7297],[12.3983,55.7297],[12.3983,55.7297],[12.3984,55.7296]]]},"properties":{"sourceId":"ais_par3.135385","a_type":5120,"hectares":0.031}},{"type":"Feature","id":"ais_par3.135427","geometry":{"type":"Polygon","coordinates":[[[12.3977,55.7425],[12.3975,55.7425],[12.3974,55.7426],[12.3974,55.7426],[12.3976,55.7427],[12.3978,55.7427],[12.398,55.7427],[12.398,55.7426],[12.3979,55.7425],[12.3978,55.7425],[12.3977,55.7424],[12.3976,55.7425],[12.3977,55.7425]]]},"properties":{"sourceId":"ais_par3.135427","a_type":5120,"hectares":0.066}},{"type":"Feature","id":"ais_par3.135429","geometry":{"type":"Polygon","coordinates":[[[12.3974,55.742],[12.3973,55.742],[12.3972,55.742],[12.3971,55.742],[12.3971,55.7421],[12.3971,55.7422],[12.3972,55.7423],[12.3972,55.7423],[12.3974,55.7424],[12.3974,55.7423],[12.3974,55.7422],[12.3974,55.7421],[12.3974,55.742]]]},"properties":{"sourceId":"ais_par3.135429","a_type":5120,"hectares":0.068}},{"type":"Feature","id":"ais_par3.135438","geometry":{"type":"Polygon","coordinates":[[[12.3953,55.729],[12.3955,55.7291],[12.3956,55.7291],[12.3958,55.7292],[12.3959,55.7292],[12.396,55.7291],[12.396,55.729],[12.3959,55.729],[12.3957,55.7289],[12.3955,55.7289],[12.3954,55.729],[12.3953,55.729]]]},"properties":{"sourceId":"ais_par3.135438","a_type":5120,"hectares":0.08}},{"type":"Feature","id":"ais_par3.135440","geometry":{"type":"Polygon","coordinates":[[[12.396,55.7419],[12.3959,55.742],[12.3958,55.742],[12.3957,55.7421],[12.3957,55.7422],[12.3958,55.7423],[12.3961,55.7422],[12.3962,55.7421],[12.3962,55.7421],[12.3962,55.742],[12.3962,55.742],[12.3961,55.7419],[12.396,55.7419]]]},"properties":{"sourceId":"ais_par3.135440","a_type":5120,"hectares":0.082}},{"type":"Feature","id":"ais_par3.135487","geometry":{"type":"Polygon","coordinates":[[[12.3919,55.7444],[12.3922,55.7444],[12.3925,55.7445],[12.3926,55.7445],[12.3927,55.7444],[12.3927,55.7443],[12.3926,55.7443],[12.3925,55.7442],[12.3927,55.7442],[12.3928,55.7442],[12.3928,55.7441],[12.3928,55.744],[12.3926,55.744],[12.3924,55.744],[12.3922,55.7441],[12.3922,55.7442],[12.3922,55.7442],[12.392,55.7443],[12.3919,55.7443],[12.3919,55.7444],[12.3919,55.7444],[12.3919,55.7444]]]},"properties":{"sourceId":"ais_par3.135487","a_type":5120,"hectares":0.174}},{"type":"Feature","id":"ais_par3.135499","geometry":{"type":"Polygon","coordinates":[[[12.3945,55.7447],[12.3945,55.7448],[12.3946,55.7449],[12.3947,55.745],[12.3948,55.7451],[12.3949,55.7451],[12.3951,55.745],[12.3951,55.7449],[12.3952,55.7449],[12.3953,55.7449],[12.3953,55.7449],[12.3952,55.7448],[12.3952,55.7447],[12.3952,55.7445],[12.3949,55.7445],[12.3947,55.7445],[12.3946,55.7445],[12.3944,55.7445],[12.3944,55.7445],[12.3945,55.7446],[12.3945,55.7447]]]},"properties":{"sourceId":"ais_par3.135499","a_type":5120,"hectares":0.232}},{"type":"Feature","id":"ais_par3.135503","geometry":{"type":"Polygon","coordinates":[[[12.3974,55.7437],[12.3975,55.7434],[12.3976,55.7432],[12.3975,55.7431],[12.3974,55.743],[12.3974,55.7429],[12.3973,55.7429],[12.3971,55.743],[12.397,55.7431],[12.3969,55.7431],[12.3969,55.7432],[12.397,55.7434],[12.3971,55.7435],[12.3972,55.7436],[12.3973,55.7436],[12.3974,55.7437],[12.3974,55.7437]]]},"properties":{"sourceId":"ais_par3.135503","a_type":5120,"hectares":0.24}},{"type":"Feature","id":"ais_par3.135516","geometry":{"type":"Polygon","coordinates":[[[12.3967,55.745],[12.3968,55.7452],[12.3967,55.7453],[12.3968,55.7454],[12.3969,55.7455],[12.3971,55.7455],[12.3974,55.7454],[12.3976,55.7453],[12.3977,55.7453],[12.3978,55.7452],[12.3978,55.7451],[12.3978,55.745],[12.3976,55.7449],[12.3976,55.7449],[12.3974,55.7449],[12.3971,55.7449],[12.397,55.7449],[12.3969,55.7449],[12.3968,55.745],[12.3967,55.745]]]},"properties":{"sourceId":"ais_par3.135516","a_type":5120,"hectares":0.386}},{"type":"Feature","id":"ais_par3.135550","geometry":{"type":"Polygon","coordinates":[[[12.4091,55.7332],[12.4091,55.733],[12.4091,55.7328],[12.409,55.7326],[12.4089,55.7325],[12.4088,55.7323],[12.4086,55.732],[12.4084,55.7319],[12.4083,55.7318],[12.4081,55.7317],[12.4079,55.7317],[12.4077,55.7318],[12.4075,55.7316],[12.4075,55.7315],[12.4074,55.7314],[12.4072,55.7313],[12.407,55.7312],[12.4069,55.7312],[12.407,55.7313],[12.4067,55.7313],[12.4064,55.7313],[12.406,55.7313],[12.4057,55.7312],[12.4054,55.7311],[12.405,55.7311],[12.4048,55.7311],[12.4044,55.7311],[12.4042,55.7312],[12.4041,55.7312],[12.4038,55.7313],[12.4035,55.7313],[12.4032,55.7314],[12.4031,55.7314],[12.4031,55.7315],[12.4029,55.7315],[12.4028,55.7316],[12.4026,55.7317],[12.4027,55.7317],[12.4028,55.7318],[12.4028,55.7319],[12.4027,55.732],[12.4025,55.732],[12.4024,55.732],[12.4022,55.7321],[12.402,55.7321],[12.4018,55.7322],[12.4016,55.7322],[12.4014,55.7322],[12.4012,55.7322],[12.401,55.7323],[12.4009,55.7325],[12.4008,55.7326],[12.4007,55.7327],[12.4006,55.7328],[12.4005,55.7329],[12.4007,55.7329],[12.4009,55.7329],[12.401,55.7328],[12.4012,55.7328],[12.4015,55.7328],[12.4017,55.7328],[12.4016,55.7329],[12.4015,55.733],[12.4014,55.733],[12.4012,55.7331],[12.401,55.7331],[12.4009,55.7332],[12.4007,55.7332],[12.4004,55.7333],[12.4002,55.7334],[12.4,55.7336],[12.4,55.7337],[12.4001,55.7338],[12.4004,55.7339],[12.4007,55.7341],[12.4009,55.7342],[12.4012,55.7342],[12.4015,55.7343],[12.4018,55.7344],[12.402,55.7345],[12.4023,55.7345],[12.4025,55.7345],[12.4025,55.7344],[12.4026,55.7343],[12.4028,55.7344],[12.4029,55.7344],[12.4031,55.7344],[12.4041,55.7343],[12.4043,55.7343],[12.405,55.7343],[12.4053,55.7344],[12.4054,55.7345],[12.4055,55.7345],[12.4056,55.7344],[12.4057,55.7344],[12.4059,55.7344],[12.4062,55.7345],[12.4064,55.7345],[12.4066,55.7344],[12.4069,55.7344],[12.4072,55.7342],[12.4076,55.7341],[12.4079,55.734],[12.4083,55.7339],[12.4089,55.7337],[12.409,55.7336],[12.4091,55.7334],[12.4091,55.7332]]]},"properties":{"sourceId":"ais_par3.135550","a_type":5120,"hectares":15.653}},{"type":"Feature","id":"ais_par3.135655","geometry":{"type":"Polygon","coordinates":[[[12.4168,55.7536],[12.4169,55.7535],[12.4169,55.7534],[12.417,55.7533],[12.4168,55.7532],[12.4167,55.7533],[12.4166,55.7534],[12.4167,55.7535],[12.4168,55.7536],[12.4168,55.7536]]]},"properties":{"sourceId":"ais_par3.135655","a_type":5120,"hectares":0.052}},{"type":"Feature","id":"ais_par3.135659","geometry":{"type":"Polygon","coordinates":[[[12.4229,55.7581],[12.4229,55.7582],[12.4229,55.7583],[12.4231,55.7583],[12.4232,55.7582],[12.4232,55.7581],[12.4232,55.758],[12.4231,55.758],[12.423,55.758],[12.4229,55.7581],[12.4229,55.7581]]]},"properties":{"sourceId":"ais_par3.135659","a_type":5120,"hectares":0.059}},{"type":"Feature","id":"ais_par3.135634","geometry":{"type":"Polygon","coordinates":[[[12.4227,55.7532],[12.4228,55.7532],[12.4228,55.7531],[12.4228,55.7531],[12.4228,55.753],[12.4227,55.753],[12.4227,55.7531],[12.4227,55.7531],[12.4227,55.7532]]]},"properties":{"sourceId":"ais_par3.135634","a_type":5120,"hectares":0.014}},{"type":"Feature","id":"ais_par3.135661","geometry":{"type":"Polygon","coordinates":[[[12.422,55.7545],[12.422,55.7546],[12.4221,55.7547],[12.4223,55.7547],[12.4225,55.7547],[12.4225,55.7545],[12.4224,55.7544],[12.4222,55.7545],[12.422,55.7545],[12.422,55.7545]]]},"properties":{"sourceId":"ais_par3.135661","a_type":5120,"hectares":0.074}},{"type":"Feature","id":"ais_par3.135663","geometry":{"type":"Polygon","coordinates":[[[12.4231,55.759],[12.4233,55.7588],[12.4234,55.7587],[12.4234,55.7586],[12.4234,55.7585],[12.4233,55.7585],[12.4231,55.7586],[12.423,55.7587],[12.423,55.7588],[12.4231,55.7589],[12.4231,55.759]]]},"properties":{"sourceId":"ais_par3.135663","a_type":5120,"hectares":0.076}},{"type":"Feature","id":"ais_par3.135667","geometry":{"type":"Polygon","coordinates":[[[12.4242,55.7552],[12.4241,55.7552],[12.4241,55.7553],[12.4242,55.7554],[12.4244,55.7555],[12.4245,55.7556],[12.4246,55.7554],[12.4246,55.7553],[12.4245,55.7552],[12.4243,55.7552],[12.4242,55.7552]]]},"properties":{"sourceId":"ais_par3.135667","a_type":5120,"hectares":0.094}},{"type":"Feature","id":"ais_par3.135668","geometry":{"type":"Polygon","coordinates":[[[12.419,55.7549],[12.419,55.755],[12.4193,55.755],[12.4195,55.755],[12.4196,55.755],[12.4196,55.7549],[12.4194,55.7548],[12.4192,55.7548],[12.419,55.7548],[12.419,55.7549]]]},"properties":{"sourceId":"ais_par3.135668","a_type":5120,"hectares":0.095}},{"type":"Feature","id":"ais_par3.135682","geometry":{"type":"Polygon","coordinates":[[[12.4222,55.7598],[12.4222,55.7597],[12.4221,55.7597],[12.4221,55.7596],[12.422,55.7596],[12.4219,55.7596],[12.4218,55.7596],[12.4217,55.7596],[12.4217,55.7596],[12.4216,55.7596],[12.4215,55.7595],[12.4213,55.7595],[12.4213,55.7596],[12.4212,55.7596],[12.4212,55.7597],[12.4213,55.7597],[12.4215,55.7597],[12.4214,55.7598],[12.4215,55.7598],[12.4216,55.7599],[12.4216,55.7599],[12.4216,55.76],[12.4217,55.76],[12.4219,55.7601],[12.4221,55.76],[12.4221,55.7599],[12.4221,55.7599],[12.4222,55.7598]]]},"properties":{"sourceId":"ais_par3.135682","a_type":5120,"hectares":0.201}},{"type":"Feature","id":"ais_par3.135689","geometry":{"type":"Polygon","coordinates":[[[12.4168,55.7579],[12.4169,55.758],[12.417,55.758],[12.4172,55.758],[12.4172,55.7579],[12.4174,55.7577],[12.4175,55.7575],[12.4176,55.7574],[12.4176,55.7572],[12.4175,55.7571],[12.4173,55.757],[12.4171,55.7571],[12.417,55.7572],[12.417,55.7574],[12.417,55.7576],[12.417,55.7577],[12.4168,55.7578],[12.4168,55.7579]]]},"properties":{"sourceId":"ais_par3.135689","a_type":5120,"hectares":0.328}},{"type":"Feature","id":"ais_par3.135696","geometry":{"type":"Polygon","coordinates":[[[12.4244,55.7594],[12.4243,55.7595],[12.4241,55.7595],[12.424,55.7596],[12.4239,55.7596],[12.4239,55.7597],[12.4238,55.7598],[12.4238,55.76],[12.4238,55.76],[12.4238,55.7601],[12.4239,55.7602],[12.4239,55.7602],[12.4239,55.7603],[12.4239,55.7603],[12.424,55.7604],[12.4242,55.7603],[12.4242,55.7603],[12.4243,55.7603],[12.4245,55.7603],[12.4246,55.7603],[12.4247,55.7602],[12.4246,55.7601],[12.4246,55.7601],[12.4244,55.76],[12.4243,55.76],[12.4243,55.76],[12.4243,55.7599],[12.4244,55.7599],[12.4245,55.7598],[12.4246,55.7598],[12.4247,55.7598],[12.4247,55.7597],[12.4247,55.7597],[12.4245,55.7597],[12.4245,55.7597],[12.4246,55.7596],[12.4246,55.7595],[12.4246,55.7594],[12.4246,55.7594],[12.4244,55.7594],[12.4244,55.7594]]]},"properties":{"sourceId":"ais_par3.135696","a_type":5120,"hectares":0.392}},{"type":"Feature","id":"ais_par3.135697","geometry":{"type":"Polygon","coordinates":[[[12.4217,55.7539],[12.4219,55.7539],[12.422,55.7538],[12.4221,55.7537],[12.422,55.7536],[12.422,55.7536],[12.4222,55.7535],[12.4224,55.7534],[12.4225,55.7534],[12.4225,55.7532],[12.4225,55.7531],[12.4225,55.7531],[12.4225,55.753],[12.4223,55.753],[12.4222,55.753],[12.422,55.753],[12.4218,55.7529],[12.4218,55.753],[12.4218,55.7531],[12.4216,55.7531],[12.4215,55.7532],[12.4216,55.7533],[12.4216,55.7534],[12.4215,55.7534],[12.4216,55.7535],[12.4216,55.7537],[12.4216,55.7538],[12.4217,55.7538],[12.4217,55.7539]]]},"properties":{"sourceId":"ais_par3.135697","a_type":5120,"hectares":0.432}},{"type":"Feature","id":"ais_par3.135702","geometry":{"type":"Polygon","coordinates":[[[12.4163,55.7548],[12.4168,55.755],[12.417,55.7551],[12.4173,55.7552],[12.4177,55.7551],[12.4179,55.7551],[12.4181,55.755],[12.4181,55.7548],[12.418,55.7546],[12.4178,55.7545],[12.4176,55.7544],[12.4174,55.7544],[12.4169,55.7545],[12.4166,55.7546],[12.4164,55.7547],[12.4163,55.7548],[12.4163,55.7548]]]},"properties":{"sourceId":"ais_par3.135702","a_type":5120,"hectares":0.638}},{"type":"Feature","id":"ais_par3.135703","geometry":{"type":"Polygon","coordinates":[[[12.42,55.7581],[12.4198,55.7582],[12.4197,55.7583],[12.4196,55.7585],[12.4195,55.7588],[12.4194,55.759],[12.4193,55.7592],[12.4193,55.7593],[12.4195,55.7594],[12.4197,55.7593],[12.4199,55.7591],[12.4199,55.7589],[12.4199,55.7587],[12.4201,55.7586],[12.4204,55.7584],[12.4206,55.7584],[12.4207,55.7584],[12.4208,55.7582],[12.4208,55.7579],[12.4207,55.7577],[12.4205,55.7575],[12.4203,55.7575],[12.42,55.7574],[12.42,55.7576],[12.42,55.7578],[12.4201,55.7579],[12.42,55.7581],[12.42,55.7581]]]},"properties":{"sourceId":"ais_par3.135703","a_type":5120,"hectares":0.826}},{"type":"Feature","id":"ais_par3.135725","geometry":{"type":"Polygon","coordinates":[[[12.4087,55.7518],[12.4089,55.7518],[12.4089,55.7517],[12.4087,55.7518],[12.4087,55.7518]]]},"properties":{"sourceId":"ais_par3.135725","a_type":5120,"hectares":0.014}},{"type":"Feature","id":"ais_par3.135726","geometry":{"type":"Polygon","coordinates":[[[12.4072,55.7516],[12.4075,55.7517],[12.4077,55.7517],[12.4077,55.7516],[12.4075,55.7516],[12.4074,55.7516],[12.4072,55.7516]]]},"properties":{"sourceId":"ais_par3.135726","a_type":5120,"hectares":0.019}},{"type":"Feature","id":"ais_par3.135729","geometry":{"type":"Polygon","coordinates":[[[12.4023,55.7478],[12.4023,55.748],[12.4025,55.748],[12.4025,55.7479],[12.4024,55.7478],[12.4023,55.7478]]]},"properties":{"sourceId":"ais_par3.135729","a_type":5120,"hectares":0.024}},{"type":"Feature","id":"ais_par3.135732","geometry":{"type":"Polygon","coordinates":[[[12.4189,55.7525],[12.4191,55.7526],[12.4192,55.7526],[12.4193,55.7526],[12.4193,55.7525],[12.4191,55.7525],[12.419,55.7525],[12.4189,55.7525]]]},"properties":{"sourceId":"ais_par3.135732","a_type":5120,"hectares":0.026}},{"type":"Feature","id":"ais_par3.135734","geometry":{"type":"Polygon","coordinates":[[[12.4099,55.7496],[12.41,55.7495],[12.4098,55.7494],[12.4096,55.7495],[12.4099,55.7496]]]},"properties":{"sourceId":"ais_par3.135734","a_type":5120,"hectares":0.029}},{"type":"Feature","id":"ais_par3.135744","geometry":{"type":"Polygon","coordinates":[[[12.3962,55.7586],[12.3962,55.7586],[12.3963,55.7587],[12.3965,55.7586],[12.3966,55.7585],[12.3964,55.7584],[12.3963,55.7584],[12.3962,55.7585],[12.3962,55.7586]]]},"properties":{"sourceId":"ais_par3.135744","a_type":5120,"hectares":0.044}},{"type":"Feature","id":"ais_par3.135745","geometry":{"type":"Polygon","coordinates":[[[12.4007,55.7469],[12.4008,55.7465],[12.4007,55.7464],[12.4007,55.7462],[12.4006,55.7462],[12.4006,55.7464],[12.4006,55.7466],[12.4007,55.7468],[12.4007,55.7469]]]},"properties":{"sourceId":"ais_par3.135745","a_type":5120,"hectares":0.047}},{"type":"Feature","id":"ais_par3.135746","geometry":{"type":"Polygon","coordinates":[[[12.4033,55.7497],[12.4032,55.7498],[12.4032,55.7498],[12.4031,55.7499],[12.4033,55.75],[12.4034,55.7499],[12.4034,55.7498],[12.4034,55.7497],[12.4034,55.7497],[12.4033,55.7497]]]},"properties":{"sourceId":"ais_par3.135746","a_type":5120,"hectares":0.05}},{"type":"Feature","id":"ais_par3.135749","geometry":{"type":"Polygon","coordinates":[[[12.4022,55.7489],[12.4021,55.7491],[12.4021,55.7492],[12.4022,55.7493],[12.4024,55.7493],[12.4025,55.7492],[12.4024,55.7491],[12.4023,55.749],[12.4022,55.7489],[12.4022,55.7489]]]},"properties":{"sourceId":"ais_par3.135749","a_type":5120,"hectares":0.062}},{"type":"Feature","id":"ais_par3.135751","geometry":{"type":"Polygon","coordinates":[[[12.3973,55.7573],[12.3973,55.7573],[12.3973,55.7574],[12.3974,55.7575],[12.3976,55.7575],[12.3977,55.7574],[12.3977,55.7573],[12.3977,55.7572],[12.3975,55.7572],[12.3973,55.7573]]]},"properties":{"sourceId":"ais_par3.135751","a_type":5120,"hectares":0.069}},{"type":"Feature","id":"ais_par3.135752","geometry":{"type":"Polygon","coordinates":[[[12.4088,55.7479],[12.4087,55.748],[12.4087,55.7481],[12.4087,55.7482],[12.4089,55.7483],[12.4091,55.7482],[12.4092,55.7481],[12.409,55.7481],[12.409,55.748],[12.4088,55.7479]]]},"properties":{"sourceId":"ais_par3.135752","a_type":5120,"hectares":0.077}},{"type":"Feature","id":"ais_par3.135754","geometry":{"type":"Polygon","coordinates":[[[12.3987,55.7463],[12.3986,55.7461],[12.3986,55.746],[12.3986,55.7459],[12.3984,55.7459],[12.3982,55.746],[12.3983,55.7462],[12.3985,55.7463],[12.3987,55.7463]]]},"properties":{"sourceId":"ais_par3.135754","a_type":5120,"hectares":0.085}},{"type":"Feature","id":"ais_par3.135755","geometry":{"type":"Polygon","coordinates":[[[12.3974,55.7576],[12.3974,55.7577],[12.3972,55.7578],[12.3971,55.7579],[12.397,55.7579],[12.397,55.758],[12.3972,55.7581],[12.3972,55.758],[12.3973,55.7579],[12.3975,55.7578],[12.3976,55.7577],[12.3976,55.7577],[12.3976,55.7576],[12.3974,55.7576],[12.3974,55.7576]]]},"properties":{"sourceId":"ais_par3.135755","a_type":5120,"hectares":0.085}},{"type":"Feature","id":"ais_par3.135757","geometry":{"type":"Polygon","coordinates":[[[12.4141,55.7483],[12.414,55.7485],[12.4139,55.7486],[12.4142,55.7487],[12.4145,55.7486],[12.4143,55.7485],[12.4143,55.7484],[12.4142,55.7483],[12.4141,55.7483]]]},"properties":{"sourceId":"ais_par3.135757","a_type":5120,"hectares":0.089}},{"type":"Feature","id":"ais_par3.135758","geometry":{"type":"Polygon","coordinates":[[[12.415,55.745],[12.415,55.7451],[12.4152,55.7452],[12.4154,55.7452],[12.4155,55.7451],[12.4155,55.745],[12.4154,55.7449],[12.4153,55.7449],[12.4151,55.7449],[12.4151,55.745],[12.415,55.745]]]},"properties":{"sourceId":"ais_par3.135758","a_type":5120,"hectares":0.09}},{"type":"Feature","id":"ais_par3.135761","geometry":{"type":"Polygon","coordinates":[[[12.4169,55.751],[12.4171,55.7509],[12.4171,55.7507],[12.4171,55.7506],[12.4171,55.7504],[12.4169,55.7505],[12.4168,55.7507],[12.4167,55.7509],[12.4169,55.751]]]},"properties":{"sourceId":"ais_par3.135761","a_type":5120,"hectares":0.095}},{"type":"Feature","id":"ais_par3.135762","geometry":{"type":"Polygon","coordinates":[[[12.4059,55.7451],[12.4062,55.7451],[12.4064,55.7451],[12.4066,55.7451],[12.4065,55.7449],[12.4063,55.7448],[12.4062,55.7447],[12.4061,55.7447],[12.4061,55.7449],[12.406,55.745],[12.4059,55.7451]]]},"properties":{"sourceId":"ais_par3.135762","a_type":5120,"hectares":0.099}},{"type":"Feature","id":"ais_par3.135767","geometry":{"type":"Polygon","coordinates":[[[12.3951,55.7596],[12.3951,55.7596],[12.3953,55.7594],[12.3955,55.7592],[12.3955,55.7591],[12.3952,55.7592],[12.395,55.7592],[12.3949,55.7594],[12.395,55.7595],[12.3949,55.7595],[12.3949,55.7596],[12.3951,55.7596],[12.3951,55.7596]]]},"properties":{"sourceId":"ais_par3.135767","a_type":5120,"hectares":0.13}},{"type":"Feature","id":"ais_par3.135769","geometry":{"type":"Polygon","coordinates":[[[12.4066,55.7502],[12.4066,55.7504],[12.4067,55.7506],[12.4071,55.7507],[12.4073,55.7506],[12.4072,55.7505],[12.4071,55.7503],[12.4068,55.7502],[12.4066,55.7502]]]},"properties":{"sourceId":"ais_par3.135769","a_type":5120,"hectares":0.137}},{"type":"Feature","id":"ais_par3.135770","geometry":{"type":"Polygon","coordinates":[[[12.4238,55.7397],[12.424,55.7396],[12.4242,55.7396],[12.4242,55.7394],[12.4242,55.7392],[12.4241,55.739],[12.4239,55.7391],[12.4238,55.7391],[12.4238,55.7393],[12.4238,55.7395],[12.4239,55.7396],[12.4238,55.7397]]]},"properties":{"sourceId":"ais_par3.135770","a_type":5120,"hectares":0.143}},{"type":"Feature","id":"ais_par3.135773","geometry":{"type":"Polygon","coordinates":[[[12.4019,55.7524],[12.402,55.7526],[12.402,55.7527],[12.4022,55.7528],[12.4025,55.7528],[12.4025,55.7526],[12.4026,55.7525],[12.4024,55.7524],[12.4023,55.7523],[12.402,55.7523],[12.4019,55.7524],[12.4019,55.7524]]]},"properties":{"sourceId":"ais_par3.135773","a_type":5120,"hectares":0.16}},{"type":"Feature","id":"ais_par3.135774","geometry":{"type":"Polygon","coordinates":[[[12.4095,55.7458],[12.4097,55.7457],[12.4096,55.7455],[12.4094,55.7454],[12.4093,55.7453],[12.4091,55.7452],[12.4089,55.7452],[12.4087,55.7453],[12.4089,55.7455],[12.4092,55.7455],[12.4093,55.7456],[12.4094,55.7457],[12.4095,55.7458]]]},"properties":{"sourceId":"ais_par3.135774","a_type":5120,"hectares":0.168}},{"type":"Feature","id":"ais_par3.135775","geometry":{"type":"Polygon","coordinates":[[[12.4189,55.751],[12.4189,55.751],[12.4187,55.751],[12.4187,55.7512],[12.4189,55.7513],[12.4191,55.7513],[12.4194,55.7513],[12.4196,55.7513],[12.4196,55.7511],[12.4196,55.751],[12.4194,55.751],[12.4191,55.751],[12.4189,55.751]]]},"properties":{"sourceId":"ais_par3.135775","a_type":5120,"hectares":0.171}},{"type":"Feature","id":"ais_par3.135776","geometry":{"type":"Polygon","coordinates":[[[12.4239,55.7403],[12.4241,55.7403],[12.4243,55.7403],[12.4243,55.7401],[12.4243,55.7399],[12.4243,55.7398],[12.4243,55.7397],[12.4241,55.7397],[12.4238,55.7397],[12.4238,55.7401],[12.4239,55.7403],[12.4239,55.7403]]]},"properties":{"sourceId":"ais_par3.135776","a_type":5120,"hectares":0.184}},{"type":"Feature","id":"ais_par3.135778","geometry":{"type":"Polygon","coordinates":[[[12.4048,55.748],[12.4044,55.7481],[12.4044,55.7482],[12.4043,55.7484],[12.4045,55.7485],[12.4047,55.7485],[12.4049,55.7485],[12.405,55.7484],[12.405,55.7483],[12.405,55.7482],[12.4049,55.7482],[12.4048,55.7481],[12.4048,55.748]]]},"properties":{"sourceId":"ais_par3.135778","a_type":5120,"hectares":0.19}},{"type":"Feature","id":"ais_par3.135779","geometry":{"type":"Polygon","coordinates":[[[12.4183,55.7533],[12.4187,55.7533],[12.4189,55.7533],[12.4192,55.7534],[12.4194,55.7533],[12.4197,55.7532],[12.4197,55.7532],[12.4196,55.753],[12.4196,55.7528],[12.4192,55.7527],[12.4188,55.7527],[12.4185,55.7527],[12.4184,55.7528],[12.4183,55.7529],[12.4183,55.753],[12.4183,55.7533]]]},"properties":{"sourceId":"ais_par3.135779","a_type":5120,"hectares":0.552}},{"type":"Feature","id":"ais_par3.135781","geometry":{"type":"Polygon","coordinates":[[[12.415,55.7519],[12.415,55.7518],[12.4151,55.7517],[12.4148,55.7516],[12.4145,55.7516],[12.4144,55.7518],[12.4144,55.7519],[12.4147,55.7521],[12.415,55.7521],[12.4152,55.7521],[12.4153,55.752],[12.4153,55.7519],[12.4152,55.7519],[12.415,55.7519]]]},"properties":{"sourceId":"ais_par3.135781","a_type":5120,"hectares":0.217}},{"type":"Feature","id":"ais_par3.135783","geometry":{"type":"Polygon","coordinates":[[[12.3943,55.7536],[12.3943,55.7536],[12.3942,55.7535],[12.394,55.7535],[12.3938,55.7536],[12.3937,55.7537],[12.3937,55.7539],[12.3938,55.754],[12.394,55.754],[12.3943,55.7538],[12.3945,55.7538],[12.3946,55.7539],[12.3948,55.7539],[12.3948,55.7538],[12.3948,55.7537],[12.3947,55.7537],[12.3946,55.7537],[12.3945,55.7537],[12.3944,55.7536],[12.3943,55.7536]]]},"properties":{"sourceId":"ais_par3.135783","a_type":5120,"hectares":0.238}},{"type":"Feature","id":"ais_par3.135786","geometry":{"type":"Polygon","coordinates":[[[12.4049,55.7433],[12.405,55.7434],[12.4053,55.7434],[12.4056,55.7435],[12.4059,55.7435],[12.4061,55.7434],[12.4063,55.7432],[12.4062,55.7431],[12.4059,55.743],[12.4056,55.7431],[12.4053,55.7432],[12.4051,55.7433],[12.4049,55.7433]]]},"properties":{"sourceId":"ais_par3.135786","a_type":5120,"hectares":0.279}},{"type":"Feature","id":"ais_par3.135788","geometry":{"type":"Polygon","coordinates":[[[12.401,55.7441],[12.4015,55.7438],[12.4018,55.7437],[12.4019,55.7436],[12.4019,55.7435],[12.4018,55.7433],[12.4017,55.7433],[12.4013,55.7434],[12.401,55.7435],[12.4009,55.7436],[12.4009,55.7438],[12.4009,55.744],[12.401,55.7441]]]},"properties":{"sourceId":"ais_par3.135788","a_type":5120,"hectares":0.309}},{"type":"Feature","id":"ais_par3.135789","geometry":{"type":"Polygon","coordinates":[[[12.409,55.7497],[12.4086,55.7497],[12.4086,55.7499],[12.4086,55.75],[12.4085,55.7502],[12.4085,55.7504],[12.4086,55.7505],[12.4089,55.7506],[12.409,55.7506],[12.4091,55.7505],[12.4092,55.7503],[12.4091,55.75],[12.409,55.7499],[12.409,55.7498],[12.409,55.7497]]]},"properties":{"sourceId":"ais_par3.135789","a_type":5120,"hectares":0.33}},{"type":"Feature","id":"ais_par3.135791","geometry":{"type":"Polygon","coordinates":[[[12.4083,55.7513],[12.4084,55.7511],[12.4082,55.751],[12.4079,55.7509],[12.4076,55.751],[12.4073,55.7513],[12.4072,55.7514],[12.4073,55.7515],[12.4073,55.7516],[12.4075,55.7515],[12.4078,55.7515],[12.4083,55.7514],[12.4083,55.7513]]]},"properties":{"sourceId":"ais_par3.135791","a_type":5120,"hectares":0.35}},{"type":"Feature","id":"ais_par3.135794","geometry":{"type":"Polygon","coordinates":[[[12.403,55.7442],[12.4028,55.7442],[12.4027,55.7443],[12.4029,55.7444],[12.4031,55.7446],[12.4031,55.7447],[12.4029,55.7448],[12.4027,55.745],[12.4027,55.7451],[12.4028,55.7452],[12.403,55.7453],[12.4032,55.7453],[12.4033,55.7452],[12.4034,55.745],[12.4034,55.7449],[12.4035,55.7447],[12.4035,55.7446],[12.4033,55.7444],[12.4032,55.7443],[12.4031,55.7442],[12.403,55.7442]]]},"properties":{"sourceId":"ais_par3.135794","a_type":5120,"hectares":0.368}},{"type":"Feature","id":"ais_par3.135795","geometry":{"type":"Polygon","coordinates":[[[12.4039,55.7523],[12.4042,55.7523],[12.4045,55.7524],[12.4048,55.7523],[12.405,55.7522],[12.4051,55.752],[12.405,55.7519],[12.4048,55.7518],[12.4045,55.7517],[12.4042,55.7518],[12.404,55.752],[12.4038,55.7521],[12.4039,55.7522],[12.4039,55.7523]]]},"properties":{"sourceId":"ais_par3.135795","a_type":5120,"hectares":0.385}},{"type":"Feature","id":"ais_par3.135797","geometry":{"type":"Polygon","coordinates":[[[12.4252,55.7524],[12.4251,55.7523],[12.4247,55.752],[12.4245,55.7519],[12.4245,55.7519],[12.4244,55.752],[12.4243,55.7522],[12.4242,55.7524],[12.4243,55.7526],[12.4244,55.7528],[12.4247,55.7529],[12.425,55.7529],[12.4252,55.7528],[12.4253,55.7527],[12.4252,55.7524]]]},"properties":{"sourceId":"ais_par3.135797","a_type":5120,"hectares":0.483}},{"type":"Feature","id":"ais_par3.135799","geometry":{"type":"Polygon","coordinates":[[[12.4128,55.7504],[12.4126,55.7505],[12.4125,55.7507],[12.4127,55.7508],[12.4129,55.7508],[12.4129,55.751],[12.4126,55.7509],[12.4124,55.7509],[12.4124,55.751],[12.4125,55.7512],[12.4127,55.7513],[12.413,55.7514],[12.4133,55.7513],[12.4134,55.7514],[12.4135,55.7515],[12.4136,55.7516],[12.4139,55.7515],[12.4143,55.7515],[12.4145,55.7514],[12.4147,55.7512],[12.4147,55.751],[12.4146,55.7507],[12.4144,55.7506],[12.4139,55.7505],[12.4136,55.7506],[12.4134,55.7506],[12.4131,55.7507],[12.413,55.7506],[12.4129,55.7505],[12.4128,55.7504]]]},"properties":{"sourceId":"ais_par3.135799","a_type":5120,"hectares":1.249}},{"type":"Feature","id":"ais_par3.136050","geometry":{"type":"Polygon","coordinates":[[[12.4053,55.755],[12.4053,55.7549],[12.4052,55.7548],[12.405,55.7547],[12.4049,55.7547],[12.4046,55.7546],[12.4043,55.7546],[12.4039,55.7545],[12.4033,55.7543],[12.403,55.7541],[12.4028,55.7542],[12.4028,55.754],[12.4026,55.7539],[12.4024,55.7539],[12.4024,55.7537],[12.4021,55.7538],[12.4018,55.754],[12.4017,55.7542],[12.4019,55.7542],[12.4019,55.7543],[12.4016,55.7543],[12.4014,55.7544],[12.4014,55.7546],[12.4018,55.7548],[12.4023,55.7548],[12.4028,55.7549],[12.403,55.755],[12.4032,55.755],[12.4038,55.755],[12.4038,55.755],[12.4038,55.7551],[12.4042,55.7551],[12.4047,55.7553],[12.405,55.7553],[12.4052,55.7552],[12.4053,55.7552],[12.4053,55.755]]]},"properties":{"sourceId":"ais_par3.136050","a_type":5120,"hectares":1.84}},{"type":"Feature","id":"ais_par3.137013","geometry":{"type":"Polygon","coordinates":[[[12.4035,55.7313],[12.4038,55.7313],[12.4041,55.7312],[12.4042,55.7312],[12.4044,55.7311],[12.4043,55.731],[12.4042,55.7309],[12.404,55.7309],[12.4039,55.7309],[12.4038,55.731],[12.4036,55.7312],[12.4035,55.7312],[12.4032,55.7314],[12.4035,55.7313]]]},"properties":{"sourceId":"ais_par3.137013","a_type":4120,"hectares":0.156}},{"type":"Feature","id":"ais_par3.137037","geometry":{"type":"Polygon","coordinates":[[[12.4014,55.733],[12.4015,55.733],[12.4016,55.7329],[12.4017,55.7328],[12.4015,55.7328],[12.4012,55.7328],[12.401,55.7328],[12.4009,55.7329],[12.4007,55.7329],[12.4005,55.7329],[12.4006,55.7328],[12.4007,55.7327],[12.4008,55.7326],[12.4009,55.7325],[12.401,55.7323],[12.4012,55.7322],[12.4014,55.7322],[12.4016,55.7322],[12.4018,55.7322],[12.402,55.7321],[12.4022,55.7321],[12.4024,55.732],[12.4025,55.732],[12.4027,55.732],[12.4028,55.7319],[12.4028,55.7318],[12.4027,55.7317],[12.4026,55.7317],[12.4028,55.7316],[12.4029,55.7315],[12.4031,55.7315],[12.403,55.7315],[12.4027,55.7315],[12.4025,55.7314],[12.4023,55.7315],[12.4021,55.7316],[12.402,55.7316],[12.402,55.7317],[12.4022,55.7318],[12.4024,55.7318],[12.4024,55.7319],[12.4022,55.732],[12.402,55.732],[12.4017,55.7321],[12.4014,55.7321],[12.4012,55.7321],[12.401,55.7322],[12.4008,55.7323],[12.4006,55.7325],[12.4004,55.7326],[12.4001,55.7331],[12.4,55.7332],[12.4,55.7334],[12.4,55.7336],[12.4002,55.7334],[12.4004,55.7333],[12.4007,55.7332],[12.4009,55.7332],[12.401,55.7331],[12.4012,55.7331],[12.4014,55.733]]]},"properties":{"sourceId":"ais_par3.137037","a_type":4120,"hectares":0.821}},{"type":"Feature","id":"ais_par3.137042","geometry":{"type":"Polygon","coordinates":[[[12.4095,55.7345],[12.4094,55.7342],[12.4092,55.7337],[12.4091,55.7334],[12.409,55.7336],[12.4089,55.7337],[12.4083,55.7339],[12.4079,55.734],[12.4076,55.7341],[12.4072,55.7342],[12.4069,55.7344],[12.4066,55.7344],[12.4064,55.7345],[12.4062,55.7345],[12.4059,55.7344],[12.4057,55.7344],[12.4056,55.7344],[12.4055,55.7345],[12.4054,55.7345],[12.4053,55.7344],[12.405,55.7343],[12.4043,55.7343],[12.4041,55.7343],[12.4031,55.7344],[12.4029,55.7344],[12.4028,55.7344],[12.4026,55.7343],[12.4025,55.7344],[12.4025,55.7345],[12.4023,55.7345],[12.402,55.7345],[12.4018,55.7344],[12.4015,55.7343],[12.4012,55.7342],[12.4009,55.7342],[12.4012,55.7343],[12.4016,55.7344],[12.4018,55.7345],[12.4021,55.7346],[12.4025,55.7346],[12.4038,55.7347],[12.4047,55.7347],[12.4051,55.7347],[12.4056,55.7347],[12.4059,55.7347],[12.4065,55.7348],[12.4068,55.7348],[12.4071,55.7347],[12.4079,55.7346],[12.4082,55.7346],[12.4086,55.7345],[12.409,55.7345],[12.4093,55.7345],[12.4095,55.7345]]]},"properties":{"sourceId":"ais_par3.137042","a_type":4120,"hectares":2.207}},{"type":"Feature","id":"ais_par3.137090","geometry":{"type":"Polygon","coordinates":[[[12.3951,55.7596],[12.3953,55.7595],[12.3954,55.7595],[12.3954,55.7594],[12.3956,55.7593],[12.3957,55.7592],[12.3959,55.759],[12.3962,55.7588],[12.3964,55.7587],[12.3966,55.7586],[12.3969,55.7584],[12.3965,55.7584],[12.3959,55.7583],[12.3956,55.7588],[12.3955,55.759],[12.3953,55.759],[12.3951,55.7591],[12.3948,55.7591],[12.3948,55.7593],[12.395,55.7595],[12.3949,55.7594],[12.395,55.7592],[12.3952,55.7592],[12.3955,55.7591],[12.3955,55.7592],[12.3953,55.7594],[12.3951,55.7596]],[[12.3962,55.7586],[12.3962,55.7585],[12.3963,55.7584],[12.3964,55.7584],[12.3966,55.7585],[12.3965,55.7586],[12.3963,55.7587],[12.3962,55.7586],[12.3962,55.7586]]]},"properties":{"sourceId":"ais_par3.137090","a_type":4120,"hectares":0.419}},{"type":"Feature","id":"ais_par3.137080","geometry":{"type":"Polygon","coordinates":[[[12.4196,55.751],[12.4194,55.7509],[12.4191,55.7509],[12.4189,55.751],[12.4191,55.751],[12.4194,55.751],[12.4196,55.751]]]},"properties":{"sourceId":"ais_par3.137080","a_type":4120,"hectares":0.027}},{"type":"Feature","id":"ais_par3.137082","geometry":{"type":"Polygon","coordinates":[[[12.4085,55.751],[12.4087,55.7509],[12.4085,55.7508],[12.4082,55.7508],[12.4079,55.7509],[12.4082,55.751],[12.4084,55.7511],[12.4085,55.751]]]},"properties":{"sourceId":"ais_par3.137082","a_type":4120,"hectares":0.071}},{"type":"Feature","id":"ais_par3.137083","geometry":{"type":"Polygon","coordinates":[[[12.4122,55.7508],[12.4124,55.751],[12.4124,55.7509],[12.4126,55.7509],[12.4129,55.751],[12.4129,55.7508],[12.4127,55.7508],[12.4125,55.7507],[12.4122,55.7508]]]},"properties":{"sourceId":"ais_par3.137083","a_type":4120,"hectares":0.093}},{"type":"Feature","id":"ais_par3.137084","geometry":{"type":"Polygon","coordinates":[[[12.4188,55.7514],[12.4189,55.7514],[12.4192,55.7515],[12.4194,55.7515],[12.4195,55.7514],[12.4196,55.7513],[12.4194,55.7513],[12.4191,55.7513],[12.4189,55.7513],[12.4187,55.7512],[12.4188,55.7514]]]},"properties":{"sourceId":"ais_par3.137084","a_type":4120,"hectares":0.097}},{"type":"Feature","id":"ais_par3.137085","geometry":{"type":"Polygon","coordinates":[[[12.4027,55.7538],[12.4027,55.7536],[12.4027,55.7534],[12.4024,55.7534],[12.4022,55.7536],[12.4021,55.7538],[12.4024,55.7537],[12.4024,55.7539],[12.4026,55.7539],[12.4028,55.754],[12.4027,55.7538]]]},"properties":{"sourceId":"ais_par3.137085","a_type":4120,"hectares":0.16}},{"type":"Feature","id":"ais_par3.137086","geometry":{"type":"Polygon","coordinates":[[[12.4018,55.7483],[12.4019,55.7485],[12.402,55.7486],[12.4021,55.7487],[12.4022,55.7487],[12.4024,55.7487],[12.4025,55.7485],[12.4025,55.7483],[12.4024,55.7482],[12.4024,55.7482],[12.4022,55.7482],[12.402,55.7482],[12.4018,55.7483]]]},"properties":{"sourceId":"ais_par3.137086","a_type":4120,"hectares":0.19}},{"type":"Feature","id":"ais_par3.137088","geometry":{"type":"Polygon","coordinates":[[[12.415,55.7447],[12.4148,55.7449],[12.4148,55.7451],[12.4148,55.7452],[12.415,55.7453],[12.4153,55.7453],[12.4156,55.7453],[12.4157,55.7451],[12.4157,55.7449],[12.4156,55.7448],[12.4155,55.7448],[12.4151,55.7447],[12.415,55.7447]],[[12.415,55.745],[12.4151,55.745],[12.4151,55.7449],[12.4153,55.7449],[12.4154,55.7449],[12.4155,55.745],[12.4155,55.7451],[12.4154,55.7452],[12.4152,55.7452],[12.415,55.7451],[12.415,55.745]]]},"properties":{"sourceId":"ais_par3.137088","a_type":4120,"hectares":0.23}},{"type":"Feature","id":"ais_par3.137089","geometry":{"type":"Polygon","coordinates":[[[12.4072,55.7514],[12.4069,55.7515],[12.4067,55.7515],[12.4068,55.7517],[12.4072,55.7517],[12.4075,55.7518],[12.4077,55.7519],[12.4079,55.7519],[12.4079,55.7518],[12.4079,55.7517],[12.4081,55.7516],[12.4083,55.7516],[12.4083,55.7514],[12.4078,55.7515],[12.4075,55.7515],[12.4073,55.7516],[12.4073,55.7515],[12.4072,55.7514]],[[12.4072,55.7516],[12.4074,55.7516],[12.4075,55.7516],[12.4077,55.7516],[12.4077,55.7517],[12.4075,55.7517],[12.4072,55.7516]]]},"properties":{"sourceId":"ais_par3.137089","a_type":4120,"hectares":0.259}},{"type":"Feature","id":"ais_par3.137091","geometry":{"type":"Polygon","coordinates":[[[12.3966,55.7582],[12.3968,55.7582],[12.397,55.7584],[12.3974,55.7582],[12.3977,55.758],[12.3982,55.7579],[12.3985,55.7577],[12.3988,55.7577],[12.399,55.7576],[12.3991,55.7575],[12.3987,55.7574],[12.3983,55.7573],[12.3977,55.7572],[12.3977,55.7573],[12.3977,55.7574],[12.3976,55.7575],[12.3974,55.7575],[12.3973,55.7574],[12.3973,55.7573],[12.3973,55.7573],[12.3975,55.7572],[12.3971,55.7572],[12.397,55.7573],[12.3968,55.7575],[12.3967,55.7576],[12.3966,55.7577],[12.3966,55.7579],[12.3966,55.7581],[12.3966,55.7581],[12.3966,55.7582]],[[12.3974,55.7576],[12.3974,55.7576],[12.3976,55.7576],[12.3976,55.7577],[12.3976,55.7577],[12.3975,55.7578],[12.3973,55.7579],[12.3972,55.758],[12.3972,55.7581],[12.397,55.758],[12.397,55.7579],[12.3971,55.7579],[12.3972,55.7578],[12.3974,55.7577],[12.3974,55.7576]]]},"properties":{"sourceId":"ais_par3.137091","a_type":4120,"hectares":0.988}},{"type":"Feature","id":"ais_par3.137092","geometry":{"type":"Polygon","coordinates":[[[12.4222,55.753],[12.4223,55.753],[12.4225,55.753],[12.4228,55.753],[12.4228,55.753],[12.4234,55.753],[12.4234,55.7529],[12.4241,55.7528],[12.4242,55.753],[12.4245,55.753],[12.4249,55.753],[12.425,55.7529],[12.4247,55.7529],[12.4244,55.7528],[12.4243,55.7526],[12.4242,55.7524],[12.4243,55.7522],[12.4244,55.752],[12.4245,55.7519],[12.4245,55.7519],[12.4247,55.752],[12.4251,55.7523],[12.4252,55.7524],[12.4253,55.7527],[12.4253,55.7524],[12.425,55.7518],[12.425,55.7517],[12.4249,55.7516],[12.4246,55.7517],[12.4244,55.7518],[12.4241,55.7518],[12.4239,55.752],[12.4237,55.7521],[12.4232,55.7523],[12.4228,55.7523],[12.4223,55.7524],[12.4221,55.7526],[12.422,55.7527],[12.422,55.753],[12.4222,55.753]]]},"properties":{"sourceId":"ais_par3.137092","a_type":4120,"hectares":1.447}},{"type":"Feature","id":"ais_par3.135735","geometry":{"type":"Polygon","coordinates":[[[12.4296,55.7516],[12.4296,55.7517],[12.4298,55.7517],[12.43,55.7516],[12.43,55.7516],[12.4299,55.7515],[12.4297,55.7515],[12.4296,55.7516]]]},"properties":{"sourceId":"ais_par3.135735","a_type":5120,"hectares":0.029}},{"type":"Feature","id":"ais_par3.134912","geometry":{"type":"Polygon","coordinates":[[[12.4534,55.7123],[12.4541,55.7127],[12.4547,55.7131],[12.4556,55.7134],[12.4572,55.7133],[12.4584,55.7131],[12.4594,55.7126],[12.46,55.7123],[12.4602,55.712],[12.4604,55.7117],[12.4598,55.7113],[12.4587,55.7105],[12.4579,55.7104],[12.456,55.7103],[12.4542,55.7101],[12.4539,55.7101],[12.4536,55.7105],[12.4534,55.7111],[12.4533,55.7118],[12.4534,55.7123]]]},"properties":{"sourceId":"ais_par3.134912","a_type":4120,"hectares":12.198}},{"type":"Feature","id":"ais_par3.135291","geometry":{"type":"Polygon","coordinates":[[[12.4451,55.7496],[12.4451,55.7496],[12.4452,55.7496],[12.4453,55.7497],[12.4454,55.7497],[12.4455,55.7495],[12.4455,55.7494],[12.4454,55.7493],[12.4453,55.7493],[12.4451,55.7494],[12.4451,55.7495],[12.4451,55.7496]]]},"properties":{"sourceId":"ais_par3.135291","a_type":5120,"hectares":0.087}},{"type":"Feature","id":"ais_par3.135544","geometry":{"type":"Polygon","coordinates":[[[12.4237,55.7103],[12.4239,55.7101],[12.4241,55.7097],[12.4242,55.7093],[12.4242,55.7091],[12.4242,55.709],[12.4239,55.7089],[12.4235,55.7089],[12.4231,55.7089],[12.4227,55.709],[12.4225,55.7091],[12.4224,55.7092],[12.4223,55.7094],[12.4224,55.7098],[12.4225,55.7099],[12.4228,55.71],[12.4232,55.7101],[12.4237,55.7103],[12.4237,55.7103]]]},"properties":{"sourceId":"ais_par3.135544","a_type":5120,"hectares":1.391}},{"type":"Feature","id":"ais_par3.135646","geometry":{"type":"Polygon","coordinates":[[[12.4426,55.7517],[12.4429,55.7518],[12.443,55.7517],[12.443,55.7516],[12.4428,55.7516],[12.4428,55.7516],[12.4426,55.7517]]]},"properties":{"sourceId":"ais_par3.135646","a_type":5120,"hectares":0.035}},{"type":"Feature","id":"ais_par3.135647","geometry":{"type":"Polygon","coordinates":[[[12.4411,55.7525],[12.4414,55.7525],[12.4414,55.7524],[12.4415,55.7524],[12.4415,55.7523],[12.4413,55.7523],[12.4411,55.7523],[12.4411,55.7524],[12.4411,55.7525]]]},"properties":{"sourceId":"ais_par3.135647","a_type":5120,"hectares":0.035}},{"type":"Feature","id":"ais_par3.135648","geometry":{"type":"Polygon","coordinates":[[[12.432,55.7552],[12.432,55.7552],[12.4322,55.7552],[12.4323,55.7552],[12.4324,55.7551],[12.4323,55.7551],[12.4321,55.755],[12.432,55.7552]]]},"properties":{"sourceId":"ais_par3.135648","a_type":5120,"hectares":0.036}},{"type":"Feature","id":"ais_par3.135649","geometry":{"type":"Polygon","coordinates":[[[12.4435,55.7526],[12.4434,55.7527],[12.4435,55.7528],[12.4437,55.7528],[12.4439,55.7528],[12.444,55.7528],[12.4439,55.7527],[12.4438,55.7527],[12.4437,55.7527],[12.4436,55.7526],[12.4435,55.7526],[12.4435,55.7526]]]},"properties":{"sourceId":"ais_par3.135649","a_type":5120,"hectares":0.037}},{"type":"Feature","id":"ais_par3.135651","geometry":{"type":"Polygon","coordinates":[[[12.4529,55.7433],[12.4527,55.7434],[12.4526,55.7435],[12.4526,55.7435],[12.4526,55.7436],[12.4527,55.7436],[12.4529,55.7436],[12.453,55.7436],[12.4529,55.7435],[12.4529,55.7435],[12.4529,55.7434],[12.4529,55.7433],[12.4529,55.7433]]]},"properties":{"sourceId":"ais_par3.135651","a_type":5120,"hectares":0.046}},{"type":"Feature","id":"ais_par3.135652","geometry":{"type":"Polygon","coordinates":[[[12.4413,55.7543],[12.4412,55.7542],[12.441,55.7542],[12.441,55.7541],[12.4409,55.7541],[12.4408,55.7541],[12.4408,55.7541],[12.4409,55.7542],[12.441,55.7543],[12.4411,55.7543],[12.4412,55.7544],[12.4413,55.7544],[12.4413,55.7543],[12.4413,55.7543]]]},"properties":{"sourceId":"ais_par3.135652","a_type":5120,"hectares":0.047}},{"type":"Feature","id":"ais_par3.135654","geometry":{"type":"Polygon","coordinates":[[[12.4423,55.753],[12.4424,55.7531],[12.4426,55.7531],[12.4427,55.7531],[12.4429,55.753],[12.4429,55.7529],[12.4428,55.7529],[12.4426,55.753],[12.4425,55.7529],[12.4424,55.753],[12.4423,55.753]]]},"properties":{"sourceId":"ais_par3.135654","a_type":5120,"hectares":0.05}},{"type":"Feature","id":"ais_par3.135656","geometry":{"type":"Polygon","coordinates":[[[12.4381,55.7561],[12.438,55.7562],[12.438,55.7563],[12.438,55.7564],[12.4381,55.7565],[12.4382,55.7564],[12.4383,55.7563],[12.4383,55.7562],[12.4382,55.7562],[12.4381,55.7561]]]},"properties":{"sourceId":"ais_par3.135656","a_type":5120,"hectares":0.054}},{"type":"Feature","id":"ais_par3.135658","geometry":{"type":"Polygon","coordinates":[[[12.4425,55.7524],[12.4423,55.7525],[12.4425,55.7526],[12.4427,55.7527],[12.443,55.7527],[12.4429,55.7526],[12.4428,55.7526],[12.4427,55.7525],[12.4426,55.7525],[12.4425,55.7524]]]},"properties":{"sourceId":"ais_par3.135658","a_type":5120,"hectares":0.056}},{"type":"Feature","id":"ais_par3.135633","geometry":{"type":"Polygon","coordinates":[[[12.4441,55.7529],[12.4441,55.753],[12.4443,55.753],[12.4443,55.7529],[12.4441,55.7529]]]},"properties":{"sourceId":"ais_par3.135633","a_type":5120,"hectares":0.013}},{"type":"Feature","id":"ais_par3.135635","geometry":{"type":"Polygon","coordinates":[[[12.4313,55.7554],[12.4314,55.7553],[12.4313,55.7552],[12.4311,55.7552],[12.4312,55.7553],[12.4313,55.7554]]]},"properties":{"sourceId":"ais_par3.135635","a_type":5120,"hectares":0.016}},{"type":"Feature","id":"ais_par3.135636","geometry":{"type":"Polygon","coordinates":[[[12.4436,55.7529],[12.4439,55.753],[12.444,55.7529],[12.4438,55.7529],[12.4436,55.7529],[12.4436,55.7529]]]},"properties":{"sourceId":"ais_par3.135636","a_type":5120,"hectares":0.015}},{"type":"Feature","id":"ais_par3.135637","geometry":{"type":"Polygon","coordinates":[[[12.4429,55.7539],[12.4431,55.7539],[12.4433,55.7539],[12.4434,55.7539],[12.4432,55.7539],[12.4432,55.7538],[12.4431,55.7538],[12.443,55.7538],[12.4429,55.7539]]]},"properties":{"sourceId":"ais_par3.135637","a_type":5120,"hectares":0.016}},{"type":"Feature","id":"ais_par3.135638","geometry":{"type":"Polygon","coordinates":[[[12.4291,55.7527],[12.4291,55.7529],[12.4292,55.7529],[12.4292,55.7528],[12.4292,55.7528],[12.4291,55.7527]]]},"properties":{"sourceId":"ais_par3.135638","a_type":5120,"hectares":0.017}},{"type":"Feature","id":"ais_par3.135639","geometry":{"type":"Polygon","coordinates":[[[12.4455,55.752],[12.4453,55.752],[12.4454,55.7521],[12.4456,55.7521],[12.4457,55.7521],[12.4456,55.752],[12.4455,55.752],[12.4455,55.752]]]},"properties":{"sourceId":"ais_par3.135639","a_type":5120,"hectares":0.021}},{"type":"Feature","id":"ais_par3.135640","geometry":{"type":"Polygon","coordinates":[[[12.4413,55.7528],[12.4413,55.7528],[12.4414,55.7526],[12.4412,55.7526],[12.4412,55.7527],[12.4412,55.7528],[12.4413,55.7528]]]},"properties":{"sourceId":"ais_par3.135640","a_type":5120,"hectares":0.023}},{"type":"Feature","id":"ais_par3.135641","geometry":{"type":"Polygon","coordinates":[[[12.4436,55.7536],[12.4438,55.7536],[12.4439,55.7537],[12.444,55.7537],[12.4442,55.7537],[12.4441,55.7536],[12.444,55.7536],[12.4438,55.7536],[12.4436,55.7536],[12.4436,55.7536]]]},"properties":{"sourceId":"ais_par3.135641","a_type":5120,"hectares":0.024}},{"type":"Feature","id":"ais_par3.135642","geometry":{"type":"Polygon","coordinates":[[[12.4419,55.7558],[12.442,55.7559],[12.4421,55.7558],[12.4421,55.7558],[12.4421,55.7557],[12.442,55.7556],[12.4419,55.7557],[12.4419,55.7557],[12.442,55.7558],[12.4419,55.7558]]]},"properties":{"sourceId":"ais_par3.135642","a_type":5120,"hectares":0.025}},{"type":"Feature","id":"ais_par3.135643","geometry":{"type":"Polygon","coordinates":[[[12.4439,55.754],[12.4441,55.754],[12.4442,55.754],[12.4444,55.754],[12.4444,55.754],[12.4443,55.7539],[12.4442,55.7539],[12.4441,55.7539],[12.4441,55.7539],[12.4439,55.7539],[12.4439,55.754]]]},"properties":{"sourceId":"ais_par3.135643","a_type":5120,"hectares":0.029}},{"type":"Feature","id":"ais_par3.135644","geometry":{"type":"Polygon","coordinates":[[[12.4449,55.7503],[12.4451,55.7502],[12.4453,55.7501],[12.4452,55.7501],[12.4449,55.7502],[12.4449,55.7502],[12.4449,55.7503]]]},"properties":{"sourceId":"ais_par3.135644","a_type":5120,"hectares":0.031}},{"type":"Feature","id":"ais_par3.135660","geometry":{"type":"Polygon","coordinates":[[[12.4303,55.7546],[12.4302,55.7544],[12.4301,55.7543],[12.4299,55.7543],[12.4299,55.7544],[12.4299,55.7545],[12.43,55.7547],[12.4302,55.7547],[12.4302,55.7547],[12.4302,55.7546],[12.43,55.7545],[12.4301,55.7544],[12.4302,55.7545],[12.4303,55.7545],[12.4303,55.7546]]]},"properties":{"sourceId":"ais_par3.135660","a_type":5120,"hectares":0.064}},{"type":"Feature","id":"ais_par3.135664","geometry":{"type":"Polygon","coordinates":[[[12.4352,55.7535],[12.4352,55.7536],[12.4352,55.7537],[12.4355,55.7537],[12.4357,55.7537],[12.4357,55.7537],[12.4358,55.7536],[12.4357,55.7535],[12.4355,55.7535],[12.4353,55.7535],[12.4352,55.7535]]]},"properties":{"sourceId":"ais_par3.135664","a_type":5120,"hectares":0.082}},{"type":"Feature","id":"ais_par3.135666","geometry":{"type":"Polygon","coordinates":[[[12.4317,55.7538],[12.4316,55.7539],[12.4318,55.754],[12.432,55.7541],[12.4322,55.7541],[12.4322,55.754],[12.4324,55.7539],[12.4321,55.7539],[12.4318,55.7537],[12.4317,55.7538]]]},"properties":{"sourceId":"ais_par3.135666","a_type":5120,"hectares":0.093}},{"type":"Feature","id":"ais_par3.135670","geometry":{"type":"Polygon","coordinates":[[[12.4282,55.7581],[12.4283,55.7583],[12.4287,55.7585],[12.4289,55.7585],[12.4289,55.7584],[12.4287,55.7582],[12.4286,55.7581],[12.4284,55.7581],[12.4282,55.7581],[12.4282,55.7581]]]},"properties":{"sourceId":"ais_par3.135670","a_type":5120,"hectares":0.105}},{"type":"Feature","id":"ais_par3.135671","geometry":{"type":"Polygon","coordinates":[[[12.4407,55.7562],[12.4408,55.7564],[12.4408,55.7565],[12.4409,55.7565],[12.441,55.7566],[12.4411,55.7564],[12.4411,55.7563],[12.4412,55.7562],[12.441,55.7561],[12.4409,55.7561],[12.4407,55.7561],[12.4407,55.7561],[12.4407,55.7562]]]},"properties":{"sourceId":"ais_par3.135671","a_type":5120,"hectares":0.106}},{"type":"Feature","id":"ais_par3.135675","geometry":{"type":"Polygon","coordinates":[[[12.4427,55.7519],[12.4428,55.752],[12.4429,55.7521],[12.4428,55.7522],[12.4429,55.7523],[12.443,55.7522],[12.4432,55.7522],[12.4434,55.7523],[12.4435,55.7522],[12.4435,55.7521],[12.4433,55.7521],[12.4432,55.7521],[12.4432,55.752],[12.4431,55.752],[12.443,55.7519],[12.4428,55.7519],[12.4427,55.7519]]]},"properties":{"sourceId":"ais_par3.135675","a_type":5120,"hectares":0.118}},{"type":"Feature","id":"ais_par3.135676","geometry":{"type":"Polygon","coordinates":[[[12.4419,55.7586],[12.442,55.7586],[12.442,55.7586],[12.442,55.7585],[12.4419,55.7584],[12.4417,55.7584],[12.4416,55.7584],[12.4415,55.7585],[12.4415,55.7586],[12.4415,55.7586],[12.4414,55.7587],[12.4414,55.7587],[12.4413,55.7588],[12.4414,55.7589],[12.4416,55.7589],[12.4418,55.7589],[12.4418,55.7588],[12.4417,55.7587],[12.4418,55.7586],[12.4419,55.7586]]]},"properties":{"sourceId":"ais_par3.135676","a_type":5120,"hectares":0.131}},{"type":"Feature","id":"ais_par3.135679","geometry":{"type":"Polygon","coordinates":[[[12.4345,55.7531],[12.4345,55.7529],[12.4345,55.7528],[12.4344,55.7527],[12.4342,55.7526],[12.4341,55.7528],[12.4339,55.7528],[12.4339,55.7529],[12.4339,55.753],[12.4341,55.7531],[12.4343,55.7531],[12.4344,55.7531],[12.4345,55.7531]]]},"properties":{"sourceId":"ais_par3.135679","a_type":5120,"hectares":0.154}},{"type":"Feature","id":"ais_par3.135684","geometry":{"type":"Polygon","coordinates":[[[12.4602,55.7504],[12.4604,55.7504],[12.4605,55.7504],[12.4607,55.7503],[12.4608,55.7502],[12.4608,55.7501],[12.4609,55.7499],[12.4609,55.7498],[12.4609,55.7497],[12.4608,55.7496],[12.4607,55.7496],[12.4605,55.7496],[12.4605,55.7497],[12.4604,55.7499],[12.4603,55.75],[12.4603,55.7501],[12.4602,55.7502],[12.4601,55.7503],[12.4601,55.7503],[12.4602,55.7504],[12.4602,55.7504]]]},"properties":{"sourceId":"ais_par3.135684","a_type":5120,"hectares":0.242}},{"type":"Feature","id":"ais_par3.135688","geometry":{"type":"Polygon","coordinates":[[[12.4414,55.7549],[12.4416,55.7551],[12.4417,55.7553],[12.442,55.7552],[12.4423,55.7552],[12.4422,55.7549],[12.4422,55.7547],[12.4424,55.7546],[12.4422,55.7545],[12.4419,55.7545],[12.4418,55.7546],[12.4417,55.7547],[12.4418,55.7548],[12.4417,55.7549],[12.4415,55.7549],[12.4414,55.7549]]]},"properties":{"sourceId":"ais_par3.135688","a_type":5120,"hectares":0.298}},{"type":"Feature","id":"ais_par3.135690","geometry":{"type":"Polygon","coordinates":[[[12.4323,55.7536],[12.4326,55.7536],[12.4326,55.7533],[12.4325,55.7531],[12.4323,55.7531],[12.4321,55.7531],[12.4319,55.7532],[12.4316,55.7534],[12.4315,55.7535],[12.4316,55.7536],[12.4319,55.7537],[12.4321,55.7537],[12.4323,55.7536]]]},"properties":{"sourceId":"ais_par3.135690","a_type":5120,"hectares":0.332}},{"type":"Feature","id":"ais_par3.135693","geometry":{"type":"Polygon","coordinates":[[[12.4327,55.7567],[12.4326,55.7569],[12.4325,55.757],[12.4328,55.7571],[12.4331,55.7575],[12.4333,55.7577],[12.4335,55.7576],[12.4336,55.7575],[12.4334,55.7573],[12.4333,55.7571],[12.4333,55.7569],[12.4333,55.7568],[12.4331,55.7567],[12.4329,55.7567],[12.4327,55.7566],[12.4327,55.7567]]]},"properties":{"sourceId":"ais_par3.135693","a_type":5120,"hectares":0.36}},{"type":"Feature","id":"ais_par3.135724","geometry":{"type":"Polygon","coordinates":[[[12.4415,55.7496],[12.4415,55.7497],[12.4415,55.7497],[12.4416,55.7497],[12.4417,55.7496],[12.4416,55.7496],[12.4415,55.7496]]]},"properties":{"sourceId":"ais_par3.135724","a_type":5120,"hectares":0.014}},{"type":"Feature","id":"ais_par3.135727","geometry":{"type":"Polygon","coordinates":[[[12.4307,55.752],[12.4307,55.7521],[12.4309,55.752],[12.431,55.752],[12.4309,55.7519],[12.4308,55.752],[12.4307,55.752]]]},"properties":{"sourceId":"ais_par3.135727","a_type":5120,"hectares":0.021}},{"type":"Feature","id":"ais_par3.135728","geometry":{"type":"Polygon","coordinates":[[[12.4444,55.7493],[12.4445,55.7493],[12.4446,55.7492],[12.4445,55.7491],[12.4444,55.7491],[12.4443,55.7491],[12.4443,55.7492],[12.4443,55.7492],[12.4444,55.7493]]]},"properties":{"sourceId":"ais_par3.135728","a_type":5120,"hectares":0.022}},{"type":"Feature","id":"ais_par3.135730","geometry":{"type":"Polygon","coordinates":[[[12.4346,55.7518],[12.4347,55.7519],[12.4348,55.7519],[12.4349,55.7518],[12.4349,55.7518],[12.4348,55.7517],[12.4347,55.7517],[12.4346,55.7518],[12.4346,55.7518]]]},"properties":{"sourceId":"ais_par3.135730","a_type":5120,"hectares":0.024}},{"type":"Feature","id":"ais_par3.135731","geometry":{"type":"Polygon","coordinates":[[[12.4419,55.7489],[12.4418,55.7488],[12.4416,55.7489],[12.4415,55.7489],[12.4414,55.749],[12.4415,55.749],[12.4416,55.749],[12.4418,55.7489],[12.4419,55.7489]]]},"properties":{"sourceId":"ais_par3.135731","a_type":5120,"hectares":0.025}},{"type":"Feature","id":"ais_par3.135733","geometry":{"type":"Polygon","coordinates":[[[12.4388,55.7185],[12.4389,55.7185],[12.439,55.7185],[12.439,55.7185],[12.4391,55.7184],[12.439,55.7184],[12.4389,55.7183],[12.4389,55.7183],[12.4388,55.7183],[12.4388,55.7184],[12.4388,55.7185],[12.4388,55.7185],[12.4388,55.7185]]]},"properties":{"sourceId":"ais_par3.135733","a_type":5120,"hectares":0.028}},{"type":"Feature","id":"ais_par3.135736","geometry":{"type":"Polygon","coordinates":[[[12.4427,55.7174],[12.4429,55.7174],[12.443,55.7174],[12.4431,55.7174],[12.4431,55.7174],[12.4431,55.7173],[12.443,55.7173],[12.4429,55.7173],[12.4428,55.7173],[12.4427,55.7173],[12.4427,55.7174],[12.4427,55.7174],[12.4427,55.7174]]]},"properties":{"sourceId":"ais_par3.135736","a_type":5120,"hectares":0.03}},{"type":"Feature","id":"ais_par3.135737","geometry":{"type":"Polygon","coordinates":[[[12.4374,55.7461],[12.4374,55.7462],[12.4376,55.7462],[12.4377,55.7461],[12.4378,55.746],[12.4376,55.746],[12.4374,55.7461],[12.4374,55.7461]]]},"properties":{"sourceId":"ais_par3.135737","a_type":5120,"hectares":0.03}},{"type":"Feature","id":"ais_par3.135738","geometry":{"type":"Polygon","coordinates":[[[12.4305,55.7489],[12.4306,55.749],[12.4308,55.7489],[12.4307,55.7488],[12.4306,55.7488],[12.4304,55.7488],[12.4304,55.7489],[12.4305,55.7489]]]},"properties":{"sourceId":"ais_par3.135738","a_type":5120,"hectares":0.031}},{"type":"Feature","id":"ais_par3.135739","geometry":{"type":"Polygon","coordinates":[[[12.4311,55.7513],[12.431,55.7513],[12.4311,55.7514],[12.4313,55.7515],[12.4314,55.7515],[12.4314,55.7514],[12.4313,55.7513],[12.4311,55.7513]]]},"properties":{"sourceId":"ais_par3.135739","a_type":5120,"hectares":0.032}},{"type":"Feature","id":"ais_par3.135740","geometry":{"type":"Polygon","coordinates":[[[12.4305,55.7515],[12.4307,55.7515],[12.4308,55.7515],[12.4307,55.7515],[12.4306,55.7514],[12.4306,55.7513],[12.4305,55.7513],[12.4304,55.7514],[12.4303,55.7515],[12.4303,55.7516],[12.4304,55.7516],[12.4305,55.7515],[12.4305,55.7515]]]},"properties":{"sourceId":"ais_par3.135740","a_type":5120,"hectares":0.036}},{"type":"Feature","id":"ais_par3.135741","geometry":{"type":"Polygon","coordinates":[[[12.4427,55.7495],[12.4429,55.7495],[12.4431,55.7494],[12.443,55.7493],[12.4428,55.7494],[12.4426,55.7494],[12.4424,55.7494],[12.4423,55.7495],[12.4425,55.7495],[12.4426,55.7495],[12.4427,55.7495]]]},"properties":{"sourceId":"ais_par3.135741","a_type":5120,"hectares":0.037}},{"type":"Feature","id":"ais_par3.135742","geometry":{"type":"Polygon","coordinates":[[[12.4387,55.7185],[12.4386,55.7185],[12.4385,55.7185],[12.4385,55.7186],[12.4386,55.7186],[12.4387,55.7187],[12.4388,55.7187],[12.4389,55.7187],[12.4389,55.7186],[12.4389,55.7186],[12.4388,55.7186],[12.4388,55.7185],[12.4387,55.7185],[12.4387,55.7185]]]},"properties":{"sourceId":"ais_par3.135742","a_type":5120,"hectares":0.037}},{"type":"Feature","id":"ais_par3.135743","geometry":{"type":"Polygon","coordinates":[[[12.4405,55.7487],[12.4405,55.7488],[12.4407,55.7488],[12.4408,55.7488],[12.4409,55.7488],[12.441,55.7488],[12.4409,55.7486],[12.4407,55.7487],[12.4405,55.7487]]]},"properties":{"sourceId":"ais_par3.135743","a_type":5120,"hectares":0.043}},{"type":"Feature","id":"ais_par3.135747","geometry":{"type":"Polygon","coordinates":[[[12.4534,55.718],[12.4535,55.718],[12.4536,55.7179],[12.4536,55.7179],[12.4536,55.7179],[12.4535,55.7178],[12.4534,55.7178],[12.4533,55.7178],[12.4532,55.7179],[12.4532,55.7179],[12.4532,55.718],[12.4533,55.718],[12.4534,55.718]]]},"properties":{"sourceId":"ais_par3.135747","a_type":5120,"hectares":0.052}},{"type":"Feature","id":"ais_par3.135748","geometry":{"type":"Polygon","coordinates":[[[12.4287,55.7488],[12.4287,55.7487],[12.4288,55.7486],[12.4287,55.7486],[12.4285,55.7486],[12.4284,55.7487],[12.4284,55.7487],[12.4284,55.7489],[12.4285,55.7489],[12.4286,55.7489],[12.4287,55.7488]]]},"properties":{"sourceId":"ais_par3.135748","a_type":5120,"hectares":0.057}},{"type":"Feature","id":"ais_par3.135750","geometry":{"type":"Polygon","coordinates":[[[12.4262,55.7229],[12.4264,55.7229],[12.4265,55.7229],[12.4266,55.7228],[12.4266,55.7228],[12.4266,55.7227],[12.4265,55.7227],[12.4265,55.7226],[12.4262,55.7226],[12.4262,55.7227],[12.4262,55.7228],[12.4262,55.7229],[12.4262,55.7229]]]},"properties":{"sourceId":"ais_par3.135750","a_type":5120,"hectares":0.064}},{"type":"Feature","id":"ais_par3.135753","geometry":{"type":"Polygon","coordinates":[[[12.4382,55.7466],[12.4381,55.7467],[12.4381,55.7468],[12.438,55.7469],[12.4381,55.747],[12.4383,55.747],[12.4384,55.7469],[12.4384,55.7467],[12.4384,55.7467],[12.4384,55.7466],[12.4383,55.7465],[12.4382,55.7466]]]},"properties":{"sourceId":"ais_par3.135753","a_type":5120,"hectares":0.08}},{"type":"Feature","id":"ais_par3.135756","geometry":{"type":"Polygon","coordinates":[[[12.4374,55.7515],[12.4377,55.7515],[12.4377,55.7513],[12.4376,55.7512],[12.4375,55.7512],[12.4373,55.7512],[12.4371,55.7512],[12.4371,55.7513],[12.4374,55.7514],[12.4374,55.7515]]]},"properties":{"sourceId":"ais_par3.135756","a_type":5120,"hectares":0.088}},{"type":"Feature","id":"ais_par3.135759","geometry":{"type":"Polygon","coordinates":[[[12.4428,55.7492],[12.4425,55.7491],[12.4424,55.7492],[12.4423,55.7492],[12.4421,55.7493],[12.4419,55.7493],[12.4419,55.7494],[12.442,55.7494],[12.4422,55.7494],[12.4423,55.7494],[12.4424,55.7494],[12.4425,55.7493],[12.4427,55.7493],[12.4428,55.7492]]]},"properties":{"sourceId":"ais_par3.135759","a_type":5120,"hectares":0.091}},{"type":"Feature","id":"ais_par3.135760","geometry":{"type":"Polygon","coordinates":[[[12.4326,55.7493],[12.4327,55.7494],[12.4329,55.7494],[12.433,55.7494],[12.4331,55.7493],[12.433,55.7492],[12.4329,55.7491],[12.4326,55.7491],[12.4326,55.7492],[12.4326,55.7493]]]},"properties":{"sourceId":"ais_par3.135760","a_type":5120,"hectares":0.091}},{"type":"Feature","id":"ais_par3.135763","geometry":{"type":"Polygon","coordinates":[[[12.4369,55.7249],[12.4368,55.7248],[12.4368,55.7247],[12.4367,55.7247],[12.4366,55.7247],[12.4365,55.7246],[12.4367,55.7246],[12.4367,55.7245],[12.4364,55.7245],[12.4364,55.7245],[12.4365,55.7246],[12.4364,55.7247],[12.4364,55.7247],[12.4364,55.7248],[12.4363,55.7249],[12.4366,55.7249],[12.4368,55.7249],[12.4369,55.7249]]]},"properties":{"sourceId":"ais_par3.135763","a_type":5120,"hectares":0.108}},{"type":"Feature","id":"ais_par3.135764","geometry":{"type":"Polygon","coordinates":[[[12.4306,55.7494],[12.4307,55.7493],[12.4307,55.7491],[12.4307,55.7491],[12.4306,55.749],[12.4304,55.749],[12.4303,55.7491],[12.4302,55.7492],[12.4302,55.7493],[12.4303,55.7494],[12.4306,55.7494]]]},"properties":{"sourceId":"ais_par3.135764","a_type":5120,"hectares":0.113}},{"type":"Feature","id":"ais_par3.135765","geometry":{"type":"Polygon","coordinates":[[[12.4303,55.7464],[12.4302,55.7465],[12.4303,55.7466],[12.4305,55.7467],[12.4307,55.7466],[12.4309,55.7465],[12.431,55.7464],[12.4309,55.7464],[12.4306,55.7464],[12.4304,55.7464],[12.4303,55.7464]]]},"properties":{"sourceId":"ais_par3.135765","a_type":5120,"hectares":0.118}},{"type":"Feature","id":"ais_par3.135766","geometry":{"type":"Polygon","coordinates":[[[12.4355,55.7464],[12.4353,55.7463],[12.4351,55.7464],[12.435,55.7465],[12.4349,55.7465],[12.435,55.7466],[12.4352,55.7467],[12.4355,55.7467],[12.4356,55.7466],[12.4356,55.7465],[12.4355,55.7464]]]},"properties":{"sourceId":"ais_par3.135766","a_type":5120,"hectares":0.127}},{"type":"Feature","id":"ais_par3.135768","geometry":{"type":"Polygon","coordinates":[[[12.439,55.7512],[12.4391,55.7513],[12.4392,55.7514],[12.4392,55.7514],[12.4394,55.7514],[12.4393,55.7513],[12.4395,55.7512],[12.4394,55.7511],[12.4393,55.751],[12.4395,55.751],[12.4396,55.7511],[12.4397,55.751],[12.4394,55.7509],[12.4392,55.7508],[12.4392,55.7509],[12.4391,55.751],[12.4391,55.7511],[12.439,55.7512],[12.439,55.7512]]]},"properties":{"sourceId":"ais_par3.135768","a_type":5120,"hectares":0.135}},{"type":"Feature","id":"ais_par3.135771","geometry":{"type":"Polygon","coordinates":[[[12.4259,55.7443],[12.4259,55.7441],[12.4259,55.744],[12.4258,55.7438],[12.4256,55.7438],[12.4254,55.744],[12.4254,55.7442],[12.4254,55.7443],[12.4256,55.7443],[12.4258,55.7443],[12.4259,55.7443]]]},"properties":{"sourceId":"ais_par3.135771","a_type":5120,"hectares":0.151}},{"type":"Feature","id":"ais_par3.135772","geometry":{"type":"Polygon","coordinates":[[[12.4279,55.7515],[12.4277,55.7517],[12.4277,55.7519],[12.4278,55.752],[12.4281,55.752],[12.4282,55.7519],[12.4282,55.7517],[12.4281,55.7516],[12.428,55.7515],[12.4279,55.7515]]]},"properties":{"sourceId":"ais_par3.135772","a_type":5120,"hectares":0.152}},{"type":"Feature","id":"ais_par3.135777","geometry":{"type":"Polygon","coordinates":[[[12.4412,55.7491],[12.4411,55.749],[12.441,55.7489],[12.4406,55.7491],[12.4404,55.7491],[12.4402,55.7491],[12.4401,55.7491],[12.4402,55.7493],[12.4401,55.7493],[12.4402,55.7494],[12.4405,55.7494],[12.4405,55.7494],[12.4408,55.7492],[12.4412,55.7491],[12.4412,55.7491]]]},"properties":{"sourceId":"ais_par3.135777","a_type":5120,"hectares":0.19}},{"type":"Feature","id":"ais_par3.135780","geometry":{"type":"Polygon","coordinates":[[[12.4368,55.7325],[12.4368,55.7325],[12.4367,55.7325],[12.4367,55.7326],[12.4365,55.7327],[12.4364,55.733],[12.4363,55.7331],[12.4364,55.7332],[12.4365,55.7332],[12.4366,55.7332],[12.4367,55.7331],[12.4368,55.733],[12.437,55.7329],[12.437,55.7328],[12.437,55.7328],[12.4369,55.7325],[12.4368,55.7325]]]},"properties":{"sourceId":"ais_par3.135780","a_type":5120,"hectares":0.213}},{"type":"Feature","id":"ais_par3.135782","geometry":{"type":"Polygon","coordinates":[[[12.4288,55.7313],[12.4289,55.7314],[12.4291,55.7314],[12.4292,55.7314],[12.4293,55.7313],[12.4293,55.7312],[12.4293,55.7311],[12.4293,55.731],[12.4292,55.731],[12.4292,55.7309],[12.4291,55.7309],[12.4288,55.7309],[12.4287,55.731],[12.4285,55.731],[12.4285,55.7311],[12.4286,55.7312],[12.4286,55.7313],[12.4287,55.7313],[12.4288,55.7313]]]},"properties":{"sourceId":"ais_par3.135782","a_type":5120,"hectares":0.228}},{"type":"Feature","id":"ais_par3.135784","geometry":{"type":"Polygon","coordinates":[[[12.4281,55.7507],[12.4287,55.7509],[12.4289,55.7509],[12.429,55.7506],[12.4288,55.7505],[12.4285,55.7504],[12.4283,55.7504],[12.4281,55.7504],[12.4281,55.7506],[12.4281,55.7507]]]},"properties":{"sourceId":"ais_par3.135784","a_type":5120,"hectares":0.256}},{"type":"Feature","id":"ais_par3.135785","geometry":{"type":"Polygon","coordinates":[[[12.4321,55.7513],[12.4322,55.7513],[12.4324,55.7513],[12.4325,55.7511],[12.4326,55.7509],[12.4325,55.7508],[12.4322,55.7507],[12.4319,55.7507],[12.4317,55.7507],[12.4317,55.7508],[12.4318,55.751],[12.432,55.7511],[12.4321,55.7512],[12.4321,55.7513]]]},"properties":{"sourceId":"ais_par3.135785","a_type":5120,"hectares":0.271}},{"type":"Feature","id":"ais_par3.135787","geometry":{"type":"Polygon","coordinates":[[[12.4266,55.7524],[12.4266,55.7522],[12.4266,55.7521],[12.4265,55.7519],[12.4263,55.7517],[12.4263,55.7516],[12.4263,55.7515],[12.4262,55.7514],[12.4261,55.7514],[12.426,55.7513],[12.4258,55.7513],[12.4258,55.7514],[12.4257,55.7517],[12.4258,55.7518],[12.426,55.7519],[12.4261,55.752],[12.4263,55.7521],[12.4264,55.7523],[12.4265,55.7524],[12.4265,55.7524],[12.4266,55.7524]]]},"properties":{"sourceId":"ais_par3.135787","a_type":5120,"hectares":0.307}},{"type":"Feature","id":"ais_par3.135790","geometry":{"type":"Polygon","coordinates":[[[12.4386,55.7498],[12.4391,55.7498],[12.4394,55.7496],[12.4393,55.7494],[12.4391,55.7493],[12.4388,55.7492],[12.4383,55.7494],[12.4383,55.7496],[12.4381,55.7498],[12.4386,55.7498]]]},"properties":{"sourceId":"ais_par3.135790","a_type":5120,"hectares":0.348}},{"type":"Feature","id":"ais_par3.135792","geometry":{"type":"Polygon","coordinates":[[[12.4258,55.7501],[12.4261,55.7501],[12.4264,55.7502],[12.4266,55.7503],[12.4269,55.7503],[12.4271,55.7502],[12.4274,55.75],[12.4275,55.7499],[12.4274,55.7498],[12.4272,55.7498],[12.4269,55.7498],[12.4266,55.7498],[12.4264,55.7499],[12.4262,55.7499],[12.4261,55.75],[12.4259,55.75],[12.4258,55.7501],[12.4258,55.7501]]]},"properties":{"sourceId":"ais_par3.135792","a_type":5120,"hectares":0.355}},{"type":"Feature","id":"ais_par3.135793","geometry":{"type":"Polygon","coordinates":[[[12.4253,55.7373],[12.4253,55.7373],[12.4252,55.7373],[12.4251,55.7373],[12.425,55.7373],[12.4248,55.7374],[12.4246,55.7375],[12.4244,55.7374],[12.4243,55.7375],[12.4241,55.7375],[12.4241,55.7376],[12.4241,55.7377],[12.4242,55.7378],[12.4244,55.7378],[12.4245,55.7378],[12.4247,55.7379],[12.425,55.7379],[12.4251,55.7379],[12.4252,55.7378],[12.4252,55.7377],[12.4253,55.7375],[12.4254,55.7375],[12.4254,55.7374],[12.4253,55.7373]]]},"properties":{"sourceId":"ais_par3.135793","a_type":5120,"hectares":0.36}},{"type":"Feature","id":"ais_par3.135798","geometry":{"type":"Polygon","coordinates":[[[12.4532,55.7127],[12.453,55.7129],[12.453,55.7131],[12.453,55.7132],[12.453,55.7133],[12.4532,55.7134],[12.4532,55.7136],[12.4532,55.7137],[12.4532,55.7138],[12.4533,55.7139],[12.4534,55.7139],[12.4536,55.7139],[12.4538,55.7139],[12.4538,55.7139],[12.4541,55.7138],[12.4542,55.7137],[12.4543,55.7137],[12.4545,55.7136],[12.4546,55.7136],[12.4548,55.7135],[12.4549,55.7135],[12.4548,55.7134],[12.4545,55.7133],[12.4543,55.7131],[12.4542,55.713],[12.454,55.713],[12.4539,55.7129],[12.4539,55.7129],[12.4537,55.7129],[12.4535,55.7128],[12.4533,55.7127],[12.4533,55.7127],[12.4532,55.7127],[12.4532,55.7127]]]},"properties":{"sourceId":"ais_par3.135798","a_type":5120,"hectares":0.947}},{"type":"Feature","id":"ais_par3.135800","geometry":{"type":"Polygon","coordinates":[[[12.4395,55.7499],[12.4393,55.75],[12.4395,55.7501],[12.4397,55.7501],[12.44,55.7503],[12.4402,55.7505],[12.4404,55.7506],[12.4405,55.7507],[12.4409,55.7506],[12.4414,55.7505],[12.4417,55.7504],[12.442,55.7502],[12.4422,55.7501],[12.4424,55.75],[12.4425,55.7501],[12.4427,55.7502],[12.4429,55.7503],[12.4432,55.7501],[12.4434,55.75],[12.4436,55.75],[12.4438,55.7499],[12.444,55.7497],[12.4441,55.7498],[12.4444,55.7497],[12.4444,55.7496],[12.4444,55.7495],[12.4442,55.7495],[12.4441,55.7494],[12.4438,55.7494],[12.4436,55.7495],[12.4433,55.7495],[12.443,55.7495],[12.4428,55.7496],[12.4426,55.7496],[12.4423,55.7496],[12.4421,55.7497],[12.4418,55.7498],[12.4415,55.7498],[12.4414,55.7499],[12.4413,55.7498],[12.441,55.7498],[12.4408,55.7497],[12.4406,55.7495],[12.4403,55.7496],[12.4402,55.7498],[12.4402,55.7499],[12.4399,55.75],[12.4399,55.7499],[12.4398,55.7498],[12.4398,55.7497],[12.4396,55.7497],[12.4394,55.7497],[12.4393,55.7497],[12.4393,55.7498],[12.4394,55.7499],[12.4395,55.7499]]]},"properties":{"sourceId":"ais_par3.135800","a_type":5120,"hectares":2.01}},{"type":"Feature","id":"ais_par3.136431","geometry":{"type":"Polygon","coordinates":[[[12.4531,55.7111],[12.4533,55.711],[12.4532,55.711],[12.4532,55.7108],[12.4531,55.7106],[12.4532,55.7104],[12.453,55.7103],[12.4527,55.7103],[12.4523,55.7103],[12.4518,55.7103],[12.4517,55.7104],[12.4518,55.7105],[12.4521,55.7106],[12.4522,55.7107],[12.4521,55.7108],[12.4524,55.7109],[12.4526,55.7112],[12.453,55.7112],[12.4531,55.7111],[12.4531,55.7111]]]},"properties":{"sourceId":"ais_par3.136431","a_type":5120,"hectares":0.639}},{"type":"Feature","id":"ais_par3.136432","geometry":{"type":"Polygon","coordinates":[[[12.4516,55.7127],[12.4516,55.7127],[12.4515,55.7125],[12.4513,55.7123],[12.4511,55.712],[12.4507,55.712],[12.4506,55.7121],[12.4505,55.7122],[12.4505,55.7124],[12.4505,55.7126],[12.4505,55.7127],[12.4505,55.7129],[12.4506,55.713],[12.451,55.7131],[12.4513,55.7131],[12.4516,55.713],[12.4516,55.7128],[12.4516,55.7127]]]},"properties":{"sourceId":"ais_par3.136432","a_type":5120,"hectares":0.685}},{"type":"Feature","id":"ais_par3.136873","geometry":{"type":"Polygon","coordinates":[[[12.4531,55.7111],[12.4531,55.7111],[12.453,55.7112],[12.4526,55.7112],[12.4524,55.7109],[12.4521,55.7108],[12.4522,55.7107],[12.4521,55.7106],[12.4518,55.7105],[12.4516,55.7106],[12.4515,55.7107],[12.4516,55.7108],[12.4517,55.7109],[12.452,55.711],[12.4523,55.7112],[12.4525,55.7114],[12.4528,55.7115],[12.453,55.7116],[12.4531,55.7115],[12.4532,55.7113],[12.4531,55.7111]]]},"properties":{"sourceId":"ais_par3.136873","a_type":4120,"hectares":0.408}},{"type":"Feature","id":"ais_par3.137081","geometry":{"type":"Polygon","coordinates":[[[12.4356,55.7464],[12.4355,55.7463],[12.4353,55.7462],[12.4351,55.7463],[12.435,55.7464],[12.435,55.7465],[12.4351,55.7464],[12.4353,55.7463],[12.4355,55.7464],[12.4356,55.7465],[12.4356,55.7466],[12.4356,55.7464]]]},"properties":{"sourceId":"ais_par3.137081","a_type":4120,"hectares":0.045}},{"type":"Feature","id":"ais_par3.137087","geometry":{"type":"Polygon","coordinates":[[[12.4288,55.749],[12.429,55.7488],[12.429,55.7486],[12.4289,55.7484],[12.4288,55.7483],[12.4287,55.7482],[12.4285,55.7483],[12.4284,55.7485],[12.4283,55.7487],[12.4284,55.7488],[12.4284,55.749],[12.4286,55.749],[12.4288,55.749]],[[12.4287,55.7488],[12.4286,55.7489],[12.4285,55.7489],[12.4284,55.7489],[12.4284,55.7487],[12.4284,55.7487],[12.4285,55.7486],[12.4287,55.7486],[12.4288,55.7486],[12.4287,55.7487],[12.4287,55.7488]]]},"properties":{"sourceId":"ais_par3.137087","a_type":4120,"hectares":0.211}},{"type":"Feature","id":"ais_par3.137104","geometry":{"type":"Polygon","coordinates":[[[12.4293,55.7522],[12.4289,55.7523],[12.4285,55.7524],[12.428,55.7525],[12.4277,55.7525],[12.4273,55.7525],[12.4271,55.7525],[12.4268,55.7525],[12.4269,55.7522],[12.4267,55.752],[12.4266,55.7518],[12.4268,55.7516],[12.427,55.7515],[12.4272,55.7513],[12.4275,55.7512],[12.4275,55.7511],[12.4272,55.7511],[12.4269,55.7511],[12.4264,55.7512],[12.4261,55.7512],[12.4258,55.7512],[12.4255,55.7512],[12.4253,55.7513],[12.4252,55.7514],[12.4253,55.7516],[12.4255,55.7517],[12.4258,55.7519],[12.4257,55.752],[12.4257,55.7522],[12.426,55.7522],[12.4261,55.7524],[12.4261,55.7526],[12.426,55.7528],[12.4264,55.7528],[12.4266,55.7529],[12.4267,55.7531],[12.4267,55.7532],[12.4267,55.7534],[12.4268,55.7535],[12.4269,55.7536],[12.4272,55.7537],[12.4275,55.7538],[12.4279,55.7539],[12.4282,55.7541],[12.4284,55.7542],[12.4286,55.7545],[12.4288,55.7546],[12.4292,55.7547],[12.4295,55.7548],[12.4297,55.7549],[12.4299,55.7549],[12.4299,55.7548],[12.4303,55.7548],[12.4305,55.755],[12.4306,55.7553],[12.4307,55.7554],[12.4308,55.7557],[12.431,55.7556],[12.4317,55.7555],[12.4319,55.7556],[12.4321,55.7559],[12.4325,55.756],[12.4331,55.756],[12.4336,55.7561],[12.4338,55.7561],[12.4342,55.7561],[12.4345,55.7563],[12.4347,55.7564],[12.435,55.7565],[12.4351,55.7567],[12.4356,55.7567],[12.4365,55.7567],[12.4366,55.7568],[12.4367,55.7567],[12.4367,55.7564],[12.4368,55.7561],[12.4368,55.7558],[12.4369,55.7555],[12.4365,55.7555],[12.4363,55.7554],[12.4361,55.7552],[12.4361,55.755],[12.436,55.7549],[12.4358,55.7548],[12.4356,55.7547],[12.4355,55.7546],[12.4356,55.7544],[12.4357,55.7543],[12.4357,55.7542],[12.4355,55.7541],[12.4354,55.7541],[12.4352,55.7542],[12.435,55.7542],[12.4348,55.7541],[12.4346,55.7541],[12.4343,55.7541],[12.434,55.7541],[12.4337,55.7542],[12.4334,55.7543],[12.4331,55.7542],[12.4329,55.7542],[12.4327,55.754],[12.4324,55.7539],[12.4322,55.754],[12.4322,55.7541],[12.432,55.7541],[12.4318,55.754],[12.4316,55.7539],[12.4317,55.7538],[12.4318,55.7537],[12.4316,55.7536],[12.4315,55.7535],[12.4316,55.7534],[12.4319,55.7532],[12.4321,55.7531],[12.4323,55.7531],[12.4325,55.7531],[12.4326,55.7533],[12.4326,55.7536],[12.4323,55.7536],[12.4321,55.7537],[12.4325,55.7537],[12.4328,55.7538],[12.4332,55.7539],[12.4335,55.754],[12.4339,55.7539],[12.4342,55.7539],[12.4345,55.754],[12.4352,55.7538],[12.4359,55.7538],[12.4361,55.7539],[12.4361,55.754],[12.4362,55.754],[12.4363,55.7538],[12.4365,55.7536],[12.4364,55.7534],[12.4364,55.7532],[12.4362,55.753],[12.436,55.7528],[12.4359,55.7525],[12.4356,55.7527],[12.4354,55.7528],[12.435,55.7527],[12.4346,55.7526],[12.4342,55.7525],[12.4338,55.7526],[12.4334,55.7526],[12.4331,55.7526],[12.4328,55.7527],[12.4324,55.7526],[12.4322,55.7524],[12.4321,55.7525],[12.4319,55.7525],[12.4317,55.7524],[12.4316,55.7523],[12.4312,55.7523],[12.4312,55.7523],[12.4313,55.752],[12.4316,55.7518],[12.4317,55.7516],[12.4317,55.7514],[12.4315,55.7513],[12.431,55.7512],[12.4304,55.7512],[12.4299,55.7513],[12.4295,55.7513],[12.4293,55.7514],[12.4291,55.7514],[12.429,55.7515],[12.4293,55.7517],[12.4295,55.7519],[12.4295,55.752],[12.4293,55.7522]],[[12.4345,55.7531],[12.4344,55.7531],[12.4343,55.7531],[12.4341,55.7531],[12.4339,55.753],[12.4339,55.7529],[12.4339,55.7528],[12.4341,55.7528],[12.4342,55.7526],[12.4344,55.7527],[12.4345,55.7528],[12.4345,55.7529],[12.4345,55.7531]],[[12.4352,55.7535],[12.4353,55.7535],[12.4355,55.7535],[12.4357,55.7535],[12.4358,55.7536],[12.4357,55.7537],[12.4357,55.7537],[12.4355,55.7537],[12.4352,55.7537],[12.4352,55.7536],[12.4352,55.7535]],[[12.4303,55.7546],[12.4303,55.7545],[12.4302,55.7545],[12.4301,55.7544],[12.43,55.7545],[12.4302,55.7546],[12.4302,55.7547],[12.4302,55.7547],[12.43,55.7547],[12.4299,55.7545],[12.4299,55.7544],[12.4299,55.7543],[12.4301,55.7543],[12.4302,55.7544],[12.4303,55.7546]],[[12.432,55.7552],[12.4321,55.755],[12.4323,55.7551],[12.4324,55.7551],[12.4323,55.7552],[12.4322,55.7552],[12.432,55.7552],[12.432,55.7552]],[[12.4291,55.7527],[12.4292,55.7528],[12.4292,55.7528],[12.4292,55.7529],[12.4291,55.7529],[12.4291,55.7527]],[[12.4311,55.7552],[12.4313,55.7552],[12.4314,55.7553],[12.4313,55.7554],[12.4312,55.7553],[12.4311,55.7552]],[[12.4266,55.7524],[12.4265,55.7524],[12.4265,55.7524],[12.4264,55.7523],[12.4263,55.7521],[12.4261,55.752],[12.426,55.7519],[12.4258,55.7518],[12.4257,55.7517],[12.4258,55.7514],[12.4258,55.7513],[12.426,55.7513],[12.4261,55.7514],[12.4262,55.7514],[12.4263,55.7515],[12.4263,55.7516],[12.4263,55.7517],[12.4265,55.7519],[12.4266,55.7521],[12.4266,55.7522],[12.4266,55.7524]],[[12.4305,55.7515],[12.4305,55.7515],[12.4304,55.7516],[12.4303,55.7516],[12.4303,55.7515],[12.4304,55.7514],[12.4305,55.7513],[12.4306,55.7513],[12.4306,55.7514],[12.4307,55.7515],[12.4308,55.7515],[12.4307,55.7515],[12.4305,55.7515]],[[12.4311,55.7513],[12.4313,55.7513],[12.4314,55.7514],[12.4314,55.7515],[12.4313,55.7515],[12.4311,55.7514],[12.431,55.7513],[12.4311,55.7513]],[[12.4296,55.7516],[12.4297,55.7515],[12.4299,55.7515],[12.43,55.7516],[12.43,55.7516],[12.4298,55.7517],[12.4296,55.7517],[12.4296,55.7516]],[[12.4307,55.752],[12.4308,55.752],[12.4309,55.7519],[12.431,55.752],[12.4309,55.752],[12.4307,55.7521],[12.4307,55.752]]]},"properties":{"sourceId":"ais_par3.137104","a_type":4120,"hectares":20.449}},{"type":"Feature","id":"ais_par3.137105","geometry":{"type":"Polygon","coordinates":[[[12.4379,55.7554],[12.4378,55.7559],[12.4376,55.7568],[12.4384,55.7568],[12.4389,55.7568],[12.439,55.7562],[12.4396,55.7562],[12.4401,55.7563],[12.4406,55.7564],[12.4405,55.7566],[12.4403,55.7569],[12.441,55.757],[12.4415,55.757],[12.4419,55.7571],[12.4421,55.757],[12.4421,55.7569],[12.4421,55.7567],[12.4422,55.7565],[12.4423,55.7564],[12.4423,55.7562],[12.4426,55.7564],[12.443,55.7566],[12.4435,55.7567],[12.4437,55.7567],[12.4442,55.7559],[12.4445,55.7556],[12.4449,55.7549],[12.4454,55.7543],[12.4458,55.7537],[12.4461,55.7533],[12.4464,55.7529],[12.4466,55.7524],[12.4468,55.752],[12.4473,55.7513],[12.4476,55.7509],[12.4479,55.7505],[12.4481,55.7501],[12.4484,55.7498],[12.4482,55.7495],[12.4479,55.7493],[12.4472,55.7491],[12.4466,55.7489],[12.4457,55.7486],[12.4451,55.7486],[12.4446,55.7485],[12.4441,55.7484],[12.4438,55.7487],[12.4437,55.7489],[12.4434,55.749],[12.4431,55.749],[12.4429,55.7489],[12.4431,55.7487],[12.4433,55.7487],[12.4437,55.7485],[12.4438,55.7483],[12.4438,55.7482],[12.4434,55.7482],[12.443,55.7482],[12.4427,55.7482],[12.4423,55.7481],[12.4418,55.7481],[12.4415,55.7481],[12.4412,55.7482],[12.4408,55.7483],[12.4403,55.7485],[12.4399,55.7487],[12.4395,55.7489],[12.4389,55.749],[12.4388,55.7492],[12.4391,55.7493],[12.4393,55.7494],[12.4394,55.7496],[12.4391,55.7498],[12.4386,55.7498],[12.4381,55.7498],[12.438,55.75],[12.4379,55.7502],[12.4379,55.7504],[12.4379,55.7506],[12.4382,55.7509],[12.4385,55.7512],[12.4387,55.7516],[12.4391,55.7519],[12.4397,55.7518],[12.4398,55.7518],[12.4399,55.7519],[12.4403,55.7521],[12.4407,55.7523],[12.4407,55.7526],[12.4406,55.7529],[12.4404,55.7532],[12.4401,55.7539],[12.4401,55.7543],[12.4401,55.7546],[12.4406,55.7548],[12.4409,55.7551],[12.4409,55.7554],[12.4409,55.7555],[12.4412,55.7558],[12.4409,55.7558],[12.4408,55.7559],[12.4406,55.756],[12.4405,55.7558],[12.4404,55.7557],[12.4403,55.7557],[12.4405,55.7556],[12.4405,55.7554],[12.4402,55.7553],[12.4397,55.7552],[12.4393,55.7554],[12.4387,55.7554],[12.4381,55.7554],[12.4379,55.7554]],[[12.4414,55.7549],[12.4415,55.7549],[12.4417,55.7549],[12.4418,55.7548],[12.4417,55.7547],[12.4418,55.7546],[12.4419,55.7545],[12.4422,55.7545],[12.4424,55.7546],[12.4422,55.7547],[12.4422,55.7549],[12.4423,55.7552],[12.442,55.7552],[12.4417,55.7553],[12.4416,55.7551],[12.4414,55.7549]],[[12.4427,55.7519],[12.4428,55.7519],[12.443,55.7519],[12.4431,55.752],[12.4432,55.752],[12.4432,55.7521],[12.4433,55.7521],[12.4435,55.7521],[12.4435,55.7522],[12.4434,55.7523],[12.4432,55.7522],[12.443,55.7522],[12.4429,55.7523],[12.4428,55.7522],[12.4429,55.7521],[12.4428,55.752],[12.4427,55.7519]],[[12.4407,55.7562],[12.4407,55.7561],[12.4407,55.7561],[12.4409,55.7561],[12.441,55.7561],[12.4412,55.7562],[12.4411,55.7563],[12.4411,55.7564],[12.441,55.7566],[12.4409,55.7565],[12.4408,55.7565],[12.4408,55.7564],[12.4407,55.7562]],[[12.4425,55.7524],[12.4426,55.7525],[12.4427,55.7525],[12.4428,55.7526],[12.4429,55.7526],[12.443,55.7527],[12.4427,55.7527],[12.4425,55.7526],[12.4423,55.7525],[12.4425,55.7524]],[[12.4381,55.7561],[12.4382,55.7562],[12.4383,55.7562],[12.4383,55.7563],[12.4382,55.7564],[12.4381,55.7565],[12.438,55.7564],[12.438,55.7563],[12.438,55.7562],[12.4381,55.7561]],[[12.4423,55.753],[12.4424,55.753],[12.4425,55.7529],[12.4426,55.753],[12.4428,55.7529],[12.4429,55.7529],[12.4429,55.753],[12.4427,55.7531],[12.4426,55.7531],[12.4424,55.7531],[12.4423,55.753]],[[12.4413,55.7543],[12.4413,55.7543],[12.4413,55.7544],[12.4412,55.7544],[12.4411,55.7543],[12.441,55.7543],[12.4409,55.7542],[12.4408,55.7541],[12.4408,55.7541],[12.4409,55.7541],[12.441,55.7541],[12.441,55.7542],[12.4412,55.7542],[12.4413,55.7543]],[[12.4435,55.7526],[12.4435,55.7526],[12.4436,55.7526],[12.4437,55.7527],[12.4438,55.7527],[12.4439,55.7527],[12.444,55.7528],[12.4439,55.7528],[12.4437,55.7528],[12.4435,55.7528],[12.4434,55.7527],[12.4435,55.7526]],[[12.4411,55.7525],[12.4411,55.7524],[12.4411,55.7523],[12.4413,55.7523],[12.4415,55.7523],[12.4415,55.7524],[12.4414,55.7524],[12.4414,55.7525],[12.4411,55.7525]],[[12.4426,55.7517],[12.4428,55.7516],[12.4428,55.7516],[12.443,55.7516],[12.443,55.7517],[12.4429,55.7518],[12.4426,55.7517]],[[12.4449,55.7503],[12.4449,55.7502],[12.4449,55.7502],[12.4452,55.7501],[12.4453,55.7501],[12.4451,55.7502],[12.4449,55.7503]],[[12.4439,55.754],[12.4439,55.7539],[12.4441,55.7539],[12.4441,55.7539],[12.4442,55.7539],[12.4443,55.7539],[12.4444,55.754],[12.4444,55.754],[12.4442,55.754],[12.4441,55.754],[12.4439,55.754]],[[12.4419,55.7558],[12.442,55.7558],[12.4419,55.7557],[12.4419,55.7557],[12.442,55.7556],[12.4421,55.7557],[12.4421,55.7558],[12.4421,55.7558],[12.442,55.7559],[12.4419,55.7558]],[[12.4436,55.7536],[12.4436,55.7536],[12.4438,55.7536],[12.444,55.7536],[12.4441,55.7536],[12.4442,55.7537],[12.444,55.7537],[12.4439,55.7537],[12.4438,55.7536],[12.4436,55.7536]],[[12.4413,55.7528],[12.4412,55.7528],[12.4412,55.7527],[12.4412,55.7526],[12.4414,55.7526],[12.4413,55.7528],[12.4413,55.7528]],[[12.4455,55.752],[12.4455,55.752],[12.4456,55.752],[12.4457,55.7521],[12.4456,55.7521],[12.4454,55.7521],[12.4453,55.752],[12.4455,55.752]],[[12.4429,55.7539],[12.443,55.7538],[12.4431,55.7538],[12.4432,55.7538],[12.4432,55.7539],[12.4434,55.7539],[12.4433,55.7539],[12.4431,55.7539],[12.4429,55.7539]],[[12.4436,55.7529],[12.4436,55.7529],[12.4438,55.7529],[12.444,55.7529],[12.4439,55.753],[12.4436,55.7529]],[[12.4441,55.7529],[12.4443,55.7529],[12.4443,55.753],[12.4441,55.753],[12.4441,55.7529]],[[12.4395,55.7499],[12.4394,55.7499],[12.4393,55.7498],[12.4393,55.7497],[12.4394,55.7497],[12.4396,55.7497],[12.4398,55.7497],[12.4398,55.7498],[12.4399,55.7499],[12.4399,55.75],[12.4402,55.7499],[12.4402,55.7498],[12.4403,55.7496],[12.4406,55.7495],[12.4408,55.7497],[12.441,55.7498],[12.4413,55.7498],[12.4414,55.7499],[12.4415,55.7498],[12.4418,55.7498],[12.4421,55.7497],[12.4423,55.7496],[12.4426,55.7496],[12.4428,55.7496],[12.443,55.7495],[12.4433,55.7495],[12.4436,55.7495],[12.4438,55.7494],[12.4441,55.7494],[12.4442,55.7495],[12.4444,55.7495],[12.4444,55.7496],[12.4444,55.7497],[12.4441,55.7498],[12.444,55.7497],[12.4438,55.7499],[12.4436,55.75],[12.4434,55.75],[12.4432,55.7501],[12.4429,55.7503],[12.4427,55.7502],[12.4425,55.7501],[12.4424,55.75],[12.4422,55.7501],[12.442,55.7502],[12.4417,55.7504],[12.4414,55.7505],[12.4409,55.7506],[12.4405,55.7507],[12.4404,55.7506],[12.4402,55.7505],[12.44,55.7503],[12.4397,55.7501],[12.4395,55.7501],[12.4393,55.75],[12.4395,55.7499]],[[12.4412,55.7491],[12.4412,55.7491],[12.4408,55.7492],[12.4405,55.7494],[12.4405,55.7494],[12.4402,55.7494],[12.4401,55.7493],[12.4402,55.7493],[12.4401,55.7491],[12.4402,55.7491],[12.4404,55.7491],[12.4406,55.7491],[12.441,55.7489],[12.4411,55.749],[12.4412,55.7491]],[[12.439,55.7512],[12.439,55.7512],[12.4391,55.7511],[12.4391,55.751],[12.4392,55.7509],[12.4392,55.7508],[12.4394,55.7509],[12.4397,55.751],[12.4396,55.7511],[12.4395,55.751],[12.4393,55.751],[12.4394,55.7511],[12.4395,55.7512],[12.4393,55.7513],[12.4394,55.7514],[12.4392,55.7514],[12.4392,55.7514],[12.4391,55.7513],[12.439,55.7512]],[[12.4428,55.7492],[12.4427,55.7493],[12.4425,55.7493],[12.4424,55.7494],[12.4423,55.7494],[12.4422,55.7494],[12.442,55.7494],[12.4419,55.7494],[12.4419,55.7493],[12.4421,55.7493],[12.4423,55.7492],[12.4424,55.7492],[12.4425,55.7491],[12.4428,55.7492]],[[12.4405,55.7487],[12.4407,55.7487],[12.4409,55.7486],[12.441,55.7488],[12.4409,55.7488],[12.4408,55.7488],[12.4407,55.7488],[12.4405,55.7488],[12.4405,55.7487]],[[12.4427,55.7495],[12.4426,55.7495],[12.4425,55.7495],[12.4423,55.7495],[12.4424,55.7494],[12.4426,55.7494],[12.4428,55.7494],[12.443,55.7493],[12.4431,55.7494],[12.4429,55.7495],[12.4427,55.7495]],[[12.4419,55.7489],[12.4418,55.7489],[12.4416,55.749],[12.4415,55.749],[12.4414,55.749],[12.4415,55.7489],[12.4416,55.7489],[12.4418,55.7488],[12.4419,55.7489]],[[12.4444,55.7493],[12.4443,55.7492],[12.4443,55.7492],[12.4443,55.7491],[12.4444,55.7491],[12.4445,55.7491],[12.4446,55.7492],[12.4445,55.7493],[12.4444,55.7493]],[[12.4415,55.7496],[12.4416,55.7496],[12.4417,55.7496],[12.4416,55.7497],[12.4415,55.7497],[12.4415,55.7497],[12.4415,55.7496]],[[12.4451,55.7496],[12.4451,55.7495],[12.4451,55.7494],[12.4453,55.7493],[12.4454,55.7493],[12.4455,55.7494],[12.4455,55.7495],[12.4454,55.7497],[12.4453,55.7497],[12.4452,55.7496],[12.4451,55.7496],[12.4451,55.7496]]]},"properties":{"sourceId":"ais_par3.137105","a_type":4120,"hectares":36.27}},{"type":"Feature","id":"ais_par3.137238","geometry":{"type":"Polygon","coordinates":[[[12.4437,55.7485],[12.4433,55.7487],[12.4431,55.7487],[12.4429,55.7489],[12.4431,55.749],[12.4434,55.749],[12.4437,55.7489],[12.4438,55.7487],[12.4441,55.7484],[12.4438,55.7483],[12.4437,55.7485]]]},"properties":{"sourceId":"ais_par3.137238","a_type":4110,"hectares":0.23}},{"type":"Feature","id":"ais_par3.137239","geometry":{"type":"Polygon","coordinates":[[[12.4369,55.7511],[12.4376,55.7509],[12.4379,55.7508],[12.4379,55.7506],[12.4379,55.7504],[12.4379,55.7502],[12.438,55.75],[12.4381,55.7498],[12.4383,55.7496],[12.4383,55.7494],[12.4378,55.7495],[12.4373,55.7495],[12.4369,55.7495],[12.4366,55.7495],[12.4367,55.7498],[12.4367,55.75],[12.4367,55.7503],[12.4368,55.7506],[12.4368,55.7508],[12.4369,55.7511],[12.4369,55.7511]]]},"properties":{"sourceId":"ais_par3.137239","a_type":4110,"hectares":1.357}}]}
