{"type":"FeatureCollection","metadata":{"kommuneKode":"0165","kommuneNavn":"Albertslund","source":"https://wfs2-miljoegis.mim.dk/natur/ows","layer":"natur:ais_par3","bbox":[12.31099961666971,55.64195946029063,12.396279857282337,55.71107360086829],"fetchedAt":"2026-06-12T20:55:36.338027+00:00"},"features":[{"type":"Feature","id":"ais_par3.135313","geometry":{"type":"Polygon","coordinates":[[[12.3636,55.7015],[12.3635,55.7015],[12.3634,55.7015],[12.3632,55.7015],[12.3632,55.7015],[12.3635,55.7015],[12.3636,55.7015]]]},"properties":{"sourceId":"ais_par3.135313","a_type":5120,"hectares":0.016}},{"type":"Feature","id":"ais_par3.135022","geometry":{"type":"Polygon","coordinates":[[[12.3086,55.6963],[12.309,55.6967],[12.3093,55.697],[12.3095,55.6967],[12.3098,55.6965],[12.3103,55.6964],[12.3109,55.6964],[12.3117,55.6963],[12.3117,55.6958],[12.3113,55.6959],[12.3108,55.696],[12.3102,55.696],[12.3098,55.696],[12.3093,55.6961],[12.3088,55.6961],[12.3083,55.6961],[12.3083,55.6961],[12.3086,55.6963]]]},"properties":{"sourceId":"ais_par3.135022","a_type":3210,"hectares":1.025}},{"type":"Feature","id":"ais_par3.135310","geometry":{"type":"Polygon","coordinates":[[[12.3871,55.6902],[12.3872,55.6902],[12.3871,55.6901],[12.3871,55.6901],[12.3871,55.6901],[12.3871,55.6902]]]},"properties":{"sourceId":"ais_par3.135310","a_type":5120,"hectares":0.006}},{"type":"Feature","id":"ais_par3.135311","geometry":{"type":"Polygon","coordinates":[[[12.3502,55.7023],[12.3503,55.7023],[12.3503,55.7022],[12.3503,55.7022],[12.3501,55.7022],[12.3501,55.7023],[12.3502,55.7023]]]},"properties":{"sourceId":"ais_par3.135311","a_type":5120,"hectares":0.011}},{"type":"Feature","id":"ais_par3.135312","geometry":{"type":"Polygon","coordinates":[[[12.3597,55.6839],[12.3596,55.6839],[12.3594,55.6839],[12.3595,55.684],[12.3596,55.684],[12.3597,55.6839],[12.3597,55.6839]]]},"properties":{"sourceId":"ais_par3.135312","a_type":5120,"hectares":0.015}},{"type":"Feature","id":"ais_par3.135315","geometry":{"type":"Polygon","coordinates":[[[12.349,55.7025],[12.349,55.7025],[12.3491,55.7026],[12.3492,55.7025],[12.3493,55.7026],[12.3494,55.7025],[12.3495,55.7025],[12.3493,55.7025],[12.3492,55.7025],[12.3491,55.7025],[12.349,55.7025]]]},"properties":{"sourceId":"ais_par3.135315","a_type":5120,"hectares":0.023}},{"type":"Feature","id":"ais_par3.135316","geometry":{"type":"Polygon","coordinates":[[[12.3666,55.6883],[12.3665,55.6882],[12.3665,55.6882],[12.3664,55.6882],[12.3664,55.6882],[12.3664,55.6883],[12.3664,55.6884],[12.3664,55.6884],[12.3664,55.6885],[12.3664,55.6885],[12.3664,55.6884],[12.3665,55.6883],[12.3665,55.6883],[12.3666,55.6883],[12.3666,55.6883]]]},"properties":{"sourceId":"ais_par3.135316","a_type":5120,"hectares":0.024}},{"type":"Feature","id":"ais_par3.135317","geometry":{"type":"Polygon","coordinates":[[[12.3453,55.6919],[12.3454,55.6918],[12.3455,55.6918],[12.3455,55.6917],[12.3454,55.6917],[12.3453,55.6917],[12.3452,55.6917],[12.3452,55.6918],[12.3453,55.6918],[12.3453,55.6919]]]},"properties":{"sourceId":"ais_par3.135317","a_type":5120,"hectares":0.024}},{"type":"Feature","id":"ais_par3.135319","geometry":{"type":"Polygon","coordinates":[[[12.3631,55.7008],[12.3632,55.7007],[12.3632,55.7006],[12.3632,55.7005],[12.3631,55.7005],[12.363,55.7006],[12.363,55.7006],[12.3629,55.7007],[12.363,55.7007],[12.3631,55.7007],[12.3631,55.7008]]]},"properties":{"sourceId":"ais_par3.135319","a_type":5120,"hectares":0.032}},{"type":"Feature","id":"ais_par3.135320","geometry":{"type":"Polygon","coordinates":[[[12.339,55.7038],[12.3391,55.7038],[12.3391,55.7037],[12.3389,55.7036],[12.3388,55.7037],[12.3387,55.7037],[12.3388,55.7038],[12.3389,55.7038],[12.339,55.7038]]]},"properties":{"sourceId":"ais_par3.135320","a_type":5120,"hectares":0.035}},{"type":"Feature","id":"ais_par3.135321","geometry":{"type":"Polygon","coordinates":[[[12.3392,55.7031],[12.3391,55.703],[12.3389,55.7029],[12.3387,55.7029],[12.3387,55.7029],[12.3388,55.703],[12.3389,55.7031],[12.3391,55.7031],[12.3392,55.7031]]]},"properties":{"sourceId":"ais_par3.135321","a_type":5120,"hectares":0.037}},{"type":"Feature","id":"ais_par3.135322","geometry":{"type":"Polygon","coordinates":[[[12.368,55.6859],[12.3679,55.6859],[12.3678,55.6859],[12.3677,55.686],[12.3677,55.6861],[12.3678,55.6861],[12.3679,55.6861],[12.368,55.686],[12.368,55.686],[12.3681,55.6859],[12.368,55.6859]]]},"properties":{"sourceId":"ais_par3.135322","a_type":5120,"hectares":0.04}},{"type":"Feature","id":"ais_par3.135323","geometry":{"type":"Polygon","coordinates":[[[12.326,55.6895],[12.3261,55.6895],[12.326,55.6894],[12.3259,55.6894],[12.3257,55.6894],[12.3257,55.6894],[12.3257,55.6895],[12.3258,55.6896],[12.3259,55.6896],[12.326,55.6895]]]},"properties":{"sourceId":"ais_par3.135323","a_type":5120,"hectares":0.043}},{"type":"Feature","id":"ais_par3.135324","geometry":{"type":"Polygon","coordinates":[[[12.3391,55.7042],[12.3391,55.7041],[12.339,55.704],[12.339,55.7039],[12.3388,55.7039],[12.3387,55.7038],[12.3385,55.7038],[12.3384,55.7037],[12.3383,55.7036],[12.3383,55.7037],[12.3385,55.7038],[12.3387,55.7039],[12.3389,55.704],[12.339,55.7041],[12.3391,55.7042],[12.3391,55.7042]]]},"properties":{"sourceId":"ais_par3.135324","a_type":5120,"hectares":0.068}},{"type":"Feature","id":"ais_par3.135325","geometry":{"type":"Polygon","coordinates":[[[12.3602,55.6986],[12.3603,55.6985],[12.3603,55.6985],[12.3603,55.6984],[12.3601,55.6983],[12.36,55.6984],[12.3599,55.6984],[12.3598,55.6985],[12.3599,55.6986],[12.36,55.6986],[12.3602,55.6986]]]},"properties":{"sourceId":"ais_par3.135325","a_type":5120,"hectares":0.075}},{"type":"Feature","id":"ais_par3.135326","geometry":{"type":"Polygon","coordinates":[[[12.3655,55.7029],[12.3656,55.7029],[12.3658,55.703],[12.366,55.7029],[12.366,55.7028],[12.3659,55.7027],[12.3658,55.7027],[12.3656,55.7027],[12.3655,55.7027],[12.3655,55.7028],[12.3655,55.7029]]]},"properties":{"sourceId":"ais_par3.135326","a_type":5120,"hectares":0.084}},{"type":"Feature","id":"ais_par3.135327","geometry":{"type":"Polygon","coordinates":[[[12.3378,55.7032],[12.3379,55.703],[12.3381,55.7029],[12.3381,55.7029],[12.3379,55.7028],[12.3377,55.7028],[12.3376,55.7028],[12.3376,55.7029],[12.3376,55.703],[12.3377,55.7031],[12.3378,55.7032]]]},"properties":{"sourceId":"ais_par3.135327","a_type":5120,"hectares":0.086}},{"type":"Feature","id":"ais_par3.135329","geometry":{"type":"Polygon","coordinates":[[[12.3315,55.692],[12.3315,55.6919],[12.3314,55.6918],[12.3313,55.6918],[12.3311,55.6919],[12.3311,55.692],[12.3311,55.692],[12.3312,55.6921],[12.3313,55.6922],[12.3315,55.6922],[12.3316,55.6922],[12.3317,55.6922],[12.3318,55.6921],[12.3317,55.6921],[12.3316,55.6921],[12.3315,55.692],[12.3315,55.692]]]},"properties":{"sourceId":"ais_par3.135329","a_type":5120,"hectares":0.094}},{"type":"Feature","id":"ais_par3.135330","geometry":{"type":"Polygon","coordinates":[[[12.3551,55.6943],[12.3553,55.6943],[12.3554,55.6943],[12.3553,55.6941],[12.3552,55.6941],[12.3551,55.694],[12.355,55.6939],[12.3548,55.6939],[12.3547,55.6939],[12.3547,55.694],[12.3547,55.6941],[12.3549,55.6942],[12.355,55.6943],[12.3551,55.6943],[12.3551,55.6943]]]},"properties":{"sourceId":"ais_par3.135330","a_type":5120,"hectares":0.123}},{"type":"Feature","id":"ais_par3.135331","geometry":{"type":"Polygon","coordinates":[[[12.3316,55.6998],[12.3317,55.6997],[12.3317,55.6996],[12.3317,55.6995],[12.3316,55.6994],[12.3315,55.6993],[12.3315,55.6992],[12.3313,55.6992],[12.3312,55.6993],[12.3311,55.6993],[12.3312,55.6994],[12.3314,55.6995],[12.3315,55.6996],[12.3315,55.6997],[12.3316,55.6998],[12.3316,55.6998]]]},"properties":{"sourceId":"ais_par3.135331","a_type":5120,"hectares":0.129}},{"type":"Feature","id":"ais_par3.135332","geometry":{"type":"Polygon","coordinates":[[[12.3365,55.6921],[12.3364,55.6922],[12.3362,55.6923],[12.3361,55.6924],[12.3362,55.6925],[12.3363,55.6925],[12.3364,55.6926],[12.3366,55.6926],[12.3366,55.6925],[12.3367,55.6924],[12.3368,55.6923],[12.3368,55.6922],[12.3367,55.6921],[12.3365,55.6921]]]},"properties":{"sourceId":"ais_par3.135332","a_type":5120,"hectares":0.14}},{"type":"Feature","id":"ais_par3.135333","geometry":{"type":"Polygon","coordinates":[[[12.3732,55.6858],[12.3734,55.6857],[12.3735,55.6856],[12.3735,55.6855],[12.3735,55.6854],[12.3733,55.6853],[12.3731,55.6853],[12.373,55.6853],[12.3729,55.6854],[12.3729,55.6855],[12.3729,55.6856],[12.373,55.6857],[12.3732,55.6858]]]},"properties":{"sourceId":"ais_par3.135333","a_type":5120,"hectares":0.154}},{"type":"Feature","id":"ais_par3.135335","geometry":{"type":"Polygon","coordinates":[[[12.3838,55.6908],[12.3837,55.6908],[12.3835,55.6907],[12.3834,55.6907],[12.3833,55.6908],[12.3834,55.6908],[12.3835,55.6909],[12.3835,55.691],[12.3835,55.6911],[12.3833,55.6911],[12.3832,55.6911],[12.3832,55.6912],[12.3833,55.6912],[12.3835,55.6913],[12.3836,55.6913],[12.3838,55.6912],[12.3839,55.6911],[12.3839,55.691],[12.3839,55.6909],[12.3838,55.6908]]]},"properties":{"sourceId":"ais_par3.135335","a_type":5120,"hectares":0.176}},{"type":"Feature","id":"ais_par3.135338","geometry":{"type":"Polygon","coordinates":[[[12.3436,55.6962],[12.3438,55.6962],[12.344,55.6962],[12.3442,55.6961],[12.3443,55.696],[12.3442,55.6959],[12.3442,55.6958],[12.344,55.6957],[12.3438,55.6957],[12.3437,55.6959],[12.3436,55.696],[12.3436,55.6962],[12.3436,55.6962]]]},"properties":{"sourceId":"ais_par3.135338","a_type":5120,"hectares":0.205}},{"type":"Feature","id":"ais_par3.135339","geometry":{"type":"Polygon","coordinates":[[[12.3442,55.7003],[12.3443,55.7003],[12.3444,55.7002],[12.3443,55.7001],[12.3442,55.7001],[12.344,55.7],[12.3436,55.7002],[12.3434,55.7002],[12.3433,55.7003],[12.3434,55.7004],[12.3436,55.7004],[12.3438,55.7003],[12.344,55.7003],[12.3442,55.7003]]]},"properties":{"sourceId":"ais_par3.135339","a_type":5120,"hectares":0.146}},{"type":"Feature","id":"ais_par3.135340","geometry":{"type":"Polygon","coordinates":[[[12.3379,55.7034],[12.3381,55.7034],[12.3384,55.7034],[12.3386,55.7034],[12.3389,55.7035],[12.3391,55.7034],[12.339,55.7033],[12.3389,55.7032],[12.3387,55.7031],[12.3385,55.703],[12.3383,55.703],[12.338,55.7032],[12.3379,55.7033],[12.3379,55.7034],[12.3379,55.7034]]]},"properties":{"sourceId":"ais_par3.135340","a_type":5120,"hectares":0.243}},{"type":"Feature","id":"ais_par3.135341","geometry":{"type":"Polygon","coordinates":[[[12.3391,55.7026],[12.3388,55.7024],[12.3384,55.7024],[12.3376,55.7022],[12.3373,55.7022],[12.3372,55.7022],[12.3373,55.7024],[12.3374,55.7025],[12.3376,55.7026],[12.3378,55.7026],[12.3381,55.7026],[12.3385,55.7026],[12.3387,55.7026],[12.339,55.7026],[12.3391,55.7026]]]},"properties":{"sourceId":"ais_par3.135341","a_type":5120,"hectares":0.291}},{"type":"Feature","id":"ais_par3.135342","geometry":{"type":"Polygon","coordinates":[[[12.3844,55.6923],[12.3845,55.6925],[12.3847,55.6926],[12.3848,55.6927],[12.385,55.6927],[12.3853,55.6926],[12.3853,55.6924],[12.3852,55.6923],[12.3852,55.6921],[12.3851,55.692],[12.3851,55.6919],[12.3849,55.6919],[12.3848,55.692],[12.3846,55.6922],[12.3845,55.6923],[12.3844,55.6923]]]},"properties":{"sourceId":"ais_par3.135342","a_type":5120,"hectares":0.3}},{"type":"Feature","id":"ais_par3.135343","geometry":{"type":"Polygon","coordinates":[[[12.3151,55.6952],[12.3154,55.6952],[12.3156,55.6952],[12.3157,55.6951],[12.3158,55.695],[12.3158,55.6949],[12.3157,55.6948],[12.3156,55.6948],[12.3154,55.6947],[12.3152,55.6947],[12.3152,55.6946],[12.3152,55.6945],[12.315,55.6945],[12.3149,55.6944],[12.3149,55.6944],[12.3148,55.6944],[12.3147,55.6945],[12.3146,55.6945],[12.3146,55.6945],[12.3148,55.6946],[12.3149,55.6946],[12.315,55.6947],[12.315,55.6948],[12.315,55.695],[12.315,55.6951],[12.3151,55.6952]]]},"properties":{"sourceId":"ais_par3.135343","a_type":5120,"hectares":0.307}},{"type":"Feature","id":"ais_par3.135344","geometry":{"type":"Polygon","coordinates":[[[12.3278,55.6858],[12.3278,55.6856],[12.3278,55.6855],[12.3278,55.6854],[12.3277,55.6853],[12.3275,55.6852],[12.3273,55.6851],[12.3272,55.6851],[12.327,55.685],[12.3269,55.6849],[12.3268,55.6848],[12.3268,55.6847],[12.3267,55.6847],[12.3266,55.6848],[12.3266,55.6849],[12.3266,55.685],[12.3266,55.6851],[12.3267,55.6852],[12.3268,55.6852],[12.327,55.6853],[12.3271,55.6853],[12.3272,55.6854],[12.3273,55.6856],[12.3274,55.6856],[12.3276,55.6857],[12.3277,55.6858],[12.3278,55.6858],[12.3279,55.6857],[12.3278,55.6858]]]},"properties":{"sourceId":"ais_par3.135344","a_type":5120,"hectares":0.338}},{"type":"Feature","id":"ais_par3.135345","geometry":{"type":"Polygon","coordinates":[[[12.3422,55.6764],[12.3421,55.6766],[12.3421,55.6767],[12.3421,55.6768],[12.3422,55.6769],[12.3423,55.677],[12.3425,55.677],[12.3428,55.677],[12.3429,55.677],[12.3431,55.677],[12.3431,55.6769],[12.3431,55.6768],[12.343,55.6767],[12.343,55.6766],[12.3429,55.6765],[12.3429,55.6764],[12.3427,55.6764],[12.3425,55.6764],[12.3423,55.6764],[12.3422,55.6765],[12.3422,55.6764]]]},"properties":{"sourceId":"ais_par3.135345","a_type":5120,"hectares":0.353}},{"type":"Feature","id":"ais_par3.135346","geometry":{"type":"Polygon","coordinates":[[[12.3532,55.7037],[12.3536,55.7037],[12.354,55.7037],[12.3547,55.7037],[12.3551,55.7037],[12.3555,55.7037],[12.3559,55.7037],[12.3559,55.7036],[12.3558,55.7035],[12.3556,55.7034],[12.3552,55.7034],[12.3546,55.7034],[12.3541,55.7035],[12.3539,55.7035],[12.3535,55.7035],[12.3533,55.7035],[12.3531,55.7035],[12.353,55.7036],[12.3529,55.7037],[12.3532,55.7037]]]},"properties":{"sourceId":"ais_par3.135346","a_type":5120,"hectares":0.501}},{"type":"Feature","id":"ais_par3.135350","geometry":{"type":"Polygon","coordinates":[[[12.3808,55.6786],[12.3811,55.6783],[12.3813,55.6781],[12.3809,55.678],[12.3806,55.678],[12.3802,55.678],[12.3801,55.6782],[12.3801,55.6784],[12.3801,55.6786],[12.3802,55.6788],[12.3803,55.679],[12.3806,55.6791],[12.3808,55.6791],[12.381,55.679],[12.3811,55.6789],[12.381,55.6787],[12.3809,55.6786],[12.3808,55.6786]]]},"properties":{"sourceId":"ais_par3.135350","a_type":5120,"hectares":0.632}},{"type":"Feature","id":"ais_par3.135351","geometry":{"type":"Polygon","coordinates":[[[12.3801,55.6893],[12.3802,55.6892],[12.3802,55.689],[12.3801,55.6888],[12.3799,55.6887],[12.3797,55.6885],[12.3795,55.6884],[12.3793,55.6883],[12.3791,55.6883],[12.379,55.6884],[12.3789,55.6885],[12.3789,55.6887],[12.3789,55.6889],[12.3789,55.689],[12.3789,55.6891],[12.379,55.6892],[12.3793,55.6893],[12.3796,55.6893],[12.38,55.6893],[12.3801,55.6893]]]},"properties":{"sourceId":"ais_par3.135351","a_type":5120,"hectares":0.689}},{"type":"Feature","id":"ais_par3.135353","geometry":{"type":"Polygon","coordinates":[[[12.3562,55.7044],[12.356,55.7044],[12.3554,55.7044],[12.3551,55.7045],[12.3544,55.7045],[12.3541,55.7045],[12.3539,55.7045],[12.3537,55.7046],[12.354,55.7046],[12.3542,55.7046],[12.3544,55.7046],[12.3546,55.7047],[12.3547,55.7048],[12.3546,55.7049],[12.3547,55.705],[12.3548,55.7051],[12.3548,55.7053],[12.355,55.7054],[12.3551,55.7055],[12.3551,55.7056],[12.3552,55.7057],[12.3553,55.7058],[12.3554,55.706],[12.3555,55.7059],[12.3555,55.7059],[12.3555,55.7058],[12.3554,55.7056],[12.3555,55.7055],[12.3557,55.7053],[12.3558,55.705],[12.356,55.7049],[12.3562,55.7048],[12.3564,55.7046],[12.3565,55.7045],[12.3565,55.7044],[12.3562,55.7044]],[[12.3554,55.7054],[12.3553,55.7054],[12.3552,55.7054],[12.3551,55.7053],[12.355,55.7052],[12.355,55.7051],[12.355,55.7051],[12.3551,55.7051],[12.355,55.705],[12.355,55.7049],[12.3549,55.7048],[12.3549,55.7048],[12.3549,55.7047],[12.3549,55.7046],[12.3551,55.7046],[12.3552,55.7045],[12.3553,55.7045],[12.3555,55.7045],[12.3554,55.7046],[12.3554,55.7047],[12.3553,55.7048],[12.3552,55.7049],[12.3552,55.705],[12.3552,55.7052],[12.3553,55.7052],[12.3555,55.7052],[12.3554,55.7054]]]},"properties":{"sourceId":"ais_par3.135353","a_type":5120,"hectares":0.917}},{"type":"Feature","id":"ais_par3.135354","geometry":{"type":"Polygon","coordinates":[[[12.3604,55.6814],[12.3605,55.6815],[12.3606,55.6816],[12.3607,55.6817],[12.3609,55.6817],[12.3611,55.6817],[12.3614,55.6816],[12.3615,55.6816],[12.3617,55.6816],[12.3619,55.6815],[12.3621,55.6814],[12.3622,55.6814],[12.3623,55.6812],[12.3623,55.6811],[12.3622,55.681],[12.362,55.6809],[12.3617,55.6807],[12.3614,55.6807],[12.3611,55.6808],[12.3608,55.6808],[12.3605,55.6809],[12.3601,55.6809],[12.3598,55.681],[12.3596,55.6811],[12.3594,55.6811],[12.3591,55.6811],[12.3589,55.681],[12.3585,55.681],[12.3583,55.681],[12.3581,55.681],[12.3578,55.681],[12.3578,55.6811],[12.3578,55.6812],[12.3579,55.6813],[12.3581,55.6814],[12.3582,55.6815],[12.3584,55.6816],[12.3586,55.6817],[12.3589,55.6817],[12.3592,55.6817],[12.3595,55.6817],[12.3598,55.6816],[12.36,55.6815],[12.3601,55.6814],[12.3603,55.6814],[12.3604,55.6814]]]},"properties":{"sourceId":"ais_par3.135354","a_type":5120,"hectares":2.04}},{"type":"Feature","id":"ais_par3.135399","geometry":{"type":"Polygon","coordinates":[[[12.3848,55.7046],[12.3848,55.7045],[12.3847,55.7045],[12.3845,55.7045],[12.3843,55.7044],[12.3842,55.7044],[12.3841,55.7045],[12.3842,55.7045],[12.3844,55.7045],[12.3846,55.7046],[12.3847,55.7046],[12.3848,55.7046]]]},"properties":{"sourceId":"ais_par3.135399","a_type":5120,"hectares":0.045}},{"type":"Feature","id":"ais_par3.135400","geometry":{"type":"Polygon","coordinates":[[[12.3758,55.7062],[12.3758,55.7061],[12.3758,55.7059],[12.3757,55.7059],[12.3756,55.7059],[12.3756,55.7059],[12.3756,55.706],[12.3755,55.7061],[12.3756,55.7062],[12.3757,55.7062],[12.3758,55.7062]]]},"properties":{"sourceId":"ais_par3.135400","a_type":5120,"hectares":0.045}},{"type":"Feature","id":"ais_par3.135401","geometry":{"type":"Polygon","coordinates":[[[12.3768,55.7024],[12.3771,55.7024],[12.3772,55.7023],[12.3772,55.7022],[12.377,55.7022],[12.3769,55.7022],[12.3768,55.7023],[12.3768,55.7024]]]},"properties":{"sourceId":"ais_par3.135401","a_type":5120,"hectares":0.046}},{"type":"Feature","id":"ais_par3.135426","geometry":{"type":"Polygon","coordinates":[[[12.3629,55.7057],[12.363,55.7057],[12.3632,55.7057],[12.3633,55.7058],[12.3634,55.7058],[12.3635,55.7057],[12.3634,55.7057],[12.3633,55.7056],[12.3632,55.7055],[12.3629,55.7056],[12.3629,55.7057]]]},"properties":{"sourceId":"ais_par3.135426","a_type":5120,"hectares":0.065}},{"type":"Feature","id":"ais_par3.135439","geometry":{"type":"Polygon","coordinates":[[[12.3697,55.7079],[12.3698,55.7078],[12.3695,55.7077],[12.3693,55.7076],[12.3692,55.7075],[12.369,55.7075],[12.3692,55.7077],[12.3694,55.7078],[12.3696,55.7079],[12.3697,55.7079]]]},"properties":{"sourceId":"ais_par3.135439","a_type":5120,"hectares":0.08}},{"type":"Feature","id":"ais_par3.135456","geometry":{"type":"Polygon","coordinates":[[[12.3654,55.7054],[12.3653,55.7053],[12.3651,55.7053],[12.3647,55.7053],[12.3646,55.7053],[12.3645,55.7053],[12.3645,55.7054],[12.3646,55.7055],[12.3647,55.7055],[12.365,55.7055],[12.3651,55.7054],[12.3653,55.7054],[12.3654,55.7054],[12.3655,55.7054],[12.3654,55.7054]]]},"properties":{"sourceId":"ais_par3.135456","a_type":5120,"hectares":0.109}},{"type":"Feature","id":"ais_par3.135463","geometry":{"type":"Polygon","coordinates":[[[12.371,55.7081],[12.3709,55.7079],[12.3709,55.7078],[12.3706,55.7077],[12.3703,55.7077],[12.3702,55.7077],[12.3703,55.7079],[12.3706,55.708],[12.3709,55.7081],[12.371,55.7081]]]},"properties":{"sourceId":"ais_par3.135463","a_type":5120,"hectares":0.118}},{"type":"Feature","id":"ais_par3.135484","geometry":{"type":"Polygon","coordinates":[[[12.3822,55.7029],[12.3824,55.7029],[12.3825,55.7028],[12.3826,55.7028],[12.3827,55.7026],[12.3828,55.7025],[12.3828,55.7024],[12.3827,55.7023],[12.3827,55.7023],[12.3826,55.7023],[12.3825,55.7024],[12.3823,55.7025],[12.3822,55.7026],[12.3822,55.7027],[12.3821,55.7027],[12.3821,55.7028],[12.3822,55.7029],[12.3822,55.7029]]]},"properties":{"sourceId":"ais_par3.135484","a_type":5120,"hectares":0.167}},{"type":"Feature","id":"ais_par3.135541","geometry":{"type":"Polygon","coordinates":[[[12.375,55.7071],[12.375,55.7069],[12.375,55.7069],[12.3746,55.7066],[12.3743,55.7065],[12.374,55.7064],[12.3739,55.7066],[12.3738,55.7066],[12.3737,55.7068],[12.3736,55.7069],[12.3735,55.7071],[12.3732,55.7072],[12.3728,55.7074],[12.3724,55.7074],[12.3722,55.7077],[12.3725,55.7078],[12.3727,55.7077],[12.3736,55.7076],[12.3741,55.7075],[12.3745,55.7074],[12.3749,55.7073],[12.375,55.7071]]]},"properties":{"sourceId":"ais_par3.135541","a_type":5120,"hectares":1.21}},{"type":"Feature","id":"ais_par3.135549","geometry":{"type":"Polygon","coordinates":[[[12.3688,55.7122],[12.3692,55.7122],[12.3696,55.7122],[12.3699,55.7122],[12.3704,55.7121],[12.3708,55.7121],[12.3712,55.712],[12.3716,55.7119],[12.372,55.7119],[12.3724,55.7118],[12.3726,55.7117],[12.3728,55.7116],[12.373,55.7116],[12.3731,55.7115],[12.3731,55.7113],[12.3731,55.7112],[12.3731,55.711],[12.3731,55.711],[12.3727,55.7108],[12.3722,55.7107],[12.3717,55.7107],[12.3711,55.7107],[12.3707,55.7107],[12.3702,55.7107],[12.3697,55.7108],[12.3694,55.7108],[12.369,55.7109],[12.3686,55.7111],[12.3683,55.7112],[12.368,55.7113],[12.3679,55.7114],[12.3677,55.7115],[12.3676,55.7117],[12.3677,55.7119],[12.3678,55.7119],[12.3679,55.712],[12.3681,55.7121],[12.3685,55.7122],[12.3688,55.7122]]]},"properties":{"sourceId":"ais_par3.135549","a_type":5120,"hectares":4.431}},{"type":"Feature","id":"ais_par3.135715","geometry":{"type":"Polygon","coordinates":[[[12.3993,55.6946],[12.3992,55.6947],[12.3992,55.6948],[12.3992,55.6948],[12.3993,55.6949],[12.3994,55.6949],[12.3996,55.6949],[12.3996,55.6948],[12.3997,55.6947],[12.3996,55.6947],[12.3996,55.6946],[12.3995,55.6946],[12.3995,55.6945],[12.3995,55.6945],[12.3994,55.6945],[12.3994,55.6945],[12.3993,55.6945],[12.3993,55.6946],[12.3993,55.6946],[12.3993,55.6947],[12.3993,55.6946]]]},"properties":{"sourceId":"ais_par3.135715","a_type":5120,"hectares":0.098}},{"type":"Feature","id":"ais_par3.135721","geometry":{"type":"Polygon","coordinates":[[[12.3994,55.6885],[12.3994,55.6883],[12.3993,55.6882],[12.3992,55.6881],[12.399,55.6881],[12.3989,55.688],[12.3988,55.688],[12.3986,55.688],[12.3985,55.688],[12.3983,55.6881],[12.3982,55.6882],[12.3982,55.6882],[12.3984,55.6883],[12.3984,55.6883],[12.3985,55.6883],[12.3987,55.6884],[12.3988,55.6884],[12.3989,55.6884],[12.3991,55.6884],[12.3992,55.6885],[12.3993,55.6885],[12.3994,55.6885],[12.3994,55.6885]]]},"properties":{"sourceId":"ais_par3.135721","a_type":5120,"hectares":0.238}},{"type":"Feature","id":"ais_par3.135722","geometry":{"type":"Polygon","coordinates":[[[12.3907,55.7027],[12.3907,55.7028],[12.3908,55.7029],[12.3909,55.703],[12.3913,55.7033],[12.3915,55.7034],[12.3917,55.7035],[12.3919,55.7035],[12.3921,55.7034],[12.3922,55.7033],[12.3923,55.7032],[12.3923,55.703],[12.3922,55.7029],[12.3922,55.7029],[12.3919,55.7028],[12.3916,55.7028],[12.3914,55.7026],[12.3913,55.7025],[12.3912,55.7025],[12.391,55.7026],[12.3909,55.7026],[12.3907,55.7026],[12.3907,55.7027]],[[12.391,55.703],[12.391,55.703],[12.391,55.7029],[12.3911,55.7028],[12.3911,55.7027],[12.3912,55.7027],[12.3913,55.7028],[12.3914,55.7028],[12.3914,55.7029],[12.3914,55.703],[12.3914,55.7031],[12.3913,55.7031],[12.3912,55.7031],[12.391,55.703]]]},"properties":{"sourceId":"ais_par3.135722","a_type":5120,"hectares":0.536}},{"type":"Feature","id":"ais_par3.135902","geometry":{"type":"Polygon","coordinates":[[[12.3169,55.6801],[12.3168,55.6802],[12.3169,55.6803],[12.317,55.6803],[12.3171,55.6803],[12.3171,55.6802],[12.317,55.6802],[12.3169,55.6801],[12.3169,55.6801]]]},"properties":{"sourceId":"ais_par3.135902","a_type":5120,"hectares":0.029}},{"type":"Feature","id":"ais_par3.135979","geometry":{"type":"Polygon","coordinates":[[[12.3199,55.6832],[12.3201,55.6831],[12.3201,55.6831],[12.3201,55.683],[12.3201,55.6829],[12.32,55.6828],[12.3199,55.6829],[12.3199,55.683],[12.3199,55.6831],[12.32,55.6832],[12.3199,55.6832]]]},"properties":{"sourceId":"ais_par3.135979","a_type":5120,"hectares":0.054}},{"type":"Feature","id":"ais_par3.136007","geometry":{"type":"Polygon","coordinates":[[[12.3156,55.6846],[12.3157,55.6846],[12.3158,55.6846],[12.3158,55.6845],[12.3156,55.6844],[12.3154,55.6844],[12.3152,55.6844],[12.3152,55.6844],[12.3152,55.6845],[12.3153,55.6846],[12.3155,55.6846],[12.3156,55.6846]]]},"properties":{"sourceId":"ais_par3.136007","a_type":5120,"hectares":0.071}},{"type":"Feature","id":"ais_par3.136215","geometry":{"type":"Polygon","coordinates":[[[12.3271,55.7021],[12.3272,55.7021],[12.3273,55.7021],[12.3276,55.7021],[12.3277,55.7021],[12.3277,55.7021],[12.3275,55.7021],[12.3273,55.7021],[12.3271,55.7021]]]},"properties":{"sourceId":"ais_par3.136215","a_type":5120,"hectares":0.017}},{"type":"Feature","id":"ais_par3.136216","geometry":{"type":"Polygon","coordinates":[[[12.3162,55.7028],[12.3162,55.7027],[12.3162,55.7027],[12.3161,55.7028],[12.3159,55.7028],[12.3159,55.7029],[12.3159,55.7029],[12.316,55.7029],[12.3161,55.7028],[12.3161,55.7028],[12.3162,55.7028]]]},"properties":{"sourceId":"ais_par3.136216","a_type":5120,"hectares":0.018}},{"type":"Feature","id":"ais_par3.136255","geometry":{"type":"Polygon","coordinates":[[[12.3335,55.7003],[12.3334,55.7002],[12.3332,55.7002],[12.333,55.7002],[12.333,55.7003],[12.3332,55.7004],[12.3333,55.7004],[12.3335,55.7003],[12.3334,55.7002],[12.3335,55.7003]]]},"properties":{"sourceId":"ais_par3.136255","a_type":5120,"hectares":0.065}},{"type":"Feature","id":"ais_par3.136260","geometry":{"type":"Polygon","coordinates":[[[12.3198,55.6995],[12.3197,55.6994],[12.3198,55.6993],[12.3198,55.6992],[12.3194,55.6994],[12.3195,55.6995],[12.3196,55.6996],[12.3198,55.6995],[12.3198,55.6995]]]},"properties":{"sourceId":"ais_par3.136260","a_type":5120,"hectares":0.068}},{"type":"Feature","id":"ais_par3.136264","geometry":{"type":"Polygon","coordinates":[[[12.3257,55.7126],[12.3259,55.7125],[12.3261,55.7124],[12.3261,55.7123],[12.326,55.7122],[12.3258,55.7122],[12.3257,55.7124],[12.3257,55.7125],[12.3257,55.7126]]]},"properties":{"sourceId":"ais_par3.136264","a_type":5120,"hectares":0.072}},{"type":"Feature","id":"ais_par3.136278","geometry":{"type":"Polygon","coordinates":[[[12.312,55.7135],[12.312,55.7133],[12.3117,55.7133],[12.3116,55.7134],[12.3116,55.7135],[12.3116,55.7135],[12.3114,55.7135],[12.3113,55.7136],[12.3112,55.7137],[12.3115,55.7137],[12.3117,55.7136],[12.3118,55.7135],[12.312,55.7135],[12.312,55.7135]]]},"properties":{"sourceId":"ais_par3.136278","a_type":5120,"hectares":0.103}},{"type":"Feature","id":"ais_par3.136308","geometry":{"type":"Polygon","coordinates":[[[12.338,55.7126],[12.338,55.7128],[12.3383,55.7129],[12.3388,55.7128],[12.3389,55.7128],[12.339,55.7128],[12.339,55.7126],[12.3387,55.7126],[12.3383,55.7125],[12.338,55.7126]]]},"properties":{"sourceId":"ais_par3.136308","a_type":5120,"hectares":0.191}},{"type":"Feature","id":"ais_par3.136808","geometry":{"type":"Polygon","coordinates":[[[12.3302,55.701],[12.3295,55.7011],[12.3287,55.7012],[12.3282,55.7013],[12.3281,55.7014],[12.3284,55.7017],[12.3289,55.7018],[12.3293,55.7019],[12.3299,55.7018],[12.3304,55.7017],[12.3303,55.7012],[12.3302,55.701]]]},"properties":{"sourceId":"ais_par3.136808","a_type":4120,"hectares":0.972}},{"type":"Feature","id":"ais_par3.136996","geometry":{"type":"Polygon","coordinates":[[[12.3837,55.6907],[12.3835,55.6906],[12.3833,55.6906],[12.3832,55.6907],[12.3831,55.6908],[12.383,55.6909],[12.383,55.6911],[12.383,55.6911],[12.3833,55.6912],[12.3832,55.6912],[12.3832,55.6911],[12.3833,55.6911],[12.3835,55.6911],[12.3835,55.691],[12.3835,55.6909],[12.3834,55.6908],[12.3833,55.6908],[12.3834,55.6907],[12.3835,55.6907],[12.3837,55.6908],[12.3838,55.6908],[12.3837,55.6907]]]},"properties":{"sourceId":"ais_par3.136996","a_type":4120,"hectares":0.125}},{"type":"Feature","id":"ais_par3.136997","geometry":{"type":"Polygon","coordinates":[[[12.3554,55.7054],[12.3555,55.7052],[12.3553,55.7052],[12.3552,55.7052],[12.3552,55.705],[12.3552,55.7049],[12.3553,55.7048],[12.3554,55.7047],[12.3554,55.7046],[12.3555,55.7045],[12.3553,55.7045],[12.3552,55.7045],[12.3551,55.7046],[12.3549,55.7046],[12.3549,55.7047],[12.3549,55.7048],[12.3549,55.7048],[12.355,55.7049],[12.355,55.705],[12.3551,55.7051],[12.355,55.7051],[12.355,55.7051],[12.355,55.7052],[12.3551,55.7053],[12.3552,55.7054],[12.3553,55.7054],[12.3554,55.7054]]]},"properties":{"sourceId":"ais_par3.136997","a_type":4120,"hectares":0.198}},{"type":"Feature","id":"ais_par3.136998","geometry":{"type":"Polygon","coordinates":[[[12.3479,55.7068],[12.3479,55.707],[12.3478,55.7072],[12.3478,55.7073],[12.348,55.7074],[12.3482,55.7075],[12.3485,55.7074],[12.3489,55.7072],[12.3491,55.707],[12.3493,55.7069],[12.3489,55.7069],[12.3485,55.7069],[12.3483,55.7069],[12.348,55.7068],[12.3479,55.7068]]]},"properties":{"sourceId":"ais_par3.136998","a_type":4120,"hectares":0.399}},{"type":"Feature","id":"ais_par3.136999","geometry":{"type":"Polygon","coordinates":[[[12.3174,55.6877],[12.3171,55.688],[12.317,55.6882],[12.3174,55.6882],[12.3183,55.6883],[12.3184,55.6881],[12.318,55.688],[12.3182,55.6878],[12.3183,55.6876],[12.3177,55.6875],[12.3174,55.6877]]]},"properties":{"sourceId":"ais_par3.136999","a_type":4120,"hectares":0.514}},{"type":"Feature","id":"ais_par3.137000","geometry":{"type":"Polygon","coordinates":[[[12.3295,55.6992],[12.3298,55.6992],[12.3301,55.6992],[12.3304,55.6993],[12.3308,55.6993],[12.331,55.6994],[12.3312,55.6995],[12.3313,55.6996],[12.3314,55.6998],[12.3315,55.6999],[12.3317,55.6999],[12.3319,55.6999],[12.3319,55.6998],[12.3319,55.6996],[12.3318,55.6993],[12.3318,55.6992],[12.3317,55.6991],[12.3316,55.6991],[12.3313,55.699],[12.3309,55.699],[12.3306,55.6989],[12.3303,55.6989],[12.33,55.699],[12.3297,55.699],[12.3296,55.699],[12.3295,55.6991],[12.3294,55.6992],[12.3295,55.6992],[12.3295,55.6992]],[[12.3316,55.6998],[12.3316,55.6998],[12.3315,55.6997],[12.3315,55.6996],[12.3314,55.6995],[12.3312,55.6994],[12.3311,55.6993],[12.3312,55.6993],[12.3313,55.6992],[12.3315,55.6992],[12.3315,55.6993],[12.3316,55.6994],[12.3317,55.6995],[12.3317,55.6996],[12.3317,55.6997],[12.3316,55.6998]]]},"properties":{"sourceId":"ais_par3.137000","a_type":4120,"hectares":0.63}},{"type":"Feature","id":"ais_par3.137001","geometry":{"type":"Polygon","coordinates":[[[12.3523,55.6806],[12.3524,55.6807],[12.3524,55.6808],[12.3525,55.681],[12.3524,55.6811],[12.3522,55.6813],[12.3521,55.6814],[12.3518,55.6815],[12.3517,55.6816],[12.3519,55.6817],[12.3521,55.6818],[12.3523,55.6818],[12.3525,55.6818],[12.3527,55.6818],[12.3527,55.6816],[12.3528,55.6815],[12.3529,55.6814],[12.3532,55.6814],[12.3534,55.6813],[12.3535,55.6812],[12.3534,55.681],[12.3532,55.6809],[12.3532,55.6808],[12.3531,55.6807],[12.3529,55.6806],[12.3527,55.6806],[12.3525,55.6805],[12.3523,55.6806],[12.3523,55.6806]]]},"properties":{"sourceId":"ais_par3.137001","a_type":4120,"hectares":0.79}},{"type":"Feature","id":"ais_par3.137002","geometry":{"type":"Polygon","coordinates":[[[12.3392,55.7043],[12.3393,55.7042],[12.3394,55.7041],[12.3394,55.7039],[12.3394,55.7037],[12.3395,55.7036],[12.3393,55.7035],[12.3392,55.7034],[12.3392,55.7032],[12.3392,55.703],[12.3392,55.7029],[12.3392,55.7028],[12.3389,55.7027],[12.3386,55.7028],[12.3383,55.7027],[12.338,55.7027],[12.3378,55.7027],[12.3375,55.7027],[12.3374,55.7028],[12.3375,55.703],[12.3376,55.7031],[12.3377,55.7032],[12.3379,55.7034],[12.338,55.7035],[12.3382,55.7037],[12.3383,55.7038],[12.3385,55.7039],[12.3387,55.7041],[12.3389,55.7042],[12.3391,55.7043],[12.3392,55.7043]],[[12.3379,55.7034],[12.3379,55.7034],[12.3379,55.7033],[12.338,55.7032],[12.3383,55.703],[12.3385,55.703],[12.3387,55.7031],[12.3389,55.7032],[12.339,55.7033],[12.3391,55.7034],[12.3389,55.7035],[12.3386,55.7034],[12.3384,55.7034],[12.3381,55.7034],[12.3379,55.7034]],[[12.3378,55.7032],[12.3377,55.7031],[12.3376,55.703],[12.3376,55.7029],[12.3376,55.7028],[12.3377,55.7028],[12.3379,55.7028],[12.3381,55.7029],[12.3381,55.7029],[12.3379,55.703],[12.3378,55.7032]],[[12.3391,55.7042],[12.3391,55.7042],[12.339,55.7041],[12.3389,55.704],[12.3387,55.7039],[12.3385,55.7038],[12.3383,55.7037],[12.3383,55.7036],[12.3384,55.7037],[12.3385,55.7038],[12.3387,55.7038],[12.3388,55.7039],[12.339,55.7039],[12.339,55.704],[12.3391,55.7041],[12.3391,55.7042]],[[12.3392,55.7031],[12.3391,55.7031],[12.3389,55.7031],[12.3388,55.703],[12.3387,55.7029],[12.3387,55.7029],[12.3389,55.7029],[12.3391,55.703],[12.3392,55.7031]],[[12.339,55.7038],[12.3389,55.7038],[12.3388,55.7038],[12.3387,55.7037],[12.3388,55.7037],[12.3389,55.7036],[12.3391,55.7037],[12.3391,55.7038],[12.339,55.7038]]]},"properties":{"sourceId":"ais_par3.137002","a_type":4120,"hectares":0.868}},{"type":"Feature","id":"ais_par3.137003","geometry":{"type":"Polygon","coordinates":[[[12.3531,55.7035],[12.3528,55.7034],[12.3525,55.7033],[12.3522,55.7032],[12.3519,55.7031],[12.3517,55.7029],[12.3515,55.7028],[12.3513,55.7027],[12.3511,55.7025],[12.3509,55.7024],[12.3507,55.7023],[12.3503,55.7022],[12.3502,55.7022],[12.3501,55.7022],[12.3499,55.7022],[12.3499,55.7024],[12.3496,55.7024],[12.3493,55.7024],[12.349,55.7024],[12.3488,55.7024],[12.3488,55.7025],[12.3489,55.7026],[12.3491,55.7027],[12.3494,55.7027],[12.3497,55.7027],[12.35,55.7028],[12.3502,55.7029],[12.3504,55.703],[12.3507,55.7031],[12.3509,55.7032],[12.3511,55.7034],[12.3514,55.7036],[12.3517,55.7037],[12.352,55.7037],[12.3522,55.7037],[12.3525,55.7037],[12.3529,55.7037],[12.353,55.7036],[12.3531,55.7035]],[[12.349,55.7025],[12.3491,55.7025],[12.3492,55.7025],[12.3493,55.7025],[12.3495,55.7025],[12.3494,55.7025],[12.3493,55.7026],[12.3492,55.7025],[12.3491,55.7026],[12.349,55.7025],[12.349,55.7025]],[[12.3502,55.7023],[12.3501,55.7023],[12.3501,55.7022],[12.3503,55.7022],[12.3503,55.7022],[12.3503,55.7023],[12.3502,55.7023]]]},"properties":{"sourceId":"ais_par3.137003","a_type":4120,"hectares":1.646}},{"type":"Feature","id":"ais_par3.137004","geometry":{"type":"Polygon","coordinates":[[[12.3183,55.6915],[12.3184,55.6913],[12.3186,55.6911],[12.3188,55.6909],[12.3184,55.6908],[12.318,55.6908],[12.3175,55.6907],[12.3167,55.6906],[12.3164,55.6905],[12.316,55.6905],[12.3156,55.6904],[12.3148,55.6903],[12.3146,55.6905],[12.3144,55.6906],[12.3143,55.6908],[12.3141,55.691],[12.3139,55.6911],[12.3142,55.6912],[12.3146,55.6912],[12.3149,55.6913],[12.3153,55.6913],[12.3158,55.6914],[12.3162,55.6914],[12.3171,55.6915],[12.3181,55.6917],[12.3183,55.6915]]]},"properties":{"sourceId":"ais_par3.137004","a_type":4120,"hectares":2.639}},{"type":"Feature","id":"ais_par3.137028","geometry":{"type":"Polygon","coordinates":[[[12.3754,55.706],[12.3753,55.7061],[12.3752,55.7062],[12.375,55.7063],[12.3748,55.7064],[12.3746,55.7064],[12.3743,55.7065],[12.3746,55.7066],[12.375,55.7069],[12.3752,55.7065],[12.3755,55.7063],[12.3757,55.7062],[12.3761,55.7062],[12.3757,55.7055],[12.3754,55.7056],[12.3754,55.7059],[12.3754,55.706]],[[12.3758,55.7062],[12.3757,55.7062],[12.3756,55.7062],[12.3755,55.7061],[12.3756,55.706],[12.3756,55.7059],[12.3756,55.7059],[12.3757,55.7059],[12.3758,55.7059],[12.3758,55.7061],[12.3758,55.7062]]]},"properties":{"sourceId":"ais_par3.137028","a_type":4120,"hectares":0.437}},{"type":"Feature","id":"ais_par3.137041","geometry":{"type":"Polygon","coordinates":[[[12.3684,55.7074],[12.3686,55.7076],[12.3689,55.7078],[12.3692,55.708],[12.3699,55.7081],[12.3705,55.7082],[12.3708,55.7083],[12.3715,55.7081],[12.3721,55.708],[12.3727,55.7079],[12.3738,55.7077],[12.3745,55.7076],[12.3747,55.7075],[12.3749,55.7073],[12.3745,55.7074],[12.3741,55.7075],[12.3736,55.7076],[12.3727,55.7077],[12.3725,55.7078],[12.3725,55.7078],[12.3722,55.7077],[12.3724,55.7074],[12.3718,55.7076],[12.3713,55.7076],[12.3709,55.7076],[12.3707,55.7076],[12.3704,55.7075],[12.3703,55.7076],[12.37,55.7076],[12.3698,55.7075],[12.3696,55.7074],[12.3694,55.7073],[12.3692,55.7072],[12.3687,55.7073],[12.3685,55.7073],[12.3684,55.7074]],[[12.371,55.7081],[12.3709,55.7081],[12.3706,55.708],[12.3703,55.7079],[12.3702,55.7077],[12.3703,55.7077],[12.3706,55.7077],[12.3709,55.7078],[12.3709,55.7079],[12.371,55.7081]],[[12.3697,55.7079],[12.3696,55.7079],[12.3694,55.7078],[12.3692,55.7077],[12.369,55.7075],[12.3692,55.7075],[12.3693,55.7076],[12.3695,55.7077],[12.3698,55.7078],[12.3697,55.7079]]]},"properties":{"sourceId":"ais_par3.137041","a_type":4120,"hectares":1.723}},{"type":"Feature","id":"ais_par3.137074","geometry":{"type":"Polygon","coordinates":[[[12.391,55.703],[12.3912,55.7031],[12.3913,55.7031],[12.3914,55.7031],[12.3914,55.703],[12.3914,55.7029],[12.3914,55.7028],[12.3913,55.7028],[12.3912,55.7027],[12.3911,55.7027],[12.3911,55.7028],[12.391,55.7029],[12.391,55.703],[12.391,55.703]]]},"properties":{"sourceId":"ais_par3.137074","a_type":4120,"hectares":0.091}},{"type":"Feature","id":"ais_par3.137077","geometry":{"type":"Polygon","coordinates":[[[12.3907,55.7026],[12.3906,55.7028],[12.3907,55.703],[12.391,55.7032],[12.3912,55.7035],[12.3914,55.7037],[12.3916,55.7039],[12.3917,55.704],[12.3919,55.704],[12.392,55.7039],[12.392,55.7038],[12.3921,55.7037],[12.3922,55.7036],[12.3922,55.7035],[12.3922,55.7035],[12.3921,55.7034],[12.3919,55.7035],[12.3917,55.7035],[12.3915,55.7034],[12.3913,55.7033],[12.3909,55.703],[12.3908,55.7029],[12.3907,55.7028],[12.3907,55.7027],[12.3907,55.7026]]]},"properties":{"sourceId":"ais_par3.137077","a_type":4120,"hectares":0.344}},{"type":"Feature","id":"ais_par3.137170","geometry":{"type":"Polygon","coordinates":[[[12.3276,55.702],[12.3274,55.702],[12.327,55.702],[12.327,55.7022],[12.327,55.7022],[12.3273,55.7022],[12.3275,55.7022],[12.3278,55.7022],[12.3277,55.702],[12.3276,55.702]],[[12.3271,55.7021],[12.3273,55.7021],[12.3275,55.7021],[12.3277,55.7021],[12.3277,55.7021],[12.3276,55.7021],[12.3273,55.7021],[12.3272,55.7021],[12.3271,55.7021]]]},"properties":{"sourceId":"ais_par3.137170","a_type":4120,"hectares":0.097}},{"type":"Feature","id":"ais_par3.137171","geometry":{"type":"Polygon","coordinates":[[[12.3157,55.703],[12.3159,55.703],[12.3162,55.7029],[12.3164,55.7028],[12.3165,55.7026],[12.3167,55.7025],[12.3168,55.7024],[12.3167,55.7023],[12.3165,55.7024],[12.3164,55.7025],[12.3162,55.7026],[12.3159,55.7027],[12.3158,55.7029],[12.3157,55.7029],[12.3157,55.703]],[[12.3162,55.7028],[12.3161,55.7028],[12.3161,55.7028],[12.316,55.7029],[12.3159,55.7029],[12.3159,55.7029],[12.3159,55.7028],[12.3161,55.7028],[12.3162,55.7027],[12.3162,55.7027],[12.3162,55.7028]]]},"properties":{"sourceId":"ais_par3.137171","a_type":4120,"hectares":0.143}},{"type":"Feature","id":"ais_par3.137181","geometry":{"type":"Polygon","coordinates":[[[12.3255,55.7126],[12.3257,55.7126],[12.3259,55.7127],[12.3262,55.7126],[12.3264,55.7126],[12.3266,55.7124],[12.3266,55.7123],[12.3264,55.7123],[12.3263,55.7124],[12.3262,55.7122],[12.3261,55.7121],[12.326,55.712],[12.3258,55.712],[12.3256,55.7121],[12.3255,55.7123],[12.3254,55.7124],[12.3254,55.7126],[12.3254,55.7126],[12.3255,55.7126]],[[12.3257,55.7126],[12.3257,55.7125],[12.3257,55.7124],[12.3258,55.7122],[12.326,55.7122],[12.3261,55.7123],[12.3261,55.7124],[12.3259,55.7125],[12.3257,55.7126]]]},"properties":{"sourceId":"ais_par3.137181","a_type":4120,"hectares":0.278}},{"type":"Feature","id":"ais_par3.137197","geometry":{"type":"Polygon","coordinates":[[[12.3546,55.7047],[12.3544,55.7046],[12.3542,55.7046],[12.354,55.7046],[12.3537,55.7046],[12.3538,55.7047],[12.3537,55.7049],[12.3536,55.705],[12.3534,55.7051],[12.3531,55.7051],[12.3528,55.7052],[12.3525,55.7052],[12.352,55.7053],[12.3514,55.7052],[12.3505,55.7051],[12.35,55.705],[12.3495,55.7049],[12.3492,55.7049],[12.3491,55.705],[12.3489,55.7052],[12.3488,55.7053],[12.3486,55.7055],[12.3484,55.7057],[12.3484,55.7058],[12.3485,55.706],[12.3486,55.7061],[12.3489,55.7062],[12.3492,55.7062],[12.3495,55.7063],[12.3496,55.7064],[12.3497,55.7065],[12.3497,55.7066],[12.3504,55.7066],[12.3509,55.7067],[12.3511,55.7067],[12.3513,55.7066],[12.3514,55.7065],[12.3518,55.7063],[12.352,55.7064],[12.3522,55.7065],[12.3526,55.7065],[12.3528,55.7066],[12.3531,55.7066],[12.3532,55.7065],[12.3533,55.7063],[12.3533,55.7065],[12.3532,55.7065],[12.3542,55.7065],[12.3548,55.7065],[12.3554,55.7064],[12.3557,55.7064],[12.3561,55.7064],[12.356,55.7061],[12.356,55.7059],[12.356,55.7057],[12.3561,55.7054],[12.3562,55.7053],[12.3563,55.7051],[12.3565,55.7049],[12.3567,55.7047],[12.3569,55.7046],[12.357,55.7045],[12.3571,55.7044],[12.3571,55.7043],[12.3569,55.7043],[12.3565,55.7044],[12.3565,55.7045],[12.3564,55.7046],[12.3562,55.7048],[12.356,55.7049],[12.3558,55.705],[12.3557,55.7053],[12.3555,55.7055],[12.3554,55.7056],[12.3555,55.7058],[12.3555,55.7059],[12.3555,55.7059],[12.3554,55.706],[12.3553,55.7058],[12.3552,55.7057],[12.3551,55.7056],[12.3551,55.7055],[12.355,55.7054],[12.3548,55.7053],[12.3548,55.7051],[12.3547,55.705],[12.3546,55.7049],[12.3547,55.7048],[12.3546,55.7047]]]},"properties":{"sourceId":"ais_par3.137197","a_type":4120,"hectares":7.391}},{"type":"Feature","id":"ais_par3.137221","geometry":{"type":"Polygon","coordinates":[[[12.3231,55.6798],[12.323,55.6796],[12.323,55.6794],[12.323,55.6791],[12.3225,55.6791],[12.3216,55.679],[12.3216,55.6792],[12.3216,55.6795],[12.322,55.6796],[12.3225,55.6797],[12.3231,55.6798],[12.3231,55.6798]]]},"properties":{"sourceId":"ais_par3.137221","a_type":4110,"hectares":0.608}},{"type":"Feature","id":"ais_par3.137223","geometry":{"type":"Polygon","coordinates":[[[12.3423,55.676],[12.3423,55.6761],[12.3423,55.6762],[12.3422,55.6763],[12.342,55.6763],[12.3418,55.6764],[12.3417,55.6764],[12.3416,55.6766],[12.3416,55.6767],[12.3417,55.6768],[12.3417,55.6769],[12.3418,55.677],[12.3419,55.6771],[12.342,55.6772],[12.3421,55.6773],[12.3423,55.6773],[12.3426,55.6773],[12.3428,55.6773],[12.3432,55.6772],[12.3433,55.6771],[12.3435,55.677],[12.3436,55.6769],[12.3436,55.6768],[12.3436,55.6767],[12.3436,55.6766],[12.3436,55.6764],[12.3436,55.6763],[12.3436,55.6762],[12.3435,55.6761],[12.3433,55.676],[12.3431,55.676],[12.3428,55.676],[12.3425,55.676],[12.3423,55.676],[12.3423,55.676]],[[12.3422,55.6764],[12.3422,55.6765],[12.3423,55.6764],[12.3425,55.6764],[12.3427,55.6764],[12.3429,55.6764],[12.3429,55.6765],[12.343,55.6766],[12.343,55.6767],[12.3431,55.6768],[12.3431,55.6769],[12.3431,55.677],[12.3429,55.677],[12.3428,55.677],[12.3425,55.677],[12.3423,55.677],[12.3422,55.6769],[12.3421,55.6768],[12.3421,55.6767],[12.3421,55.6766],[12.3422,55.6764]]]},"properties":{"sourceId":"ais_par3.137223","a_type":4110,"hectares":1.089}},{"type":"Feature","id":"ais_par3.137224","geometry":{"type":"Polygon","coordinates":[[[12.3531,55.7044],[12.353,55.7042],[12.3529,55.7037],[12.3525,55.7037],[12.3522,55.7037],[12.352,55.7037],[12.3517,55.7037],[12.3514,55.7036],[12.3511,55.7034],[12.3509,55.7032],[12.3507,55.7031],[12.3504,55.703],[12.3502,55.7029],[12.3499,55.7029],[12.3496,55.7029],[12.3492,55.7029],[12.3491,55.7029],[12.3487,55.7029],[12.3488,55.703],[12.3489,55.7032],[12.3491,55.7034],[12.3494,55.7034],[12.3497,55.7034],[12.35,55.7036],[12.3502,55.7037],[12.3503,55.704],[12.3508,55.704],[12.3512,55.7041],[12.3522,55.7042],[12.3531,55.7044],[12.3531,55.7044]]]},"properties":{"sourceId":"ais_par3.137224","a_type":4110,"hectares":1.805}},{"type":"Feature","id":"ais_par3.137225","geometry":{"type":"Polygon","coordinates":[[[12.3214,55.6762],[12.3211,55.676],[12.3208,55.6759],[12.3202,55.6755],[12.3196,55.6751],[12.3193,55.6752],[12.3194,55.6753],[12.3191,55.6753],[12.3189,55.6753],[12.3185,55.6754],[12.3182,55.6754],[12.3185,55.6756],[12.3189,55.6759],[12.3195,55.6763],[12.3199,55.6765],[12.3204,55.6767],[12.3208,55.677],[12.3211,55.6773],[12.3214,55.6776],[12.3216,55.6779],[12.3217,55.6781],[12.3221,55.6782],[12.3226,55.6783],[12.3231,55.6784],[12.3231,55.6784],[12.323,55.678],[12.3228,55.6777],[12.3226,55.6774],[12.3224,55.6771],[12.3221,55.6768],[12.3216,55.6765],[12.3214,55.6762]]]},"properties":{"sourceId":"ais_par3.137225","a_type":4110,"hectares":3.358}},{"type":"Feature","id":"ais_par3.137226","geometry":{"type":"Polygon","coordinates":[[[12.3169,55.6934],[12.3171,55.6931],[12.3173,55.6929],[12.3175,55.6926],[12.3179,55.6921],[12.3181,55.6917],[12.3171,55.6915],[12.3162,55.6914],[12.3158,55.6914],[12.3153,55.6913],[12.3149,55.6913],[12.3146,55.6912],[12.3142,55.6912],[12.3139,55.6911],[12.3134,55.6916],[12.3132,55.6917],[12.313,55.6919],[12.3125,55.6923],[12.3122,55.6926],[12.3127,55.6927],[12.3132,55.6927],[12.3138,55.6928],[12.3149,55.693],[12.3155,55.6931],[12.3161,55.6932],[12.3169,55.6934],[12.3169,55.6934]]]},"properties":{"sourceId":"ais_par3.137226","a_type":4110,"hectares":5.52}},{"type":"Feature","id":"ais_par3.137234","geometry":{"type":"Polygon","coordinates":[[[12.3722,55.7107],[12.3727,55.7108],[12.3731,55.711],[12.3731,55.711],[12.3731,55.7112],[12.3731,55.7113],[12.3731,55.7115],[12.373,55.7116],[12.3728,55.7116],[12.3726,55.7117],[12.3724,55.7118],[12.372,55.7119],[12.3716,55.7119],[12.3712,55.712],[12.3708,55.7121],[12.3704,55.7121],[12.3699,55.7122],[12.3696,55.7122],[12.3692,55.7122],[12.3688,55.7122],[12.3689,55.7129],[12.3702,55.7129],[12.3714,55.713],[12.3727,55.7131],[12.3733,55.7128],[12.3739,55.7124],[12.3747,55.7119],[12.3755,55.7114],[12.3762,55.711],[12.3759,55.7106],[12.3755,55.71],[12.3752,55.7095],[12.3745,55.7098],[12.3738,55.7101],[12.3729,55.7103],[12.3722,55.7103],[12.3722,55.7107]]]},"properties":{"sourceId":"ais_par3.137234","a_type":4110,"hectares":7.301}},{"type":"Feature","id":"ais_par3.137256","geometry":{"type":"Polygon","coordinates":[[[12.3217,55.6845],[12.3218,55.6842],[12.322,55.6839],[12.3221,55.6836],[12.3222,55.6833],[12.3223,55.6831],[12.3223,55.6828],[12.3222,55.6826],[12.3221,55.6824],[12.322,55.6823],[12.322,55.6821],[12.3221,55.6819],[12.3223,55.6817],[12.321,55.6812],[12.3211,55.6808],[12.3212,55.6805],[12.3206,55.6803],[12.3203,55.6809],[12.32,55.6816],[12.3198,55.682],[12.3197,55.6821],[12.3202,55.6822],[12.3204,55.6822],[12.3203,55.6825],[12.3204,55.6827],[12.3207,55.6829],[12.321,55.6831],[12.3211,55.6833],[12.3211,55.6836],[12.3209,55.6842],[12.3209,55.6844],[12.3212,55.6844],[12.3214,55.6845],[12.3217,55.6845],[12.3217,55.6845]]]},"properties":{"sourceId":"ais_par3.137256","a_type":4110,"hectares":3.781}},{"type":"Feature","id":"ais_par3.137267","geometry":{"type":"Polygon","coordinates":[[[12.319,55.6907],[12.3194,55.6902],[12.3196,55.6898],[12.32,55.6893],[12.3202,55.6891],[12.3203,55.6889],[12.3203,55.6887],[12.3203,55.6884],[12.3204,55.6882],[12.3205,55.688],[12.3207,55.6876],[12.3209,55.687],[12.321,55.6868],[12.3212,55.6865],[12.3212,55.6864],[12.321,55.6863],[12.3206,55.6862],[12.3202,55.6861],[12.3197,55.686],[12.3194,55.686],[12.319,55.6859],[12.3188,55.6859],[12.3184,55.6857],[12.318,55.6855],[12.3177,55.6855],[12.3176,55.6857],[12.3173,55.686],[12.3167,55.6865],[12.3162,55.6871],[12.3154,55.6879],[12.3146,55.6886],[12.314,55.6889],[12.314,55.689],[12.3143,55.689],[12.3147,55.6891],[12.3155,55.6892],[12.3159,55.6893],[12.3155,55.6895],[12.3153,55.6898],[12.3151,55.69],[12.3148,55.6903],[12.3156,55.6904],[12.316,55.6905],[12.3164,55.6905],[12.3167,55.6906],[12.3175,55.6907],[12.318,55.6908],[12.3184,55.6908],[12.3188,55.6909],[12.319,55.6907]],[[12.3177,55.6875],[12.3183,55.6876],[12.3182,55.6878],[12.318,55.688],[12.3184,55.6881],[12.3183,55.6883],[12.3174,55.6882],[12.317,55.6882],[12.3171,55.688],[12.3174,55.6877],[12.3177,55.6875]]]},"properties":{"sourceId":"ais_par3.137267","a_type":4110,"hectares":15.152}},{"type":"Feature","id":"ais_par3.137288","geometry":{"type":"Polygon","coordinates":[[[12.3351,55.7002],[12.3349,55.7002],[12.3347,55.7001],[12.3343,55.7001],[12.3341,55.7001],[12.3338,55.7001],[12.3332,55.7001],[12.3327,55.7002],[12.3321,55.7003],[12.3317,55.7003],[12.331,55.7004],[12.3306,55.7004],[12.3299,55.7004],[12.3296,55.7004],[12.3289,55.7004],[12.3282,55.7003],[12.3274,55.7002],[12.3278,55.7008],[12.3279,55.7011],[12.3282,55.7013],[12.3287,55.7012],[12.3295,55.7011],[12.3302,55.701],[12.3306,55.7009],[12.3319,55.7008],[12.3325,55.7007],[12.3332,55.7006],[12.334,55.7004],[12.3346,55.7003],[12.3351,55.7002],[12.3351,55.7002]],[[12.3335,55.7003],[12.3334,55.7002],[12.3335,55.7003],[12.3333,55.7004],[12.3332,55.7004],[12.333,55.7003],[12.333,55.7002],[12.3332,55.7002],[12.3334,55.7002],[12.3335,55.7003]]]},"properties":{"sourceId":"ais_par3.137288","a_type":4110,"hectares":2.741}},{"type":"Feature","id":"ais_par3.137298","geometry":{"type":"Polygon","coordinates":[[[12.3083,55.6961],[12.3088,55.6961],[12.3093,55.6961],[12.3098,55.696],[12.3102,55.696],[12.3108,55.696],[12.3113,55.6959],[12.3117,55.6958],[12.3117,55.6963],[12.3123,55.6963],[12.313,55.6962],[12.3141,55.6962],[12.3147,55.6962],[12.3148,55.6959],[12.3151,55.6955],[12.3145,55.6954],[12.3138,55.6954],[12.3126,55.6953],[12.3122,55.6952],[12.3119,55.695],[12.3117,55.6948],[12.3115,55.6945],[12.3114,55.6942],[12.3113,55.6939],[12.311,55.6937],[12.3104,55.6938],[12.3099,55.694],[12.3092,55.6941],[12.3087,55.6943],[12.308,55.6944],[12.3074,55.6945],[12.307,55.6945],[12.3066,55.6945],[12.307,55.6949],[12.3074,55.6952],[12.3078,55.6956],[12.3081,55.6959],[12.3083,55.6961],[12.3083,55.6961]]]},"properties":{"sourceId":"ais_par3.137298","a_type":4110,"hectares":7.779}},{"type":"Feature","id":"ais_par3.135314","geometry":{"type":"Polygon","coordinates":[[[12.3451,55.6476],[12.3452,55.6476],[12.3452,55.6475],[12.3452,55.6474],[12.345,55.6474],[12.345,55.6475],[12.3451,55.6476],[12.3451,55.6476]]]},"properties":{"sourceId":"ais_par3.135314","a_type":5120,"hectares":0.019}},{"type":"Feature","id":"ais_par3.135143","geometry":{"type":"Polygon","coordinates":[[[12.3598,55.6533],[12.3597,55.6532],[12.3596,55.6531],[12.3597,55.6531],[12.3597,55.653],[12.3598,55.653],[12.3598,55.6529],[12.3596,55.653],[12.3594,55.653],[12.3593,55.653],[12.3592,55.6532],[12.3593,55.6533],[12.3594,55.6533],[12.3595,55.6534],[12.3596,55.6534],[12.3597,55.6534],[12.3598,55.6534],[12.3598,55.6533]]]},"properties":{"sourceId":"ais_par3.135143","a_type":5120,"hectares":0.141}},{"type":"Feature","id":"ais_par3.135144","geometry":{"type":"Polygon","coordinates":[[[12.369,55.6436],[12.3692,55.6436],[12.3696,55.6436],[12.3699,55.6436],[12.3701,55.6437],[12.3703,55.6437],[12.3708,55.6436],[12.3708,55.6435],[12.3707,55.6433],[12.3706,55.6432],[12.3702,55.6432],[12.3698,55.6432],[12.3694,55.6433],[12.3691,55.6433],[12.3689,55.6434],[12.3688,55.6435],[12.3688,55.6436],[12.369,55.6436]]]},"properties":{"sourceId":"ais_par3.135144","a_type":5120,"hectares":0.528}},{"type":"Feature","id":"ais_par3.135294","geometry":{"type":"Polygon","coordinates":[[[12.3432,55.6439],[12.3437,55.6437],[12.3442,55.6438],[12.3446,55.6439],[12.3451,55.6442],[12.3452,55.6444],[12.3452,55.6447],[12.3457,55.6447],[12.3462,55.6447],[12.3465,55.6448],[12.347,55.6447],[12.3474,55.6446],[12.3477,55.6446],[12.3478,55.6449],[12.3478,55.6453],[12.348,55.6455],[12.3483,55.6456],[12.3486,55.6456],[12.3492,55.6456],[12.3497,55.6456],[12.3501,55.6454],[12.3504,55.6452],[12.3507,55.645],[12.351,55.6446],[12.3512,55.6443],[12.3518,55.6437],[12.3519,55.6435],[12.352,55.6432],[12.3521,55.6429],[12.3515,55.6427],[12.3508,55.6426],[12.3501,55.6425],[12.3497,55.6428],[12.3493,55.6432],[12.3489,55.6434],[12.3484,55.6436],[12.3479,55.6437],[12.3475,55.6438],[12.347,55.6438],[12.3465,55.6437],[12.3459,55.6435],[12.3455,55.6434],[12.345,55.6433],[12.3449,55.643],[12.3449,55.6428],[12.3452,55.6427],[12.3457,55.6424],[12.3459,55.6422],[12.3456,55.642],[12.3451,55.6419],[12.3445,55.6419],[12.3431,55.6421],[12.3426,55.6422],[12.3422,55.6423],[12.3411,55.6425],[12.3407,55.6426],[12.3403,55.6428],[12.3399,55.6431],[12.3396,55.6432],[12.3392,55.6434],[12.339,55.6436],[12.3389,55.6438],[12.3387,55.644],[12.3386,55.6442],[12.3386,55.6443],[12.3391,55.6443],[12.3396,55.6442],[12.34,55.6443],[12.3405,55.6444],[12.3408,55.6445],[12.341,55.6447],[12.3413,55.6449],[12.3416,55.6448],[12.342,55.6448],[12.3424,55.6447],[12.3424,55.6445],[12.3425,55.6443],[12.3426,55.6442],[12.3427,55.6441],[12.3427,55.644],[12.3432,55.6439]],[[12.3399,55.6438],[12.34,55.644],[12.3399,55.6439],[12.3399,55.6437],[12.3397,55.6436],[12.3397,55.6436],[12.3399,55.6435],[12.3401,55.6433],[12.3402,55.6432],[12.3405,55.6431],[12.3407,55.6433],[12.3408,55.6434],[12.3408,55.6436],[12.3407,55.6437],[12.3405,55.6439],[12.3403,55.644],[12.34,55.644],[12.3399,55.6438]]]},"properties":{"sourceId":"ais_par3.135294","a_type":5120,"hectares":15.915}},{"type":"Feature","id":"ais_par3.135318","geometry":{"type":"Polygon","coordinates":[[[12.3301,55.6597],[12.3303,55.6597],[12.3304,55.6596],[12.3303,55.6596],[12.3301,55.6596],[12.3301,55.6596],[12.3301,55.6597],[12.3301,55.6597]]]},"properties":{"sourceId":"ais_par3.135318","a_type":5120,"hectares":0.027}},{"type":"Feature","id":"ais_par3.135328","geometry":{"type":"Polygon","coordinates":[[[12.3656,55.6637],[12.3656,55.6638],[12.3659,55.6638],[12.3662,55.6638],[12.3664,55.6638],[12.3667,55.6638],[12.3669,55.6638],[12.367,55.6638],[12.3667,55.6637],[12.3664,55.6637],[12.3661,55.6637],[12.3658,55.6637],[12.3657,55.6637],[12.3656,55.6637]]]},"properties":{"sourceId":"ais_par3.135328","a_type":5120,"hectares":0.088}},{"type":"Feature","id":"ais_par3.135334","geometry":{"type":"Polygon","coordinates":[[[12.3347,55.6528],[12.3348,55.6528],[12.3349,55.6528],[12.3348,55.6527],[12.3348,55.6524],[12.3346,55.6524],[12.3346,55.6521],[12.3346,55.6521],[12.3342,55.652],[12.3342,55.6523],[12.3344,55.6523],[12.3345,55.6526],[12.3347,55.6526],[12.3347,55.6528]]]},"properties":{"sourceId":"ais_par3.135334","a_type":5120,"hectares":0.155}},{"type":"Feature","id":"ais_par3.135336","geometry":{"type":"Polygon","coordinates":[[[12.3444,55.6622],[12.3447,55.6622],[12.3451,55.6622],[12.3454,55.6623],[12.3455,55.6622],[12.3454,55.6621],[12.3452,55.662],[12.345,55.6619],[12.3446,55.6619],[12.3444,55.6619],[12.3443,55.662],[12.3443,55.6621],[12.3444,55.6622]]]},"properties":{"sourceId":"ais_par3.135336","a_type":5120,"hectares":0.2}},{"type":"Feature","id":"ais_par3.135337","geometry":{"type":"Polygon","coordinates":[[[12.3165,55.6697],[12.3163,55.6698],[12.3163,55.6698],[12.3164,55.6699],[12.3166,55.67],[12.3169,55.6701],[12.3171,55.6702],[12.3174,55.6703],[12.3176,55.6704],[12.3177,55.6707],[12.3178,55.6708],[12.3179,55.6706],[12.3177,55.6704],[12.3175,55.6703],[12.3168,55.6698],[12.3166,55.6698],[12.3165,55.6698],[12.3165,55.6697]]]},"properties":{"sourceId":"ais_par3.135337","a_type":5120,"hectares":0.201}},{"type":"Feature","id":"ais_par3.135347","geometry":{"type":"Polygon","coordinates":[[[12.3245,55.6592],[12.3245,55.6592],[12.3247,55.6594],[12.3248,55.6593],[12.3248,55.6589],[12.3249,55.6587],[12.3251,55.6585],[12.3252,55.6582],[12.3254,55.658],[12.3256,55.6577],[12.3253,55.6578],[12.3251,55.658],[12.3247,55.6581],[12.3245,55.6583],[12.3243,55.6585],[12.3242,55.6587],[12.3242,55.6589],[12.3243,55.659],[12.3245,55.6592]]]},"properties":{"sourceId":"ais_par3.135347","a_type":5120,"hectares":0.577}},{"type":"Feature","id":"ais_par3.135348","geometry":{"type":"Polygon","coordinates":[[[12.361,55.6699],[12.3609,55.6701],[12.3609,55.6702],[12.361,55.6704],[12.3612,55.6705],[12.3615,55.6706],[12.3618,55.6706],[12.3622,55.6705],[12.3623,55.6705],[12.3624,55.6703],[12.3624,55.6702],[12.3622,55.67],[12.362,55.6699],[12.3614,55.6699],[12.3612,55.6699],[12.3611,55.6699],[12.361,55.6699]]]},"properties":{"sourceId":"ais_par3.135348","a_type":5120,"hectares":0.588}},{"type":"Feature","id":"ais_par3.135349","geometry":{"type":"Polygon","coordinates":[[[12.3725,55.6701],[12.3725,55.6702],[12.3726,55.6703],[12.3727,55.6704],[12.373,55.6704],[12.3733,55.6704],[12.3737,55.6703],[12.374,55.6703],[12.3745,55.6703],[12.3745,55.6702],[12.3745,55.6701],[12.3742,55.67],[12.3735,55.6699],[12.3728,55.6698],[12.3726,55.6698],[12.3725,55.6699],[12.3725,55.6701]]]},"properties":{"sourceId":"ais_par3.135349","a_type":5120,"hectares":0.614}},{"type":"Feature","id":"ais_par3.135352","geometry":{"type":"Polygon","coordinates":[[[12.354,55.6741],[12.3538,55.6741],[12.3536,55.6741],[12.3533,55.6741],[12.353,55.674],[12.3528,55.6739],[12.3525,55.6739],[12.3523,55.674],[12.3521,55.6741],[12.352,55.6742],[12.352,55.6743],[12.3522,55.6744],[12.3523,55.6744],[12.3527,55.6743],[12.3533,55.6742],[12.3535,55.6742],[12.3537,55.6742],[12.354,55.6742],[12.3543,55.6742],[12.3545,55.6741],[12.3546,55.674],[12.3546,55.6738],[12.3546,55.6737],[12.3545,55.6736],[12.3544,55.6735],[12.3543,55.6734],[12.3541,55.6734],[12.3539,55.6734],[12.3538,55.6735],[12.3538,55.6737],[12.3539,55.6738],[12.354,55.6739],[12.354,55.674],[12.354,55.6741]]]},"properties":{"sourceId":"ais_par3.135352","a_type":5120,"hectares":0.713}},{"type":"Feature","id":"ais_par3.135556","geometry":{"type":"Polygon","coordinates":[[[12.3687,55.6593],[12.3688,55.6593],[12.3688,55.6592],[12.3686,55.6591],[12.3684,55.6591],[12.3683,55.6591],[12.3682,55.6591],[12.3681,55.6591],[12.3682,55.6592],[12.3682,55.6593],[12.3684,55.6593],[12.3685,55.6593],[12.3686,55.6593],[12.3687,55.6593],[12.3687,55.6593]]]},"properties":{"sourceId":"ais_par3.135556","a_type":5120,"hectares":0.084}},{"type":"Feature","id":"ais_par3.135563","geometry":{"type":"Polygon","coordinates":[[[12.3849,55.6525],[12.3852,55.6526],[12.3856,55.6526],[12.3859,55.6527],[12.3861,55.6528],[12.3863,55.6528],[12.3865,55.6527],[12.3864,55.6526],[12.3863,55.6525],[12.3859,55.6524],[12.3856,55.6523],[12.3852,55.6523],[12.385,55.6523],[12.3848,55.6523],[12.3847,55.6524],[12.3848,55.6525],[12.3849,55.6525],[12.3849,55.6525]]]},"properties":{"sourceId":"ais_par3.135563","a_type":5120,"hectares":0.337}},{"type":"Feature","id":"ais_par3.135706","geometry":{"type":"Polygon","coordinates":[[[12.3949,55.6607],[12.395,55.6607],[12.3951,55.6608],[12.3952,55.6607],[12.3952,55.6606],[12.3951,55.6606],[12.395,55.6606],[12.3949,55.6606],[12.3949,55.6607],[12.3949,55.6607]]]},"properties":{"sourceId":"ais_par3.135706","a_type":5120,"hectares":0.03}},{"type":"Feature","id":"ais_par3.135710","geometry":{"type":"Polygon","coordinates":[[[12.3738,55.6691],[12.3739,55.6691],[12.3739,55.669],[12.3737,55.669],[12.3735,55.669],[12.3733,55.6691],[12.3733,55.6691],[12.3733,55.6692],[12.3734,55.6692],[12.3736,55.6692],[12.3738,55.6692],[12.3738,55.6691],[12.3738,55.6691]]]},"properties":{"sourceId":"ais_par3.135710","a_type":5120,"hectares":0.067}},{"type":"Feature","id":"ais_par3.135716","geometry":{"type":"Polygon","coordinates":[[[12.3683,55.6681],[12.3686,55.6682],[12.3688,55.6682],[12.369,55.6681],[12.3688,55.668],[12.3686,55.6678],[12.3684,55.668],[12.3682,55.6681],[12.3683,55.6681]]]},"properties":{"sourceId":"ais_par3.135716","a_type":5120,"hectares":0.103}},{"type":"Feature","id":"ais_par3.135984","geometry":{"type":"Polygon","coordinates":[[[12.3109,55.6705],[12.311,55.6704],[12.3111,55.6703],[12.3109,55.6702],[12.3107,55.6703],[12.3107,55.6703],[12.3107,55.6704],[12.3107,55.6705],[12.3109,55.6705],[12.3109,55.6705]]]},"properties":{"sourceId":"ais_par3.135984","a_type":5120,"hectares":0.056}},{"type":"Feature","id":"ais_par3.136010","geometry":{"type":"Polygon","coordinates":[[[12.3171,55.6465],[12.3175,55.6466],[12.3178,55.6466],[12.318,55.6467],[12.3181,55.6467],[12.3179,55.6465],[12.3172,55.6464],[12.3171,55.6464],[12.3171,55.6465]]]},"properties":{"sourceId":"ais_par3.136010","a_type":5120,"hectares":0.073}},{"type":"Feature","id":"ais_par3.136115","geometry":{"type":"Polygon","coordinates":[[[12.3167,55.6599],[12.3164,55.6601],[12.3161,55.6603],[12.3159,55.6605],[12.3159,55.6607],[12.316,55.6609],[12.3162,55.6609],[12.3165,55.6609],[12.3167,55.6608],[12.3169,55.6605],[12.3169,55.6602],[12.3169,55.66],[12.3169,55.6599],[12.3168,55.6599],[12.3167,55.6599]]]},"properties":{"sourceId":"ais_par3.136115","a_type":5120,"hectares":0.5}},{"type":"Feature","id":"ais_par3.136571","geometry":{"type":"Polygon","coordinates":[[[12.3208,55.6657],[12.3207,55.6657],[12.3206,55.6658],[12.3205,55.6658],[12.3205,55.6658],[12.3207,55.6658],[12.3208,55.6658],[12.3208,55.6658],[12.3208,55.6658],[12.3208,55.6658],[12.3209,55.6659],[12.321,55.6659],[12.321,55.6659],[12.321,55.6658],[12.3209,55.6657],[12.3208,55.6657]]]},"properties":{"sourceId":"ais_par3.136571","a_type":5120,"hectares":0.038}},{"type":"Feature","id":"ais_par3.137147","geometry":{"type":"Polygon","coordinates":[[[12.3367,55.6395],[12.3367,55.6399],[12.3368,55.6404],[12.3366,55.6409],[12.3366,55.6411],[12.337,55.6414],[12.3371,55.6416],[12.3373,55.6417],[12.3377,55.6417],[12.3381,55.6416],[12.3386,55.6415],[12.3382,55.6413],[12.3378,55.641],[12.3375,55.6407],[12.3374,55.6404],[12.3373,55.6401],[12.3372,55.6398],[12.3373,55.6395],[12.3368,55.6394],[12.3367,55.6395]]]},"properties":{"sourceId":"ais_par3.137147","a_type":4120,"hectares":1.358}},{"type":"Feature","id":"ais_par3.137220","geometry":{"type":"Polygon","coordinates":[[[12.3245,55.6592],[12.3243,55.659],[12.3242,55.6589],[12.3242,55.6587],[12.3243,55.6585],[12.3241,55.6587],[12.3238,55.6589],[12.3235,55.6591],[12.3233,55.6593],[12.3232,55.6596],[12.3232,55.6597],[12.3236,55.6598],[12.3238,55.6596],[12.3241,55.6594],[12.3245,55.6592],[12.3245,55.6592]]]},"properties":{"sourceId":"ais_par3.137220","a_type":4110,"hectares":0.477}},{"type":"Feature","id":"ais_par3.137222","geometry":{"type":"Polygon","coordinates":[[[12.3244,55.6582],[12.3246,55.658],[12.325,55.6578],[12.3253,55.6577],[12.3256,55.6575],[12.3253,55.6574],[12.3251,55.6574],[12.3247,55.6574],[12.3244,55.6575],[12.3242,55.6574],[12.3239,55.6573],[12.3237,55.6572],[12.3235,55.657],[12.3233,55.657],[12.3232,55.6572],[12.3231,55.6574],[12.3229,55.6579],[12.3233,55.658],[12.3237,55.6581],[12.324,55.6581],[12.3244,55.6582],[12.3244,55.6582]]]},"properties":{"sourceId":"ais_par3.137222","a_type":4110,"hectares":1.083}}]}
