{"type":"FeatureCollection","metadata":{"kommuneKode":"0167","kommuneNavn":"Hvidovre","source":"https://wfs2-miljoegis.mim.dk/natur/ows","layer":"natur:ais_par3","bbox":[12.425907617041766,55.59778675289721,12.507369630182778,55.66616681676748],"fetchedAt":"2026-06-12T20:55:36.372491+00:00"},"features":[{"type":"Feature","id":"ais_par3.135551","geometry":{"type":"Polygon","coordinates":[[[12.4305,55.6302],[12.4304,55.6302],[12.4304,55.6303],[12.4306,55.6303],[12.4306,55.6303],[12.4308,55.6303],[12.4308,55.6302],[12.4307,55.6301],[12.4305,55.6302]]]},"properties":{"sourceId":"ais_par3.135551","a_type":5120,"hectares":0.031}},{"type":"Feature","id":"ais_par3.135557","geometry":{"type":"Polygon","coordinates":[[[12.4342,55.6277],[12.434,55.6276],[12.4339,55.6277],[12.4339,55.6278],[12.434,55.6279],[12.434,55.6279],[12.4341,55.6279],[12.4343,55.6279],[12.4344,55.6279],[12.4345,55.6278],[12.4345,55.6277],[12.4344,55.6277],[12.4343,55.6276],[12.4342,55.6277],[12.4342,55.6277]]]},"properties":{"sourceId":"ais_par3.135557","a_type":5120,"hectares":0.092}},{"type":"Feature","id":"ais_par3.135807","geometry":{"type":"Polygon","coordinates":[[[12.4472,55.6145],[12.4471,55.6145],[12.4471,55.6144],[12.447,55.6144],[12.447,55.6144],[12.4469,55.6144],[12.447,55.6145],[12.4471,55.6145],[12.4471,55.6146],[12.447,55.6146],[12.447,55.6147],[12.447,55.6148],[12.4471,55.6148],[12.4471,55.6149],[12.4472,55.6149],[12.4472,55.6149],[12.4472,55.6148],[12.4473,55.6147],[12.4473,55.6147],[12.4473,55.6147],[12.4473,55.6146],[12.4473,55.6146],[12.4473,55.6145],[12.4472,55.6145],[12.4472,55.6145],[12.4472,55.6145]]]},"properties":{"sourceId":"ais_par3.135807","a_type":5120,"hectares":0.073}},{"type":"Feature","id":"ais_par3.135809","geometry":{"type":"Polygon","coordinates":[[[12.4526,55.6165],[12.4526,55.6165],[12.4527,55.6165],[12.4528,55.6164],[12.4527,55.6164],[12.4526,55.6163],[12.4527,55.6162],[12.4526,55.6162],[12.4525,55.6162],[12.4524,55.6162],[12.4524,55.6162],[12.4524,55.6163],[12.4524,55.6164],[12.4523,55.6165],[12.4523,55.6165],[12.4523,55.6165],[12.4524,55.6165],[12.4525,55.6165],[12.4526,55.6165]]]},"properties":{"sourceId":"ais_par3.135809","a_type":5120,"hectares":0.074}},{"type":"Feature","id":"ais_par3.135810","geometry":{"type":"Polygon","coordinates":[[[12.4624,55.6177],[12.4623,55.6176],[12.4623,55.6175],[12.4623,55.6174],[12.4622,55.6174],[12.4618,55.6175],[12.4618,55.6175],[12.4617,55.6176],[12.462,55.6176],[12.4621,55.6176],[12.4623,55.6177],[12.4624,55.6177]]]},"properties":{"sourceId":"ais_par3.135810","a_type":5120,"hectares":0.079}},{"type":"Feature","id":"ais_par3.135813","geometry":{"type":"Polygon","coordinates":[[[12.4477,55.6154],[12.4479,55.6154],[12.448,55.6154],[12.4481,55.6153],[12.4481,55.6153],[12.448,55.6153],[12.4478,55.6152],[12.4477,55.6152],[12.4476,55.6152],[12.4475,55.6151],[12.4475,55.615],[12.4474,55.615],[12.4473,55.615],[12.4473,55.615],[12.4473,55.6151],[12.4473,55.6151],[12.4473,55.6152],[12.4473,55.6152],[12.4472,55.6152],[12.4473,55.6153],[12.4473,55.6154],[12.4474,55.6154],[12.4475,55.6154],[12.4475,55.6154],[12.4476,55.6154],[12.4477,55.6154],[12.4477,55.6154]]]},"properties":{"sourceId":"ais_par3.135813","a_type":5120,"hectares":0.125}},{"type":"Feature","id":"ais_par3.135796","geometry":{"type":"Polygon","coordinates":[[[12.405,55.6145],[12.4048,55.6144],[12.4044,55.6143],[12.4039,55.6142],[12.4034,55.6141],[12.4028,55.614],[12.4021,55.6139],[12.4016,55.6138],[12.401,55.6137],[12.4007,55.6136],[12.4004,55.6135],[12.4001,55.6133],[12.3999,55.6133],[12.3997,55.6134],[12.3997,55.6136],[12.3997,55.6137],[12.3997,55.6138],[12.3994,55.614],[12.3992,55.6142],[12.3988,55.6144],[12.3986,55.6147],[12.3985,55.615],[12.3986,55.6153],[12.3988,55.6155],[12.3991,55.6157],[12.3997,55.6158],[12.4005,55.616],[12.4009,55.6161],[12.4012,55.6162],[12.4017,55.6162],[12.4022,55.6162],[12.4028,55.6163],[12.4033,55.6164],[12.4039,55.6165],[12.4042,55.6166],[12.4046,55.6166],[12.4047,55.6166],[12.406,55.6167],[12.4069,55.6167],[12.4081,55.6167],[12.409,55.6166],[12.4088,55.6164],[12.4088,55.6162],[12.4089,55.6161],[12.4088,55.616],[12.4087,55.6159],[12.4088,55.6158],[12.4089,55.6156],[12.4089,55.6155],[12.4089,55.6153],[12.4089,55.6152],[12.409,55.6149],[12.4093,55.6147],[12.4095,55.6148],[12.4095,55.6149],[12.4095,55.6152],[12.4096,55.6153],[12.4096,55.6155],[12.4096,55.6157],[12.4096,55.6159],[12.4095,55.616],[12.4094,55.6162],[12.4093,55.6164],[12.4094,55.6166],[12.4097,55.6165],[12.4118,55.6165],[12.4133,55.6165],[12.4152,55.6164],[12.4165,55.6164],[12.4173,55.6164],[12.4186,55.6163],[12.4197,55.6162],[12.4203,55.6163],[12.4203,55.6161],[12.4205,55.6159],[12.4208,55.6157],[12.4209,55.6155],[12.421,55.6153],[12.4211,55.6151],[12.4212,55.6147],[12.4213,55.6145],[12.4217,55.6145],[12.4219,55.6144],[12.4219,55.6146],[12.4219,55.6148],[12.422,55.615],[12.422,55.6151],[12.422,55.6152],[12.4219,55.6153],[12.422,55.6154],[12.4219,55.6155],[12.4218,55.6157],[12.4219,55.6158],[12.4219,55.6158],[12.4218,55.6159],[12.422,55.616],[12.4226,55.6159],[12.4231,55.6159],[12.4238,55.6159],[12.4247,55.6159],[12.4253,55.6159],[12.4255,55.6159],[12.4257,55.6159],[12.4262,55.6159],[12.4277,55.6159],[12.4282,55.6158],[12.4288,55.6158],[12.43,55.6159],[12.4301,55.6158],[12.43,55.6155],[12.43,55.6153],[12.43,55.6149],[12.4301,55.6148],[12.4301,55.6147],[12.4303,55.6146],[12.4304,55.6145],[12.4307,55.6144],[12.4308,55.6144],[12.4309,55.6146],[12.4307,55.6149],[12.4307,55.6149],[12.4307,55.6153],[12.4306,55.6154],[12.4306,55.6155],[12.4306,55.6157],[12.4305,55.6158],[12.4309,55.6158],[12.4315,55.6157],[12.4326,55.6156],[12.4337,55.6156],[12.435,55.6156],[12.4363,55.6156],[12.4374,55.6155],[12.438,55.6156],[12.4389,55.6156],[12.44,55.6155],[12.4413,55.6154],[12.4419,55.6153],[12.4423,55.6151],[12.4428,55.6151],[12.4432,55.6151],[12.4435,55.6152],[12.4435,55.6152],[12.4435,55.615],[12.4434,55.6149],[12.4434,55.6148],[12.4434,55.6144],[12.4436,55.6141],[12.4438,55.6137],[12.444,55.6133],[12.4442,55.6129],[12.4442,55.6126],[12.4442,55.6124],[12.444,55.6123],[12.4438,55.6125],[12.4436,55.6126],[12.4429,55.6127],[12.4418,55.6128],[12.441,55.6129],[12.4405,55.6129],[12.4397,55.6129],[12.4391,55.6131],[12.4387,55.6131],[12.4382,55.6131],[12.4375,55.6131],[12.4368,55.6132],[12.4364,55.6132],[12.4359,55.6133],[12.4355,55.6135],[12.4352,55.6136],[12.4349,55.6136],[12.4344,55.6136],[12.4336,55.6137],[12.4323,55.6138],[12.4319,55.6138],[12.4316,55.6139],[12.4311,55.6141],[12.431,55.6142],[12.4308,55.6143],[12.4304,55.6142],[12.43,55.6141],[12.4295,55.614],[12.4289,55.614],[12.4285,55.6141],[12.4282,55.6142],[12.4279,55.6142],[12.4274,55.6141],[12.4268,55.6141],[12.4262,55.614],[12.4258,55.614],[12.4255,55.6141],[12.4248,55.6141],[12.4242,55.6141],[12.4238,55.6141],[12.4232,55.6142],[12.4228,55.6142],[12.4224,55.6142],[12.4222,55.6143],[12.4219,55.6143],[12.4216,55.6142],[12.4212,55.6143],[12.4207,55.6143],[12.4199,55.6143],[12.4193,55.6144],[12.4189,55.6144],[12.4183,55.6144],[12.4176,55.6144],[12.417,55.6145],[12.4164,55.6144],[12.4157,55.6143],[12.4154,55.6143],[12.415,55.6144],[12.4143,55.6145],[12.4137,55.6145],[12.413,55.6145],[12.4122,55.6144],[12.4116,55.6144],[12.4112,55.6145],[12.4111,55.6146],[12.4104,55.6145],[12.4099,55.6145],[12.4092,55.6146],[12.4088,55.6146],[12.408,55.6145],[12.4076,55.6145],[12.4068,55.6145],[12.406,55.6146],[12.4051,55.6145],[12.405,55.6145]],[[12.4334,55.6149],[12.4334,55.6148],[12.4337,55.6148],[12.4342,55.6148],[12.4346,55.6147],[12.435,55.6147],[12.435,55.6148],[12.4349,55.6148],[12.4347,55.6149],[12.4346,55.615],[12.4345,55.6151],[12.4342,55.6151],[12.4339,55.6151],[12.4335,55.6151],[12.4333,55.615],[12.4329,55.6148],[12.4329,55.6148],[12.4331,55.6147],[12.4334,55.6149]],[[12.4378,55.6147],[12.4378,55.6147],[12.4379,55.6146],[12.4382,55.6146],[12.4384,55.6146],[12.4385,55.6146],[12.4387,55.6145],[12.4391,55.6145],[12.4393,55.6145],[12.4394,55.6146],[12.4393,55.6147],[12.439,55.6148],[12.4388,55.6148],[12.4384,55.6148],[12.4382,55.6149],[12.438,55.6149],[12.4379,55.6149],[12.4377,55.6148],[12.4375,55.6147],[12.4375,55.6146],[12.4378,55.6147]]]},"properties":{"sourceId":"ais_par3.135796","a_type":5120,"hectares":61.977}},{"type":"Feature","id":"ais_par3.135801","geometry":{"type":"Polygon","coordinates":[[[12.4486,55.615],[12.4485,55.615],[12.4484,55.6149],[12.4483,55.615],[12.4482,55.615],[12.4482,55.615],[12.4483,55.6151],[12.4483,55.6151],[12.4485,55.6151],[12.4485,55.615],[12.4485,55.615],[12.4485,55.615],[12.4486,55.615]]]},"properties":{"sourceId":"ais_par3.135801","a_type":5120,"hectares":0.022}},{"type":"Feature","id":"ais_par3.135802","geometry":{"type":"Polygon","coordinates":[[[12.448,55.6146],[12.4479,55.6146],[12.4478,55.6146],[12.4478,55.6147],[12.4477,55.6147],[12.4477,55.6148],[12.4477,55.6148],[12.4478,55.6148],[12.4479,55.6148],[12.4479,55.6148],[12.448,55.6147],[12.448,55.6147],[12.448,55.6147],[12.448,55.6147],[12.448,55.6146],[12.448,55.6146]]]},"properties":{"sourceId":"ais_par3.135802","a_type":5120,"hectares":0.03}},{"type":"Feature","id":"ais_par3.135814","geometry":{"type":"Polygon","coordinates":[[[12.4751,55.6157],[12.4749,55.6157],[12.4747,55.6158],[12.4745,55.6158],[12.4743,55.6158],[12.4743,55.6159],[12.4742,55.6159],[12.4742,55.616],[12.4745,55.616],[12.4748,55.616],[12.475,55.616],[12.4751,55.6159],[12.4752,55.6159],[12.4752,55.6158],[12.4751,55.6157]]]},"properties":{"sourceId":"ais_par3.135814","a_type":5120,"hectares":0.145}},{"type":"Feature","id":"ais_par3.135815","geometry":{"type":"Polygon","coordinates":[[[12.4921,55.616],[12.4918,55.6159],[12.4913,55.616],[12.4912,55.616],[12.4911,55.6161],[12.4911,55.6161],[12.4911,55.6162],[12.4912,55.6162],[12.4913,55.6162],[12.4914,55.6162],[12.4915,55.6161],[12.4916,55.6161],[12.4917,55.6161],[12.4919,55.6161],[12.492,55.6162],[12.4921,55.6162],[12.4922,55.6161],[12.4922,55.616],[12.4921,55.6159],[12.4921,55.616]]]},"properties":{"sourceId":"ais_par3.135815","a_type":5120,"hectares":0.15}},{"type":"Feature","id":"ais_par3.135817","geometry":{"type":"Polygon","coordinates":[[[12.4779,55.6158],[12.478,55.6158],[12.478,55.6157],[12.478,55.6157],[12.4776,55.6157],[12.4772,55.6157],[12.4769,55.6157],[12.4767,55.6157],[12.4766,55.6158],[12.4766,55.6158],[12.4765,55.6158],[12.4766,55.6159],[12.4769,55.6159],[12.4776,55.6159],[12.4778,55.6159],[12.4779,55.6158]]]},"properties":{"sourceId":"ais_par3.135817","a_type":5120,"hectares":0.195}},{"type":"Feature","id":"ais_par3.135818","geometry":{"type":"Polygon","coordinates":[[[12.4718,55.6172],[12.4719,55.6172],[12.4721,55.6172],[12.4721,55.6172],[12.472,55.6172],[12.4719,55.6173],[12.4718,55.6174],[12.4717,55.6174],[12.4716,55.6175],[12.4715,55.6176],[12.4716,55.6176],[12.4719,55.6176],[12.4721,55.6176],[12.4722,55.6175],[12.4722,55.6174],[12.4723,55.6173],[12.4724,55.6173],[12.4725,55.6172],[12.4726,55.6172],[12.4727,55.6171],[12.4727,55.6171],[12.4726,55.6171],[12.4725,55.6171],[12.4724,55.6171],[12.4724,55.6171],[12.4722,55.6171],[12.4722,55.6171],[12.4721,55.6171],[12.4719,55.6171],[12.4719,55.6171],[12.4718,55.617],[12.4717,55.6171],[12.4716,55.6171],[12.4716,55.6171],[12.4717,55.6171],[12.4718,55.6172]]]},"properties":{"sourceId":"ais_par3.135818","a_type":5120,"hectares":0.218}},{"type":"Feature","id":"ais_par3.135821","geometry":{"type":"Polygon","coordinates":[[[12.4552,55.604],[12.4551,55.604],[12.4551,55.6041],[12.4552,55.6041],[12.4554,55.6042],[12.4557,55.6042],[12.4559,55.6042],[12.4562,55.6043],[12.4562,55.6043],[12.4562,55.6044],[12.4562,55.6044],[12.4563,55.6044],[12.4564,55.6045],[12.4566,55.6045],[12.4567,55.6046],[12.4567,55.6047],[12.4567,55.6048],[12.4568,55.6048],[12.4568,55.6049],[12.4569,55.6051],[12.4571,55.6052],[12.4573,55.6051],[12.4574,55.6051],[12.4576,55.6051],[12.4576,55.605],[12.4575,55.6049],[12.4574,55.6048],[12.4573,55.6047],[12.4572,55.6046],[12.457,55.6044],[12.4567,55.6041],[12.4565,55.604],[12.4562,55.604],[12.4552,55.604]]]},"properties":{"sourceId":"ais_par3.135821","a_type":5120,"hectares":0.663}},{"type":"Feature","id":"ais_par3.136593","geometry":{"type":"Polygon","coordinates":[[[12.4621,55.6173],[12.462,55.6172],[12.4619,55.6172],[12.4616,55.6173],[12.4613,55.6173],[12.461,55.6173],[12.4607,55.6173],[12.4604,55.6172],[12.4602,55.6172],[12.4597,55.617],[12.4596,55.6169],[12.4595,55.6169],[12.4593,55.617],[12.4591,55.617],[12.4589,55.6169],[12.4588,55.6169],[12.4587,55.6169],[12.4587,55.617],[12.4588,55.617],[12.4589,55.617],[12.4594,55.6171],[12.4596,55.6171],[12.4596,55.6171],[12.4597,55.6172],[12.4598,55.6172],[12.46,55.6172],[12.4603,55.6173],[12.4606,55.6174],[12.4611,55.6175],[12.4612,55.6175],[12.4614,55.6175],[12.4615,55.6176],[12.4617,55.6176],[12.4618,55.6175],[12.4618,55.6175],[12.4622,55.6174],[12.4621,55.6173]]]},"properties":{"sourceId":"ais_par3.136593","a_type":4210,"hectares":0.369}},{"type":"Feature","id":"ais_par3.136594","geometry":{"type":"Polygon","coordinates":[[[12.4585,55.6111],[12.4586,55.6111],[12.4585,55.6111],[12.4584,55.6111],[12.4583,55.6111],[12.4582,55.611],[12.4581,55.611],[12.4581,55.611],[12.458,55.611],[12.4578,55.611],[12.4576,55.611],[12.4576,55.611],[12.4575,55.6109],[12.4574,55.611],[12.4573,55.611],[12.4572,55.611],[12.4571,55.611],[12.4571,55.6109],[12.457,55.6108],[12.4569,55.6108],[12.4568,55.6108],[12.4567,55.6108],[12.4567,55.6108],[12.4567,55.6109],[12.4567,55.611],[12.4567,55.611],[12.4569,55.6112],[12.457,55.6112],[12.4573,55.6113],[12.4574,55.6113],[12.4574,55.6113],[12.4574,55.6114],[12.4574,55.6115],[12.4574,55.6116],[12.4574,55.6117],[12.4575,55.6117],[12.4576,55.6116],[12.4577,55.6116],[12.4579,55.6116],[12.4579,55.6115],[12.458,55.6115],[12.4581,55.6113],[12.4582,55.6112],[12.4583,55.6112],[12.4584,55.6111],[12.4585,55.6111]]]},"properties":{"sourceId":"ais_par3.136594","a_type":4210,"hectares":0.479}},{"type":"Feature","id":"ais_par3.136595","geometry":{"type":"Polygon","coordinates":[[[12.4478,55.606],[12.4481,55.606],[12.4483,55.6059],[12.4485,55.6059],[12.4487,55.6058],[12.4488,55.6058],[12.4488,55.6057],[12.4489,55.6056],[12.449,55.6054],[12.449,55.6053],[12.449,55.6052],[12.4488,55.6051],[12.4487,55.6051],[12.4484,55.6051],[12.4482,55.6051],[12.448,55.6054],[12.448,55.6055],[12.448,55.6056],[12.448,55.6056],[12.4479,55.6057],[12.4478,55.6058],[12.4477,55.6059],[12.4477,55.6059],[12.4478,55.606],[12.4478,55.606]]]},"properties":{"sourceId":"ais_par3.136595","a_type":4210,"hectares":0.557}},{"type":"Feature","id":"ais_par3.136596","geometry":{"type":"Polygon","coordinates":[[[12.4476,55.6145],[12.4475,55.6146],[12.4475,55.6146],[12.4474,55.6145],[12.4473,55.6145],[12.4472,55.6144],[12.4471,55.6143],[12.447,55.6143],[12.4468,55.6143],[12.4467,55.6144],[12.4467,55.6144],[12.4468,55.6145],[12.4469,55.6146],[12.4468,55.6147],[12.4468,55.6148],[12.4468,55.6149],[12.4468,55.615],[12.447,55.6151],[12.447,55.6152],[12.4471,55.6153],[12.4472,55.6153],[12.4472,55.6154],[12.4473,55.6154],[12.4476,55.6155],[12.4479,55.6155],[12.4482,55.6154],[12.4485,55.6154],[12.4487,55.6154],[12.4488,55.6153],[12.4489,55.6152],[12.4488,55.6152],[12.4488,55.6151],[12.4486,55.615],[12.4486,55.6149],[12.4485,55.6149],[12.4484,55.6149],[12.4483,55.6148],[12.4482,55.6148],[12.4482,55.6147],[12.4481,55.6146],[12.448,55.6146],[12.4479,55.6145],[12.4478,55.6145],[12.4476,55.6145]],[[12.4477,55.6154],[12.4477,55.6154],[12.4476,55.6154],[12.4475,55.6154],[12.4475,55.6154],[12.4474,55.6154],[12.4473,55.6154],[12.4473,55.6153],[12.4472,55.6152],[12.4473,55.6152],[12.4473,55.6152],[12.4473,55.6151],[12.4473,55.6151],[12.4473,55.615],[12.4473,55.615],[12.4474,55.615],[12.4475,55.615],[12.4475,55.6151],[12.4476,55.6152],[12.4477,55.6152],[12.4478,55.6152],[12.448,55.6153],[12.4481,55.6153],[12.4481,55.6153],[12.448,55.6154],[12.4479,55.6154],[12.4477,55.6154]],[[12.4472,55.6145],[12.4472,55.6145],[12.4472,55.6145],[12.4473,55.6145],[12.4473,55.6146],[12.4473,55.6146],[12.4473,55.6147],[12.4473,55.6147],[12.4473,55.6147],[12.4472,55.6148],[12.4472,55.6149],[12.4472,55.6149],[12.4471,55.6149],[12.4471,55.6148],[12.447,55.6148],[12.447,55.6147],[12.447,55.6146],[12.4471,55.6146],[12.4471,55.6145],[12.447,55.6145],[12.4469,55.6144],[12.447,55.6144],[12.447,55.6144],[12.4471,55.6144],[12.4471,55.6145],[12.4472,55.6145]],[[12.448,55.6146],[12.448,55.6146],[12.448,55.6147],[12.448,55.6147],[12.448,55.6147],[12.448,55.6147],[12.4479,55.6148],[12.4479,55.6148],[12.4478,55.6148],[12.4477,55.6148],[12.4477,55.6148],[12.4477,55.6147],[12.4478,55.6147],[12.4478,55.6146],[12.4479,55.6146],[12.448,55.6146]],[[12.4486,55.615],[12.4485,55.615],[12.4485,55.615],[12.4485,55.615],[12.4485,55.6151],[12.4483,55.6151],[12.4483,55.6151],[12.4482,55.615],[12.4482,55.615],[12.4483,55.615],[12.4484,55.6149],[12.4485,55.615],[12.4486,55.615]]]},"properties":{"sourceId":"ais_par3.136596","a_type":4210,"hectares":0.818}},{"type":"Feature","id":"ais_par3.136597","geometry":{"type":"Polygon","coordinates":[[[12.4969,55.6244],[12.4969,55.6243],[12.4968,55.6243],[12.4968,55.6242],[12.4967,55.624],[12.4963,55.6236],[12.4964,55.6237],[12.4965,55.6239],[12.4966,55.624],[12.4967,55.6241],[12.4967,55.6242],[12.4968,55.6242],[12.4968,55.6243],[12.4968,55.6243],[12.4968,55.6243],[12.4969,55.6244]]]},"properties":{"sourceId":"ais_par3.136597","a_type":4210,"hectares":0.04}},{"type":"Feature","id":"ais_par3.136598","geometry":{"type":"Polygon","coordinates":[[[12.4954,55.622],[12.4954,55.622],[12.4953,55.622],[12.4953,55.622],[12.4952,55.622],[12.4952,55.622],[12.4952,55.622],[12.4953,55.6219],[12.4953,55.6219],[12.4951,55.6219],[12.4947,55.6214],[12.4947,55.6213],[12.4951,55.6212],[12.4953,55.621],[12.4953,55.6208],[12.4953,55.6208],[12.4953,55.6208],[12.4952,55.6209],[12.4951,55.6209],[12.4951,55.6209],[12.495,55.6208],[12.495,55.6208],[12.4948,55.6208],[12.4947,55.6207],[12.4945,55.6206],[12.4945,55.6207],[12.4945,55.6207],[12.4944,55.6207],[12.4943,55.6206],[12.4943,55.6206],[12.4943,55.6206],[12.4943,55.6206],[12.4943,55.6206],[12.4943,55.6206],[12.4941,55.6204],[12.4942,55.62],[12.4939,55.6197],[12.4939,55.6196],[12.4938,55.6196],[12.4935,55.6197],[12.4934,55.6198],[12.4933,55.6199],[12.4932,55.6199],[12.4932,55.62],[12.4933,55.6201],[12.4934,55.6202],[12.4934,55.6202],[12.4933,55.6203],[12.4933,55.6203],[12.4933,55.6204],[12.4933,55.6205],[12.4933,55.6205],[12.4933,55.6206],[12.4933,55.6206],[12.4933,55.6207],[12.4934,55.6207],[12.4936,55.6206],[12.4936,55.6206],[12.4937,55.6207],[12.4938,55.6207],[12.4938,55.6208],[12.4937,55.6208],[12.4937,55.6209],[12.4937,55.6209],[12.4939,55.6209],[12.494,55.621],[12.4941,55.6211],[12.4942,55.6212],[12.4943,55.6214],[12.4943,55.6214],[12.4942,55.6214],[12.4942,55.6215],[12.4943,55.6216],[12.4943,55.6216],[12.4945,55.6216],[12.4945,55.6215],[12.4946,55.6215],[12.4947,55.6216],[12.4948,55.6217],[12.4949,55.6218],[12.4951,55.6221],[12.4952,55.6222],[12.4953,55.6224],[12.4954,55.6226],[12.4955,55.6227],[12.4955,55.6228],[12.4956,55.6229],[12.4956,55.6229],[12.4956,55.623],[12.4956,55.623],[12.4957,55.6231],[12.4957,55.6232],[12.4955,55.6232],[12.4954,55.6232],[12.4954,55.6233],[12.4955,55.6233],[12.4957,55.6234],[12.4958,55.6234],[12.4959,55.6235],[12.496,55.6235],[12.4961,55.6235],[12.4962,55.6234],[12.4963,55.6235],[12.4962,55.623],[12.4959,55.6229],[12.4959,55.6228],[12.4962,55.6227],[12.4962,55.6226],[12.4956,55.6227],[12.4956,55.6225],[12.4955,55.6224],[12.4955,55.6224],[12.4956,55.6223],[12.4955,55.6221],[12.4954,55.622]]]},"properties":{"sourceId":"ais_par3.136598","a_type":4210,"hectares":1.638}},{"type":"Feature","id":"ais_par3.136599","geometry":{"type":"Polygon","coordinates":[[[12.4962,55.6145],[12.4963,55.6145],[12.4963,55.6143],[12.4963,55.6141],[12.4962,55.6139],[12.4962,55.6138],[12.4962,55.6134],[12.4961,55.6132],[12.496,55.6131],[12.4958,55.6131],[12.4956,55.613],[12.4954,55.6131],[12.4952,55.6131],[12.495,55.6131],[12.494,55.6131],[12.4935,55.6132],[12.493,55.6132],[12.4926,55.6132],[12.4923,55.6132],[12.492,55.6132],[12.4918,55.6133],[12.4918,55.6134],[12.4918,55.6136],[12.4917,55.6137],[12.4916,55.6138],[12.4916,55.6139],[12.4916,55.614],[12.4916,55.6141],[12.4916,55.6142],[12.4916,55.6142],[12.4916,55.6143],[12.4916,55.6144],[12.4917,55.6145],[12.4917,55.6146],[12.4917,55.6147],[12.4918,55.6147],[12.492,55.6148],[12.4922,55.6148],[12.4927,55.6148],[12.493,55.6148],[12.4935,55.6147],[12.494,55.6147],[12.4945,55.6147],[12.4947,55.6147],[12.495,55.6147],[12.4951,55.6146],[12.4953,55.6146],[12.4956,55.6146],[12.4958,55.6146],[12.496,55.6146],[12.4961,55.6146],[12.4962,55.6145]]]},"properties":{"sourceId":"ais_par3.136599","a_type":4210,"hectares":4.925}},{"type":"Feature","id":"ais_par3.136600","geometry":{"type":"Polygon","coordinates":[[[12.4918,55.6127],[12.4921,55.6128],[12.4923,55.6128],[12.4925,55.6128],[12.4932,55.6127],[12.4934,55.6127],[12.4938,55.6127],[12.4942,55.6126],[12.4943,55.6125],[12.4945,55.6125],[12.4949,55.6125],[12.4952,55.6125],[12.4955,55.6125],[12.4957,55.6124],[12.4958,55.6123],[12.4959,55.6122],[12.4959,55.612],[12.4958,55.6118],[12.4957,55.6115],[12.4957,55.6114],[12.4957,55.6113],[12.4957,55.6112],[12.4956,55.6111],[12.4954,55.6108],[12.4954,55.6108],[12.4951,55.6107],[12.4948,55.6106],[12.4942,55.6105],[12.4939,55.6104],[12.4931,55.6105],[12.4926,55.6105],[12.492,55.6106],[12.4918,55.6107],[12.4916,55.6108],[12.4914,55.6109],[12.4914,55.6112],[12.4914,55.6114],[12.4914,55.6118],[12.4913,55.612],[12.4913,55.6121],[12.4913,55.6122],[12.4914,55.6123],[12.4915,55.6123],[12.4916,55.6124],[12.4917,55.6125],[12.4918,55.6126],[12.4918,55.6127],[12.4918,55.6127],[12.4918,55.6127]]]},"properties":{"sourceId":"ais_par3.136600","a_type":4210,"hectares":6.163}},{"type":"Feature","id":"ais_par3.136601","geometry":{"type":"Polygon","coordinates":[[[12.4951,55.619],[12.4951,55.619],[12.4955,55.6188],[12.4964,55.6184],[12.4968,55.6183],[12.4972,55.618],[12.4974,55.6178],[12.4975,55.6176],[12.4977,55.6172],[12.4977,55.6169],[12.4977,55.6167],[12.4976,55.6163],[12.4976,55.6162],[12.4975,55.6162],[12.497,55.6161],[12.4966,55.6162],[12.4963,55.6162],[12.496,55.6162],[12.4957,55.6161],[12.4956,55.6161],[12.4956,55.616],[12.4955,55.6159],[12.4951,55.6159],[12.4948,55.6159],[12.4946,55.616],[12.4945,55.6159],[12.494,55.616],[12.4936,55.616],[12.4932,55.616],[12.4929,55.6161],[12.4927,55.6162],[12.4926,55.6162],[12.4925,55.6163],[12.4924,55.6164],[12.4925,55.6167],[12.4925,55.6169],[12.4926,55.6171],[12.4927,55.6172],[12.4927,55.6172],[12.4929,55.6173],[12.493,55.6173],[12.4933,55.6172],[12.4934,55.6172],[12.4936,55.6172],[12.4939,55.6174],[12.494,55.6175],[12.4939,55.6177],[12.4938,55.6178],[12.4936,55.6178],[12.4935,55.6179],[12.4934,55.6179],[12.4935,55.618],[12.4939,55.6182],[12.4945,55.6186],[12.4948,55.6189],[12.4951,55.619],[12.4951,55.619]]]},"properties":{"sourceId":"ais_par3.136601","a_type":4210,"hectares":7.597}},{"type":"Feature","id":"ais_par3.134922","geometry":{"type":"Polygon","coordinates":[[[12.4783,55.6649],[12.4784,55.6649],[12.4784,55.6646],[12.4783,55.6646],[12.4783,55.6649]]]},"properties":{"sourceId":"ais_par3.134922","a_type":5120,"hectares":0.018}},{"type":"Feature","id":"ais_par3.134998","geometry":{"type":"Polygon","coordinates":[[[12.5068,55.636],[12.5066,55.636],[12.5066,55.6359],[12.5066,55.6359],[12.5065,55.6359],[12.506,55.6364],[12.5054,55.6369],[12.5045,55.6377],[12.5038,55.6382],[12.5029,55.639],[12.5026,55.6391],[12.5023,55.6397],[12.5019,55.6402],[12.5019,55.6404],[12.5017,55.6406],[12.5016,55.641],[12.5016,55.641],[12.5021,55.6404],[12.5023,55.6403],[12.5025,55.6399],[12.503,55.6393],[12.5039,55.6385],[12.5048,55.6378],[12.5047,55.6377],[12.5056,55.6369],[12.5068,55.636]]]},"properties":{"sourceId":"ais_par3.134998","a_type":5120,"hectares":1.277}},{"type":"Feature","id":"ais_par3.134999","geometry":{"type":"Polygon","coordinates":[[[12.5008,55.6418],[12.5012,55.6415],[12.5015,55.6412],[12.5014,55.6411],[12.5012,55.6414],[12.5009,55.6416],[12.5007,55.6417],[12.5008,55.6418]]]},"properties":{"sourceId":"ais_par3.134999","a_type":5120,"hectares":0.069}},{"type":"Feature","id":"ais_par3.135000","geometry":{"type":"Polygon","coordinates":[[[12.5004,55.6418],[12.5,55.6419],[12.4995,55.6422],[12.499,55.6425],[12.4983,55.6429],[12.498,55.643],[12.4976,55.6432],[12.497,55.6435],[12.4964,55.644],[12.4958,55.6444],[12.4955,55.6447],[12.4952,55.6448],[12.4945,55.6454],[12.4937,55.6457],[12.493,55.6458],[12.4924,55.6459],[12.4916,55.6459],[12.4912,55.6461],[12.4907,55.6464],[12.4905,55.6467],[12.4903,55.6472],[12.4901,55.6476],[12.4898,55.6481],[12.4894,55.6485],[12.4891,55.6489],[12.4885,55.6497],[12.4882,55.6502],[12.4879,55.6507],[12.4877,55.651],[12.4874,55.6513],[12.487,55.6516],[12.4867,55.6517],[12.4863,55.6519],[12.4865,55.652],[12.4868,55.6517],[12.4873,55.6515],[12.4877,55.6512],[12.4881,55.6506],[12.4885,55.6499],[12.489,55.6493],[12.4894,55.6488],[12.4899,55.6482],[12.4904,55.6476],[12.4905,55.647],[12.4907,55.6466],[12.491,55.6463],[12.4917,55.646],[12.4925,55.6459],[12.4935,55.6459],[12.4943,55.6456],[12.4948,55.6453],[12.4953,55.6449],[12.4958,55.6446],[12.4967,55.6438],[12.4971,55.6436],[12.498,55.6431],[12.4987,55.6428],[12.4997,55.6422],[12.5005,55.6418],[12.5004,55.6418]]]},"properties":{"sourceId":"ais_par3.135000","a_type":5120,"hectares":1.394}},{"type":"Feature","id":"ais_par3.135001","geometry":{"type":"Polygon","coordinates":[[[12.4861,55.652],[12.4853,55.6524],[12.4847,55.6529],[12.4841,55.6533],[12.484,55.6534],[12.4841,55.6534],[12.4848,55.6529],[12.4856,55.6524],[12.4862,55.6521],[12.4861,55.652]]]},"properties":{"sourceId":"ais_par3.135001","a_type":5120,"hectares":0.166}},{"type":"Feature","id":"ais_par3.135002","geometry":{"type":"Polygon","coordinates":[[[12.4776,55.6604],[12.4777,55.6606],[12.478,55.6612],[12.4781,55.6616],[12.4782,55.662],[12.4782,55.6627],[12.4782,55.6633],[12.4783,55.6641],[12.4784,55.6641],[12.4784,55.6634],[12.4783,55.6628],[12.4783,55.6621],[12.4783,55.6616],[12.4781,55.6612],[12.4779,55.6608],[12.4777,55.6603],[12.4777,55.66],[12.4775,55.6597],[12.4775,55.6586],[12.4775,55.6584],[12.4776,55.6579],[12.4779,55.6575],[12.4781,55.657],[12.4784,55.6566],[12.4787,55.6564],[12.4794,55.6559],[12.4802,55.6552],[12.4809,55.6548],[12.4812,55.6546],[12.4816,55.6544],[12.482,55.6543],[12.4825,55.6542],[12.483,55.6541],[12.4834,55.6539],[12.4837,55.6537],[12.484,55.6536],[12.4839,55.6535],[12.4837,55.6537],[12.4831,55.654],[12.4822,55.6542],[12.4814,55.6544],[12.481,55.6546],[12.4804,55.655],[12.4797,55.6556],[12.4789,55.6562],[12.4783,55.6567],[12.478,55.657],[12.4777,55.6575],[12.4775,55.658],[12.4774,55.6588],[12.4774,55.6593],[12.4775,55.6598],[12.4776,55.6604]]]},"properties":{"sourceId":"ais_par3.135002","a_type":5120,"hectares":0.942}},{"type":"Feature","id":"ais_par3.135003","geometry":{"type":"Polygon","coordinates":[[[12.4784,55.665],[12.4784,55.6655],[12.4785,55.6655],[12.4785,55.665],[12.4784,55.665]]]},"properties":{"sourceId":"ais_par3.135003","a_type":5120,"hectares":0.039}},{"type":"Feature","id":"ais_par3.135553","geometry":{"type":"Polygon","coordinates":[[[12.4369,55.6512],[12.437,55.6511],[12.437,55.651],[12.4369,55.651],[12.4368,55.651],[12.4367,55.6511],[12.4367,55.6512],[12.4369,55.6512],[12.4369,55.6512]]]},"properties":{"sourceId":"ais_par3.135553","a_type":5120,"hectares":0.034}},{"type":"Feature","id":"ais_par3.135554","geometry":{"type":"Polygon","coordinates":[[[12.4367,55.6542],[12.4366,55.6544],[12.4366,55.6544],[12.4368,55.6545],[12.4369,55.6545],[12.4369,55.6544],[12.4369,55.6543],[12.4368,55.6542],[12.4367,55.6542]]]},"properties":{"sourceId":"ais_par3.135554","a_type":5120,"hectares":0.041}},{"type":"Feature","id":"ais_par3.135558","geometry":{"type":"Polygon","coordinates":[[[12.4501,55.6491],[12.4502,55.649],[12.4503,55.649],[12.4502,55.6489],[12.4497,55.6489],[12.4494,55.6489],[12.4493,55.6489],[12.4493,55.649],[12.4493,55.649],[12.4494,55.6491],[12.4495,55.6491],[12.4498,55.6491],[12.4499,55.6491],[12.45,55.6491],[12.4501,55.6491]]]},"properties":{"sourceId":"ais_par3.135558","a_type":5120,"hectares":0.108}},{"type":"Feature","id":"ais_par3.135561","geometry":{"type":"Polygon","coordinates":[[[12.4434,55.6476],[12.4432,55.6476],[12.443,55.6475],[12.4428,55.6474],[12.4426,55.6474],[12.4425,55.6475],[12.4426,55.6475],[12.4427,55.6477],[12.4428,55.648],[12.443,55.648],[12.4432,55.648],[12.4433,55.648],[12.4436,55.648],[12.4436,55.6479],[12.4437,55.6478],[12.4434,55.6476]]]},"properties":{"sourceId":"ais_par3.135561","a_type":5120,"hectares":0.295}},{"type":"Feature","id":"ais_par3.135562","geometry":{"type":"Polygon","coordinates":[[[12.4447,55.6536],[12.4448,55.6536],[12.4449,55.6536],[12.4451,55.6537],[12.4453,55.6537],[12.4455,55.6537],[12.4455,55.6535],[12.4456,55.6533],[12.4455,55.6531],[12.4453,55.6531],[12.445,55.653],[12.4448,55.6531],[12.4447,55.6532],[12.4447,55.6534],[12.4447,55.6535],[12.4447,55.6535],[12.4447,55.6536]]]},"properties":{"sourceId":"ais_par3.135562","a_type":5120,"hectares":0.32}},{"type":"Feature","id":"ais_par3.135804","geometry":{"type":"Polygon","coordinates":[[[12.5024,55.63],[12.5025,55.6299],[12.5025,55.6299],[12.5026,55.6298],[12.5025,55.6298],[12.5025,55.6298],[12.5025,55.6297],[12.5024,55.6297],[12.5023,55.6297],[12.5022,55.6297],[12.5022,55.6298],[12.5022,55.6298],[12.5022,55.6299],[12.5022,55.6299],[12.5023,55.6299],[12.5024,55.63],[12.5024,55.63]]]},"properties":{"sourceId":"ais_par3.135804","a_type":5120,"hectares":0.049}},{"type":"Feature","id":"ais_par3.135805","geometry":{"type":"Polygon","coordinates":[[[12.4554,55.6335],[12.4555,55.6335],[12.4556,55.6336],[12.4557,55.6335],[12.4557,55.6334],[12.4557,55.6334],[12.4557,55.6333],[12.4556,55.6333],[12.4555,55.6333],[12.4554,55.6333],[12.4554,55.6333],[12.4553,55.6334],[12.4554,55.6335],[12.4554,55.6335]]]},"properties":{"sourceId":"ais_par3.135805","a_type":5120,"hectares":0.054}},{"type":"Feature","id":"ais_par3.135806","geometry":{"type":"Polygon","coordinates":[[[12.5021,55.6307],[12.5022,55.6307],[12.5022,55.6306],[12.5023,55.6306],[12.5023,55.6305],[12.5022,55.6305],[12.5022,55.6304],[12.5021,55.6304],[12.502,55.6304],[12.502,55.6304],[12.5019,55.6305],[12.5019,55.6306],[12.5019,55.6306],[12.5019,55.6307],[12.5019,55.6307],[12.502,55.6307],[12.5021,55.6307]]]},"properties":{"sourceId":"ais_par3.135806","a_type":5120,"hectares":0.06}},{"type":"Feature","id":"ais_par3.135808","geometry":{"type":"Polygon","coordinates":[[[12.468,55.6465],[12.468,55.6465],[12.4678,55.6464],[12.4677,55.6464],[12.4676,55.6465],[12.4675,55.6466],[12.4675,55.6467],[12.4675,55.6467],[12.4676,55.6468],[12.4677,55.6468],[12.4677,55.6467],[12.4678,55.6467],[12.4679,55.6466],[12.468,55.6466],[12.468,55.6465],[12.468,55.6465]]]},"properties":{"sourceId":"ais_par3.135808","a_type":5120,"hectares":0.074}},{"type":"Feature","id":"ais_par3.135811","geometry":{"type":"Polygon","coordinates":[[[12.4292,55.6337],[12.4294,55.6336],[12.4295,55.6335],[12.4295,55.6335],[12.4294,55.6334],[12.4293,55.6334],[12.4292,55.6334],[12.429,55.6334],[12.4289,55.6335],[12.4289,55.6335],[12.4289,55.6336],[12.429,55.6337],[12.4291,55.6337],[12.4293,55.6337],[12.4292,55.6337]]]},"properties":{"sourceId":"ais_par3.135811","a_type":5120,"hectares":0.094}},{"type":"Feature","id":"ais_par3.135812","geometry":{"type":"Polygon","coordinates":[[[12.5025,55.6329],[12.5026,55.6329],[12.5027,55.6328],[12.5027,55.6327],[12.5027,55.6326],[12.5026,55.6325],[12.5025,55.6325],[12.5024,55.6324],[12.5023,55.6324],[12.5023,55.6325],[12.5022,55.6326],[12.5022,55.6327],[12.5022,55.6328],[12.5023,55.6328],[12.5025,55.6329],[12.5025,55.6329]]]},"properties":{"sourceId":"ais_par3.135812","a_type":5120,"hectares":0.118}},{"type":"Feature","id":"ais_par3.135803","geometry":{"type":"Polygon","coordinates":[[[12.4269,55.6399],[12.4269,55.6399],[12.4269,55.6399],[12.4269,55.6398],[12.4269,55.6398],[12.4268,55.6398],[12.4267,55.6397],[12.4266,55.6398],[12.4266,55.6398],[12.4266,55.6399],[12.4266,55.6399],[12.4267,55.64],[12.4267,55.64],[12.4268,55.64],[12.4269,55.6399]]]},"properties":{"sourceId":"ais_par3.135803","a_type":5120,"hectares":0.043}},{"type":"Feature","id":"ais_par3.135816","geometry":{"type":"Polygon","coordinates":[[[12.4359,55.6368],[12.4361,55.6369],[12.4362,55.6369],[12.4364,55.6369],[12.4365,55.637],[12.4367,55.6369],[12.4368,55.6369],[12.4368,55.6368],[12.4367,55.6368],[12.4366,55.6367],[12.4365,55.6367],[12.4363,55.6366],[12.436,55.6366],[12.4359,55.6366],[12.4359,55.6367],[12.4359,55.6368],[12.4359,55.6368],[12.4359,55.6368]]]},"properties":{"sourceId":"ais_par3.135816","a_type":5120,"hectares":0.153}},{"type":"Feature","id":"ais_par3.135819","geometry":{"type":"Polygon","coordinates":[[[12.444,55.6437],[12.444,55.6436],[12.4441,55.6435],[12.4441,55.6432],[12.444,55.6431],[12.4438,55.6431],[12.4436,55.6431],[12.4435,55.6433],[12.4434,55.6433],[12.4434,55.6434],[12.4434,55.6434],[12.4434,55.6435],[12.4436,55.6436],[12.4437,55.6437],[12.4438,55.6437],[12.4439,55.6437],[12.444,55.6437]]]},"properties":{"sourceId":"ais_par3.135819","a_type":5120,"hectares":0.232}},{"type":"Feature","id":"ais_par3.135820","geometry":{"type":"Polygon","coordinates":[[[12.4398,55.6327],[12.4399,55.6328],[12.4401,55.6327],[12.4403,55.6326],[12.4404,55.6326],[12.4404,55.6325],[12.4404,55.6324],[12.4403,55.6323],[12.4402,55.6322],[12.44,55.6321],[12.4398,55.6321],[12.4398,55.6321],[12.4396,55.6322],[12.4395,55.6323],[12.4394,55.6323],[12.4393,55.6324],[12.4393,55.6325],[12.4394,55.6326],[12.4396,55.6326],[12.4397,55.6327],[12.4398,55.6328],[12.4398,55.6327]]]},"properties":{"sourceId":"ais_par3.135820","a_type":5120,"hectares":0.339}},{"type":"Feature","id":"ais_par3.135822","geometry":{"type":"Polygon","coordinates":[[[12.4618,55.6611],[12.4618,55.661],[12.4618,55.6609],[12.4617,55.6609],[12.4614,55.6608],[12.4606,55.6606],[12.4602,55.6605],[12.4598,55.6604],[12.4596,55.6603],[12.4593,55.6602],[12.459,55.6601],[12.4587,55.6601],[12.4585,55.6601],[12.4583,55.6601],[12.458,55.6599],[12.4578,55.6598],[12.4576,55.6598],[12.4574,55.6598],[12.4573,55.6598],[12.4572,55.66],[12.4573,55.6601],[12.4576,55.6602],[12.4579,55.6603],[12.458,55.6604],[12.4581,55.6605],[12.4582,55.6607],[12.4583,55.6608],[12.4584,55.6608],[12.4586,55.6609],[12.4587,55.6609],[12.4588,55.6609],[12.4589,55.661],[12.459,55.661],[12.4592,55.6611],[12.4594,55.6611],[12.4596,55.6612],[12.4603,55.6611],[12.4607,55.6611],[12.461,55.6611],[12.4612,55.6611],[12.4614,55.6611],[12.4617,55.6611],[12.4617,55.6611],[12.4618,55.6611]]]},"properties":{"sourceId":"ais_par3.135822","a_type":5120,"hectares":1.853}},{"type":"Feature","id":"ais_par3.137046","geometry":{"type":"Polygon","coordinates":[[[12.4485,55.6493],[12.4493,55.6493],[12.4498,55.6493],[12.4505,55.6489],[12.4498,55.6488],[12.4493,55.6488],[12.4489,55.649],[12.4485,55.6493],[12.4485,55.6493]],[[12.4501,55.6491],[12.45,55.6491],[12.4499,55.6491],[12.4498,55.6491],[12.4495,55.6491],[12.4494,55.6491],[12.4493,55.649],[12.4493,55.649],[12.4493,55.6489],[12.4494,55.6489],[12.4497,55.6489],[12.4502,55.6489],[12.4503,55.649],[12.4502,55.649],[12.4501,55.6491]]]},"properties":{"sourceId":"ais_par3.137046","a_type":4120,"hectares":0.317}}]}
