{"type":"FeatureCollection","metadata":{"kommuneKode":"0175","kommuneNavn":"Rødovre","source":"https://wfs2-miljoegis.mim.dk/natur/ows","layer":"natur:ais_par3","bbox":[12.422991684434846,55.66475257790918,12.478573325008487,55.71497689203658],"fetchedAt":"2026-06-12T20:55:36.388250+00:00"},"features":[{"type":"Feature","id":"ais_par3.134948","geometry":{"type":"Polygon","coordinates":[[[12.4738,55.6813],[12.4738,55.6813],[12.4739,55.6813],[12.474,55.6812],[12.4749,55.6808],[12.475,55.6808],[12.4757,55.6805],[12.4761,55.6803],[12.4764,55.68],[12.4765,55.6798],[12.477,55.6794],[12.477,55.6794],[12.4779,55.6787],[12.4782,55.6786],[12.4784,55.6783],[12.4788,55.6776],[12.4789,55.6774],[12.4792,55.677],[12.4792,55.677],[12.4795,55.6767],[12.4799,55.6764],[12.4802,55.6763],[12.481,55.6763],[12.4811,55.6763],[12.4816,55.6764],[12.4824,55.6768],[12.4824,55.6769],[12.4832,55.6772],[12.4839,55.6774],[12.4843,55.6775],[12.4845,55.6775],[12.4853,55.6777],[12.4857,55.6776],[12.4863,55.6772],[12.4864,55.6771],[12.486,55.677],[12.4849,55.6763],[12.4848,55.6763],[12.4843,55.6759],[12.4842,55.6759],[12.4841,55.675],[12.484,55.6745],[12.484,55.6745],[12.4839,55.674],[12.4835,55.6738],[12.4832,55.6737],[12.483,55.6736],[12.4824,55.6735],[12.4819,55.6731],[12.4813,55.673],[12.4811,55.6729],[12.4807,55.6729],[12.4801,55.6729],[12.48,55.6729],[12.4798,55.6729],[12.4771,55.6729],[12.4761,55.6729],[12.4753,55.6731],[12.4747,55.6733],[12.4743,55.6736],[12.474,55.6742],[12.4739,55.6742],[12.4735,55.6746],[12.4733,55.6755],[12.4733,55.6756],[12.4733,55.6757],[12.4732,55.6759],[12.4733,55.676],[12.4727,55.6768],[12.4726,55.6772],[12.4726,55.6773],[12.4726,55.6774],[12.4725,55.6776],[12.472,55.6782],[12.4719,55.6782],[12.4715,55.6785],[12.4715,55.6786],[12.4712,55.6787],[12.4708,55.679],[12.4706,55.6794],[12.4705,55.6794],[12.4703,55.6798],[12.4699,55.6802],[12.4699,55.6804],[12.4702,55.6805],[12.471,55.6807],[12.4712,55.6808],[12.4724,55.6811],[12.4738,55.6813]],[[12.4758,55.6787],[12.476,55.6788],[12.4759,55.6789],[12.4755,55.679],[12.4753,55.6788],[12.4758,55.6787]]]},"properties":{"sourceId":"ais_par3.134948","a_type":5120,"hectares":46.618}},{"type":"Feature","id":"ais_par3.134990","geometry":{"type":"Polygon","coordinates":[[[12.4697,55.6804],[12.4698,55.68],[12.4701,55.6796],[12.4705,55.679],[12.4707,55.6788],[12.4712,55.6784],[12.4718,55.678],[12.4722,55.6777],[12.4723,55.6772],[12.4725,55.6768],[12.4724,55.6768],[12.4722,55.6772],[12.4722,55.6776],[12.4716,55.678],[12.471,55.6784],[12.4706,55.6788],[12.4703,55.679],[12.47,55.6796],[12.4695,55.6803],[12.4697,55.6804]]]},"properties":{"sourceId":"ais_par3.134990","a_type":5120,"hectares":0.319}},{"type":"Feature","id":"ais_par3.134991","geometry":{"type":"Polygon","coordinates":[[[12.4725,55.6767],[12.4728,55.6764],[12.473,55.676],[12.4731,55.6756],[12.4732,55.6749],[12.4733,55.6746],[12.4736,55.6742],[12.4738,55.6741],[12.4741,55.6735],[12.4743,55.6732],[12.4743,55.673],[12.4742,55.673],[12.4742,55.6732],[12.4737,55.674],[12.4733,55.6743],[12.4732,55.6746],[12.473,55.6749],[12.473,55.6754],[12.4729,55.676],[12.4726,55.6764],[12.4724,55.6767],[12.4725,55.6767]]]},"properties":{"sourceId":"ais_par3.134991","a_type":5120,"hectares":0.31}},{"type":"Feature","id":"ais_par3.134979","geometry":{"type":"Polygon","coordinates":[[[12.4648,55.7144],[12.4657,55.715],[12.4663,55.7154],[12.4663,55.7158],[12.4663,55.7163],[12.4667,55.7164],[12.4675,55.7163],[12.4681,55.7163],[12.4688,55.7164],[12.4695,55.7166],[12.4695,55.7164],[12.4687,55.7163],[12.4678,55.716],[12.4673,55.7159],[12.4672,55.716],[12.4675,55.7161],[12.4675,55.7162],[12.4671,55.7163],[12.4667,55.7163],[12.4666,55.7163],[12.4665,55.7161],[12.4665,55.7159],[12.4668,55.7158],[12.467,55.7159],[12.4671,55.7158],[12.4665,55.7154],[12.465,55.7143],[12.4648,55.7144]]]},"properties":{"sourceId":"ais_par3.134979","a_type":5120,"hectares":0.864}},{"type":"Feature","id":"ais_par3.134981","geometry":{"type":"Polygon","coordinates":[[[12.4574,55.7142],[12.4578,55.7146],[12.458,55.7149],[12.4584,55.7158],[12.4586,55.7163],[12.4588,55.7163],[12.4584,55.7155],[12.4581,55.7148],[12.458,55.7145],[12.4575,55.7142],[12.4574,55.7142]]]},"properties":{"sourceId":"ais_par3.134981","a_type":5120,"hectares":0.26}},{"type":"Feature","id":"ais_par3.134982","geometry":{"type":"Polygon","coordinates":[[[12.453,55.7119],[12.453,55.7124],[12.4536,55.7126],[12.4543,55.7131],[12.4549,55.7134],[12.4555,55.7136],[12.4564,55.7139],[12.457,55.714],[12.4573,55.7141],[12.4574,55.7141],[12.4562,55.7138],[12.4552,55.7135],[12.4548,55.7133],[12.4542,55.7129],[12.4537,55.7126],[12.4532,55.7124],[12.4531,55.712],[12.453,55.7119]]]},"properties":{"sourceId":"ais_par3.134982","a_type":5120,"hectares":0.285}},{"type":"Feature","id":"ais_par3.134983","geometry":{"type":"Polygon","coordinates":[[[12.4561,55.7081],[12.457,55.7087],[12.4581,55.7095],[12.4594,55.7105],[12.4602,55.711],[12.461,55.7116],[12.4613,55.7118],[12.4614,55.7117],[12.461,55.7114],[12.4611,55.711],[12.4611,55.7109],[12.4609,55.7108],[12.4602,55.7108],[12.4595,55.7103],[12.4585,55.7096],[12.4571,55.7085],[12.4572,55.7083],[12.4569,55.708],[12.4563,55.708],[12.4561,55.7081]]]},"properties":{"sourceId":"ais_par3.134983","a_type":5120,"hectares":1.088}},{"type":"Feature","id":"ais_par3.134984","geometry":{"type":"Polygon","coordinates":[[[12.4542,55.7067],[12.4551,55.7073],[12.456,55.708],[12.4561,55.7079],[12.4561,55.7077],[12.4555,55.7074],[12.4544,55.7067],[12.4542,55.7067]]]},"properties":{"sourceId":"ais_par3.134984","a_type":5120,"hectares":0.311}},{"type":"Feature","id":"ais_par3.134985","geometry":{"type":"Polygon","coordinates":[[[12.4547,55.7062],[12.4552,55.7056],[12.4556,55.705],[12.4562,55.7047],[12.457,55.7043],[12.458,55.7041],[12.4593,55.7038],[12.46,55.7036],[12.4609,55.7033],[12.4614,55.7032],[12.4622,55.7032],[12.4632,55.7031],[12.4635,55.703],[12.4639,55.7027],[12.4642,55.7024],[12.4642,55.702],[12.464,55.7016],[12.464,55.7011],[12.4638,55.7011],[12.4639,55.7017],[12.464,55.7023],[12.4639,55.7026],[12.4634,55.7029],[12.4632,55.703],[12.4622,55.7031],[12.4611,55.7031],[12.4597,55.7035],[12.4587,55.7038],[12.458,55.704],[12.4573,55.7041],[12.4568,55.7043],[12.4561,55.7046],[12.4557,55.7049],[12.4552,55.7052],[12.4546,55.7061],[12.4547,55.7062]]]},"properties":{"sourceId":"ais_par3.134985","a_type":5120,"hectares":1.043}},{"type":"Feature","id":"ais_par3.134986","geometry":{"type":"Polygon","coordinates":[[[12.464,55.7008],[12.4641,55.7],[12.4643,55.6992],[12.4642,55.6987],[12.4639,55.6974],[12.4638,55.6975],[12.4639,55.6981],[12.4642,55.6988],[12.4642,55.6993],[12.4641,55.7001],[12.4639,55.7008],[12.464,55.7008]]]},"properties":{"sourceId":"ais_par3.134986","a_type":5120,"hectares":0.225}},{"type":"Feature","id":"ais_par3.134987","geometry":{"type":"Polygon","coordinates":[[[12.4637,55.6974],[12.4638,55.6974],[12.4636,55.6968],[12.4637,55.6964],[12.4639,55.696],[12.4646,55.6954],[12.4654,55.6947],[12.466,55.694],[12.4666,55.6935],[12.467,55.6932],[12.4672,55.6923],[12.4673,55.6917],[12.4671,55.6917],[12.467,55.6923],[12.4669,55.6926],[12.4669,55.6929],[12.4667,55.6933],[12.4662,55.6937],[12.4657,55.6942],[12.465,55.6948],[12.4642,55.6956],[12.4636,55.6961],[12.4635,55.6964],[12.4635,55.6966],[12.4635,55.697],[12.4637,55.6974]]]},"properties":{"sourceId":"ais_par3.134987","a_type":5120,"hectares":0.698}},{"type":"Feature","id":"ais_par3.134988","geometry":{"type":"Polygon","coordinates":[[[12.4677,55.6909],[12.4683,55.6905],[12.4688,55.69],[12.4695,55.6895],[12.47,55.6891],[12.4705,55.6886],[12.4711,55.688],[12.4715,55.6875],[12.4715,55.6873],[12.4715,55.6869],[12.4715,55.6863],[12.4715,55.6856],[12.4715,55.685],[12.4719,55.6843],[12.4718,55.6843],[12.4715,55.6848],[12.4714,55.6854],[12.4713,55.6861],[12.4714,55.6866],[12.4714,55.6871],[12.4714,55.6875],[12.4709,55.6881],[12.4704,55.6886],[12.47,55.689],[12.469,55.6897],[12.4685,55.6901],[12.468,55.6905],[12.4676,55.6909],[12.4677,55.6909]]]},"properties":{"sourceId":"ais_par3.134988","a_type":5120,"hectares":0.685}},{"type":"Feature","id":"ais_par3.134989","geometry":{"type":"Polygon","coordinates":[[[12.472,55.6842],[12.4724,55.6838],[12.473,55.6829],[12.4731,55.6828],[12.4728,55.6824],[12.4719,55.6815],[12.4702,55.6809],[12.4697,55.6808],[12.4697,55.6805],[12.4695,55.6805],[12.4696,55.6808],[12.4702,55.681],[12.4718,55.6816],[12.4727,55.6824],[12.473,55.6828],[12.4727,55.6833],[12.4719,55.6842],[12.472,55.6842]]]},"properties":{"sourceId":"ais_par3.134989","a_type":5120,"hectares":0.423}},{"type":"Feature","id":"ais_par3.136428","geometry":{"type":"Polygon","coordinates":[[[12.4616,55.6998],[12.4619,55.6999],[12.4621,55.7],[12.4622,55.7002],[12.4628,55.6999],[12.4631,55.6996],[12.4632,55.6994],[12.4627,55.6993],[12.4622,55.6995],[12.4618,55.6996],[12.4616,55.6998]]]},"properties":{"sourceId":"ais_par3.136428","a_type":5120,"hectares":0.487}},{"type":"Feature","id":"ais_par3.136430","geometry":{"type":"Polygon","coordinates":[[[12.4584,55.69],[12.4584,55.69],[12.4581,55.6896],[12.4578,55.6893],[12.4577,55.6893],[12.4574,55.6894],[12.4571,55.6896],[12.457,55.6898],[12.4571,55.69],[12.4573,55.6902],[12.4576,55.6903],[12.4579,55.6901],[12.4582,55.6901],[12.4584,55.69]]]},"properties":{"sourceId":"ais_par3.136430","a_type":5120,"hectares":0.594}},{"type":"Feature","id":"ais_par3.136872","geometry":{"type":"Polygon","coordinates":[[[12.4582,55.6901],[12.4579,55.6901],[12.4576,55.6903],[12.4573,55.6902],[12.4571,55.69],[12.457,55.6898],[12.4571,55.6896],[12.4574,55.6894],[12.4577,55.6893],[12.4575,55.6892],[12.4572,55.6893],[12.457,55.6894],[12.4569,55.6896],[12.4569,55.6899],[12.457,55.6902],[12.4571,55.6903],[12.4573,55.6904],[12.4575,55.6904],[12.4579,55.6905],[12.4582,55.6904],[12.4584,55.6901],[12.4584,55.69],[12.4582,55.6901]]]},"properties":{"sourceId":"ais_par3.136872","a_type":4120,"hectares":0.355}},{"type":"Feature","id":"ais_par3.135723","geometry":{"type":"Polygon","coordinates":[[[12.4212,55.7035],[12.4212,55.7035],[12.4214,55.7035],[12.4214,55.7034],[12.4215,55.7034],[12.4215,55.7033],[12.4215,55.7033],[12.4213,55.7032],[12.4212,55.7032],[12.4211,55.7032],[12.4209,55.7033],[12.4209,55.7034],[12.421,55.7034],[12.4211,55.7035],[12.4211,55.7036],[12.4211,55.7038],[12.421,55.7039],[12.421,55.7039],[12.4208,55.7039],[12.4208,55.7038],[12.4206,55.7037],[12.4203,55.7034],[12.4201,55.7034],[12.4198,55.7034],[12.4195,55.7036],[12.4193,55.7038],[12.419,55.7039],[12.4187,55.704],[12.4185,55.704],[12.4181,55.704],[12.4179,55.7041],[12.4177,55.7042],[12.4177,55.7044],[12.4175,55.7046],[12.4169,55.7048],[12.4166,55.7047],[12.4164,55.7047],[12.4163,55.7046],[12.4162,55.7045],[12.4162,55.7045],[12.4165,55.7042],[12.4165,55.7041],[12.4164,55.7037],[12.4164,55.7036],[12.4166,55.7035],[12.4168,55.7035],[12.4171,55.7034],[12.4173,55.7032],[12.4173,55.7031],[12.4172,55.703],[12.417,55.7031],[12.4169,55.7031],[12.4168,55.7032],[12.4167,55.7034],[12.4164,55.7035],[12.4158,55.7037],[12.4157,55.7038],[12.4156,55.704],[12.4155,55.7042],[12.4154,55.7045],[12.4154,55.7047],[12.4155,55.7048],[12.4158,55.7048],[12.4161,55.7048],[12.4165,55.7048],[12.4168,55.7049],[12.4168,55.7049],[12.4167,55.7051],[12.4166,55.7052],[12.4166,55.7053],[12.4168,55.7054],[12.4171,55.7055],[12.4173,55.7055],[12.4176,55.7055],[12.418,55.7055],[12.4182,55.7056],[12.4183,55.7057],[12.4184,55.7055],[12.4185,55.7053],[12.4189,55.7052],[12.4192,55.705],[12.4194,55.7049],[12.4198,55.7048],[12.42,55.7047],[12.4204,55.7046],[12.4205,55.7045],[12.4205,55.7044],[12.4205,55.7043],[12.4206,55.7041],[12.4206,55.7041],[12.4207,55.704],[12.4209,55.704],[12.4211,55.704],[12.4213,55.704],[12.4214,55.704],[12.4215,55.704],[12.4216,55.7041],[12.4218,55.7042],[12.422,55.7042],[12.4222,55.7042],[12.4222,55.7041],[12.4222,55.7041],[12.4223,55.7041],[12.4224,55.7041],[12.4224,55.704],[12.4224,55.704],[12.4223,55.704],[12.4222,55.704],[12.4221,55.7039],[12.4221,55.7039],[12.422,55.7039],[12.4218,55.704],[12.4217,55.7039],[12.4216,55.7038],[12.4215,55.7039],[12.4213,55.7039],[12.4212,55.7039],[12.4212,55.7039],[12.4212,55.7038],[12.4212,55.7036],[12.4212,55.7035]],[[12.419,55.7048],[12.419,55.7045],[12.4189,55.7043],[12.4189,55.7042],[12.4192,55.7041],[12.4194,55.7041],[12.4196,55.7041],[12.4198,55.7041],[12.42,55.7042],[12.4201,55.7044],[12.4202,55.7045],[12.42,55.7046],[12.4196,55.7046],[12.4194,55.7047],[12.4192,55.7047],[12.4191,55.7048],[12.419,55.7048]],[[12.419,55.7051],[12.4188,55.7051],[12.4186,55.7052],[12.4185,55.7052],[12.4184,55.7051],[12.4184,55.7049],[12.4185,55.7049],[12.4186,55.7048],[12.4187,55.7048],[12.4189,55.7049],[12.419,55.7049],[12.419,55.705],[12.419,55.7051]]]},"properties":{"sourceId":"ais_par3.135723","a_type":5120,"hectares":3.831}},{"type":"Feature","id":"ais_par3.136425","geometry":{"type":"Polygon","coordinates":[[[12.4357,55.6914],[12.4358,55.6913],[12.4359,55.6913],[12.4358,55.6912],[12.4357,55.6912],[12.4356,55.6912],[12.4355,55.6912],[12.4355,55.6913],[12.4355,55.6913],[12.4357,55.6914],[12.4357,55.6914]]]},"properties":{"sourceId":"ais_par3.136425","a_type":5120,"hectares":0.046}},{"type":"Feature","id":"ais_par3.136426","geometry":{"type":"Polygon","coordinates":[[[12.4304,55.6918],[12.4305,55.6917],[12.4306,55.6916],[12.4306,55.6916],[12.4305,55.6915],[12.4304,55.6915],[12.4302,55.6915],[12.4301,55.6915],[12.4301,55.6916],[12.4301,55.6917],[12.4302,55.6917],[12.4304,55.6918],[12.4304,55.6918]]]},"properties":{"sourceId":"ais_par3.136426","a_type":5120,"hectares":0.095}},{"type":"Feature","id":"ais_par3.136429","geometry":{"type":"Polygon","coordinates":[[[12.4423,55.6772],[12.4426,55.6771],[12.443,55.6772],[12.4431,55.6769],[12.4429,55.6768],[12.4429,55.6766],[12.4431,55.6766],[12.4431,55.6765],[12.4427,55.6765],[12.4422,55.6765],[12.4422,55.6766],[12.442,55.6766],[12.4419,55.6766],[12.4418,55.6765],[12.4415,55.6765],[12.4413,55.6766],[12.4413,55.6768],[12.4414,55.677],[12.4414,55.6771],[12.4416,55.6772],[12.4416,55.6771],[12.4416,55.677],[12.4416,55.6769],[12.4417,55.6768],[12.4418,55.6767],[12.442,55.6767],[12.4422,55.6768],[12.4424,55.6769],[12.4424,55.677],[12.4424,55.6771],[12.4423,55.6772],[12.4423,55.6772]]]},"properties":{"sourceId":"ais_par3.136429","a_type":5120,"hectares":0.52}},{"type":"Feature","id":"ais_par3.134922","geometry":{"type":"Polygon","coordinates":[[[12.4783,55.6649],[12.4784,55.6649],[12.4784,55.6646],[12.4783,55.6646],[12.4783,55.6649]]]},"properties":{"sourceId":"ais_par3.134922","a_type":5120,"hectares":0.018}},{"type":"Feature","id":"ais_par3.135002","geometry":{"type":"Polygon","coordinates":[[[12.4776,55.6604],[12.4777,55.6606],[12.478,55.6612],[12.4781,55.6616],[12.4782,55.662],[12.4782,55.6627],[12.4782,55.6633],[12.4783,55.6641],[12.4784,55.6641],[12.4784,55.6634],[12.4783,55.6628],[12.4783,55.6621],[12.4783,55.6616],[12.4781,55.6612],[12.4779,55.6608],[12.4777,55.6603],[12.4777,55.66],[12.4775,55.6597],[12.4775,55.6586],[12.4775,55.6584],[12.4776,55.6579],[12.4779,55.6575],[12.4781,55.657],[12.4784,55.6566],[12.4787,55.6564],[12.4794,55.6559],[12.4802,55.6552],[12.4809,55.6548],[12.4812,55.6546],[12.4816,55.6544],[12.482,55.6543],[12.4825,55.6542],[12.483,55.6541],[12.4834,55.6539],[12.4837,55.6537],[12.484,55.6536],[12.4839,55.6535],[12.4837,55.6537],[12.4831,55.654],[12.4822,55.6542],[12.4814,55.6544],[12.481,55.6546],[12.4804,55.655],[12.4797,55.6556],[12.4789,55.6562],[12.4783,55.6567],[12.478,55.657],[12.4777,55.6575],[12.4775,55.658],[12.4774,55.6588],[12.4774,55.6593],[12.4775,55.6598],[12.4776,55.6604]]]},"properties":{"sourceId":"ais_par3.135002","a_type":5120,"hectares":0.942}},{"type":"Feature","id":"ais_par3.135003","geometry":{"type":"Polygon","coordinates":[[[12.4784,55.665],[12.4784,55.6655],[12.4785,55.6655],[12.4785,55.665],[12.4784,55.665]]]},"properties":{"sourceId":"ais_par3.135003","a_type":5120,"hectares":0.039}},{"type":"Feature","id":"ais_par3.135555","geometry":{"type":"Polygon","coordinates":[[[12.4233,55.6667],[12.4235,55.6667],[12.423,55.6663],[12.423,55.6666],[12.423,55.6667],[12.4233,55.6667]]]},"properties":{"sourceId":"ais_par3.135555","a_type":5120,"hectares":0.07}},{"type":"Feature","id":"ais_par3.136427","geometry":{"type":"Polygon","coordinates":[[[12.4437,55.6717],[12.4438,55.6716],[12.4438,55.6715],[12.4438,55.6714],[12.4438,55.6713],[12.444,55.6713],[12.4441,55.6712],[12.4442,55.6712],[12.4441,55.671],[12.444,55.671],[12.4438,55.671],[12.4436,55.671],[12.4434,55.6711],[12.4433,55.6713],[12.4432,55.6714],[12.4432,55.6715],[12.4433,55.6716],[12.4434,55.6717],[12.4436,55.6717],[12.4437,55.6716],[12.4437,55.6717]]]},"properties":{"sourceId":"ais_par3.136427","a_type":5120,"hectares":0.306}},{"type":"Feature","id":"ais_par3.134912","geometry":{"type":"Polygon","coordinates":[[[12.4534,55.7123],[12.4541,55.7127],[12.4547,55.7131],[12.4556,55.7134],[12.4572,55.7133],[12.4584,55.7131],[12.4594,55.7126],[12.46,55.7123],[12.4602,55.712],[12.4604,55.7117],[12.4598,55.7113],[12.4587,55.7105],[12.4579,55.7104],[12.456,55.7103],[12.4542,55.7101],[12.4539,55.7101],[12.4536,55.7105],[12.4534,55.7111],[12.4533,55.7118],[12.4534,55.7123]]]},"properties":{"sourceId":"ais_par3.134912","a_type":4120,"hectares":12.198}},{"type":"Feature","id":"ais_par3.134980","geometry":{"type":"Polygon","coordinates":[[[12.4615,55.712],[12.4625,55.7127],[12.4637,55.7135],[12.4646,55.7142],[12.4647,55.7141],[12.4635,55.7132],[12.4616,55.7119],[12.4615,55.712]]]},"properties":{"sourceId":"ais_par3.134980","a_type":5120,"hectares":0.497}},{"type":"Feature","id":"ais_par3.135544","geometry":{"type":"Polygon","coordinates":[[[12.4237,55.7103],[12.4239,55.7101],[12.4241,55.7097],[12.4242,55.7093],[12.4242,55.7091],[12.4242,55.709],[12.4239,55.7089],[12.4235,55.7089],[12.4231,55.7089],[12.4227,55.709],[12.4225,55.7091],[12.4224,55.7092],[12.4223,55.7094],[12.4224,55.7098],[12.4225,55.7099],[12.4228,55.71],[12.4232,55.7101],[12.4237,55.7103],[12.4237,55.7103]]]},"properties":{"sourceId":"ais_par3.135544","a_type":5120,"hectares":1.391}},{"type":"Feature","id":"ais_par3.135798","geometry":{"type":"Polygon","coordinates":[[[12.4532,55.7127],[12.453,55.7129],[12.453,55.7131],[12.453,55.7132],[12.453,55.7133],[12.4532,55.7134],[12.4532,55.7136],[12.4532,55.7137],[12.4532,55.7138],[12.4533,55.7139],[12.4534,55.7139],[12.4536,55.7139],[12.4538,55.7139],[12.4538,55.7139],[12.4541,55.7138],[12.4542,55.7137],[12.4543,55.7137],[12.4545,55.7136],[12.4546,55.7136],[12.4548,55.7135],[12.4549,55.7135],[12.4548,55.7134],[12.4545,55.7133],[12.4543,55.7131],[12.4542,55.713],[12.454,55.713],[12.4539,55.7129],[12.4539,55.7129],[12.4537,55.7129],[12.4535,55.7128],[12.4533,55.7127],[12.4533,55.7127],[12.4532,55.7127],[12.4532,55.7127]]]},"properties":{"sourceId":"ais_par3.135798","a_type":5120,"hectares":0.947}},{"type":"Feature","id":"ais_par3.136431","geometry":{"type":"Polygon","coordinates":[[[12.4531,55.7111],[12.4533,55.711],[12.4532,55.711],[12.4532,55.7108],[12.4531,55.7106],[12.4532,55.7104],[12.453,55.7103],[12.4527,55.7103],[12.4523,55.7103],[12.4518,55.7103],[12.4517,55.7104],[12.4518,55.7105],[12.4521,55.7106],[12.4522,55.7107],[12.4521,55.7108],[12.4524,55.7109],[12.4526,55.7112],[12.453,55.7112],[12.4531,55.7111],[12.4531,55.7111]]]},"properties":{"sourceId":"ais_par3.136431","a_type":5120,"hectares":0.639}},{"type":"Feature","id":"ais_par3.136432","geometry":{"type":"Polygon","coordinates":[[[12.4516,55.7127],[12.4516,55.7127],[12.4515,55.7125],[12.4513,55.7123],[12.4511,55.712],[12.4507,55.712],[12.4506,55.7121],[12.4505,55.7122],[12.4505,55.7124],[12.4505,55.7126],[12.4505,55.7127],[12.4505,55.7129],[12.4506,55.713],[12.451,55.7131],[12.4513,55.7131],[12.4516,55.713],[12.4516,55.7128],[12.4516,55.7127]]]},"properties":{"sourceId":"ais_par3.136432","a_type":5120,"hectares":0.685}},{"type":"Feature","id":"ais_par3.136873","geometry":{"type":"Polygon","coordinates":[[[12.4531,55.7111],[12.4531,55.7111],[12.453,55.7112],[12.4526,55.7112],[12.4524,55.7109],[12.4521,55.7108],[12.4522,55.7107],[12.4521,55.7106],[12.4518,55.7105],[12.4516,55.7106],[12.4515,55.7107],[12.4516,55.7108],[12.4517,55.7109],[12.452,55.711],[12.4523,55.7112],[12.4525,55.7114],[12.4528,55.7115],[12.453,55.7116],[12.4531,55.7115],[12.4532,55.7113],[12.4531,55.7111]]]},"properties":{"sourceId":"ais_par3.136873","a_type":4120,"hectares":0.408}}]}
