{"type":"FeatureCollection","metadata":{"kommuneKode":"0187","kommuneNavn":"Vallensbæk","source":"https://wfs2-miljoegis.mim.dk/natur/ows","layer":"natur:ais_par3","bbox":[12.34133408438827,55.60953729971982,12.40496801671938,55.656214624312064],"fetchedAt":"2026-06-12T20:55:36.547351+00:00"},"features":[{"type":"Feature","id":"ais_par3.135137","geometry":{"type":"Polygon","coordinates":[[[12.3523,55.6331],[12.3524,55.6332],[12.3525,55.6332],[12.3525,55.6331],[12.3524,55.6331],[12.3523,55.6331]]]},"properties":{"sourceId":"ais_par3.135137","a_type":5120,"hectares":0.007}},{"type":"Feature","id":"ais_par3.135138","geometry":{"type":"Polygon","coordinates":[[[12.3559,55.6325],[12.356,55.6325],[12.3561,55.6324],[12.356,55.6324],[12.3559,55.6324],[12.3559,55.6325]]]},"properties":{"sourceId":"ais_par3.135138","a_type":5120,"hectares":0.008}},{"type":"Feature","id":"ais_par3.135139","geometry":{"type":"Polygon","coordinates":[[[12.3799,55.6235],[12.3799,55.6235],[12.3801,55.6234],[12.3804,55.6233],[12.3801,55.6233],[12.3799,55.6233],[12.3799,55.6234],[12.3799,55.6235]]]},"properties":{"sourceId":"ais_par3.135139","a_type":5120,"hectares":0.041}},{"type":"Feature","id":"ais_par3.135140","geometry":{"type":"Polygon","coordinates":[[[12.3902,55.6243],[12.3903,55.6241],[12.3904,55.624],[12.3905,55.6239],[12.3904,55.6238],[12.3902,55.6238],[12.3902,55.6239],[12.3902,55.624],[12.3901,55.6242],[12.3901,55.6243],[12.3902,55.6243]]]},"properties":{"sourceId":"ais_par3.135140","a_type":5120,"hectares":0.065}},{"type":"Feature","id":"ais_par3.135141","geometry":{"type":"Polygon","coordinates":[[[12.3854,55.6229],[12.3852,55.6229],[12.385,55.6229],[12.385,55.623],[12.3853,55.623],[12.3856,55.623],[12.3859,55.6231],[12.3861,55.6231],[12.3861,55.623],[12.386,55.623],[12.3858,55.6229],[12.3856,55.6229],[12.3855,55.6229],[12.3854,55.6229]]]},"properties":{"sourceId":"ais_par3.135141","a_type":5120,"hectares":0.103}},{"type":"Feature","id":"ais_par3.135796","geometry":{"type":"Polygon","coordinates":[[[12.405,55.6145],[12.4048,55.6144],[12.4044,55.6143],[12.4039,55.6142],[12.4034,55.6141],[12.4028,55.614],[12.4021,55.6139],[12.4016,55.6138],[12.401,55.6137],[12.4007,55.6136],[12.4004,55.6135],[12.4001,55.6133],[12.3999,55.6133],[12.3997,55.6134],[12.3997,55.6136],[12.3997,55.6137],[12.3997,55.6138],[12.3994,55.614],[12.3992,55.6142],[12.3988,55.6144],[12.3986,55.6147],[12.3985,55.615],[12.3986,55.6153],[12.3988,55.6155],[12.3991,55.6157],[12.3997,55.6158],[12.4005,55.616],[12.4009,55.6161],[12.4012,55.6162],[12.4017,55.6162],[12.4022,55.6162],[12.4028,55.6163],[12.4033,55.6164],[12.4039,55.6165],[12.4042,55.6166],[12.4046,55.6166],[12.4047,55.6166],[12.406,55.6167],[12.4069,55.6167],[12.4081,55.6167],[12.409,55.6166],[12.4088,55.6164],[12.4088,55.6162],[12.4089,55.6161],[12.4088,55.616],[12.4087,55.6159],[12.4088,55.6158],[12.4089,55.6156],[12.4089,55.6155],[12.4089,55.6153],[12.4089,55.6152],[12.409,55.6149],[12.4093,55.6147],[12.4095,55.6148],[12.4095,55.6149],[12.4095,55.6152],[12.4096,55.6153],[12.4096,55.6155],[12.4096,55.6157],[12.4096,55.6159],[12.4095,55.616],[12.4094,55.6162],[12.4093,55.6164],[12.4094,55.6166],[12.4097,55.6165],[12.4118,55.6165],[12.4133,55.6165],[12.4152,55.6164],[12.4165,55.6164],[12.4173,55.6164],[12.4186,55.6163],[12.4197,55.6162],[12.4203,55.6163],[12.4203,55.6161],[12.4205,55.6159],[12.4208,55.6157],[12.4209,55.6155],[12.421,55.6153],[12.4211,55.6151],[12.4212,55.6147],[12.4213,55.6145],[12.4217,55.6145],[12.4219,55.6144],[12.4219,55.6146],[12.4219,55.6148],[12.422,55.615],[12.422,55.6151],[12.422,55.6152],[12.4219,55.6153],[12.422,55.6154],[12.4219,55.6155],[12.4218,55.6157],[12.4219,55.6158],[12.4219,55.6158],[12.4218,55.6159],[12.422,55.616],[12.4226,55.6159],[12.4231,55.6159],[12.4238,55.6159],[12.4247,55.6159],[12.4253,55.6159],[12.4255,55.6159],[12.4257,55.6159],[12.4262,55.6159],[12.4277,55.6159],[12.4282,55.6158],[12.4288,55.6158],[12.43,55.6159],[12.4301,55.6158],[12.43,55.6155],[12.43,55.6153],[12.43,55.6149],[12.4301,55.6148],[12.4301,55.6147],[12.4303,55.6146],[12.4304,55.6145],[12.4307,55.6144],[12.4308,55.6144],[12.4309,55.6146],[12.4307,55.6149],[12.4307,55.6149],[12.4307,55.6153],[12.4306,55.6154],[12.4306,55.6155],[12.4306,55.6157],[12.4305,55.6158],[12.4309,55.6158],[12.4315,55.6157],[12.4326,55.6156],[12.4337,55.6156],[12.435,55.6156],[12.4363,55.6156],[12.4374,55.6155],[12.438,55.6156],[12.4389,55.6156],[12.44,55.6155],[12.4413,55.6154],[12.4419,55.6153],[12.4423,55.6151],[12.4428,55.6151],[12.4432,55.6151],[12.4435,55.6152],[12.4435,55.6152],[12.4435,55.615],[12.4434,55.6149],[12.4434,55.6148],[12.4434,55.6144],[12.4436,55.6141],[12.4438,55.6137],[12.444,55.6133],[12.4442,55.6129],[12.4442,55.6126],[12.4442,55.6124],[12.444,55.6123],[12.4438,55.6125],[12.4436,55.6126],[12.4429,55.6127],[12.4418,55.6128],[12.441,55.6129],[12.4405,55.6129],[12.4397,55.6129],[12.4391,55.6131],[12.4387,55.6131],[12.4382,55.6131],[12.4375,55.6131],[12.4368,55.6132],[12.4364,55.6132],[12.4359,55.6133],[12.4355,55.6135],[12.4352,55.6136],[12.4349,55.6136],[12.4344,55.6136],[12.4336,55.6137],[12.4323,55.6138],[12.4319,55.6138],[12.4316,55.6139],[12.4311,55.6141],[12.431,55.6142],[12.4308,55.6143],[12.4304,55.6142],[12.43,55.6141],[12.4295,55.614],[12.4289,55.614],[12.4285,55.6141],[12.4282,55.6142],[12.4279,55.6142],[12.4274,55.6141],[12.4268,55.6141],[12.4262,55.614],[12.4258,55.614],[12.4255,55.6141],[12.4248,55.6141],[12.4242,55.6141],[12.4238,55.6141],[12.4232,55.6142],[12.4228,55.6142],[12.4224,55.6142],[12.4222,55.6143],[12.4219,55.6143],[12.4216,55.6142],[12.4212,55.6143],[12.4207,55.6143],[12.4199,55.6143],[12.4193,55.6144],[12.4189,55.6144],[12.4183,55.6144],[12.4176,55.6144],[12.417,55.6145],[12.4164,55.6144],[12.4157,55.6143],[12.4154,55.6143],[12.415,55.6144],[12.4143,55.6145],[12.4137,55.6145],[12.413,55.6145],[12.4122,55.6144],[12.4116,55.6144],[12.4112,55.6145],[12.4111,55.6146],[12.4104,55.6145],[12.4099,55.6145],[12.4092,55.6146],[12.4088,55.6146],[12.408,55.6145],[12.4076,55.6145],[12.4068,55.6145],[12.406,55.6146],[12.4051,55.6145],[12.405,55.6145]],[[12.4334,55.6149],[12.4334,55.6148],[12.4337,55.6148],[12.4342,55.6148],[12.4346,55.6147],[12.435,55.6147],[12.435,55.6148],[12.4349,55.6148],[12.4347,55.6149],[12.4346,55.615],[12.4345,55.6151],[12.4342,55.6151],[12.4339,55.6151],[12.4335,55.6151],[12.4333,55.615],[12.4329,55.6148],[12.4329,55.6148],[12.4331,55.6147],[12.4334,55.6149]],[[12.4378,55.6147],[12.4378,55.6147],[12.4379,55.6146],[12.4382,55.6146],[12.4384,55.6146],[12.4385,55.6146],[12.4387,55.6145],[12.4391,55.6145],[12.4393,55.6145],[12.4394,55.6146],[12.4393,55.6147],[12.439,55.6148],[12.4388,55.6148],[12.4384,55.6148],[12.4382,55.6149],[12.438,55.6149],[12.4379,55.6149],[12.4377,55.6148],[12.4375,55.6147],[12.4375,55.6146],[12.4378,55.6147]]]},"properties":{"sourceId":"ais_par3.135796","a_type":5120,"hectares":61.977}},{"type":"Feature","id":"ais_par3.136171","geometry":{"type":"Polygon","coordinates":[[[12.3651,55.613],[12.3653,55.6132],[12.3655,55.6131],[12.3657,55.613],[12.3655,55.6128],[12.3653,55.613],[12.3651,55.613]]]},"properties":{"sourceId":"ais_par3.136171","a_type":5120,"hectares":0.066}},{"type":"Feature","id":"ais_par3.136172","geometry":{"type":"Polygon","coordinates":[[[12.3485,55.6173],[12.3483,55.6174],[12.3481,55.6175],[12.348,55.6176],[12.3481,55.6177],[12.3482,55.6177],[12.3485,55.6175],[12.3486,55.6174],[12.3485,55.6173]]]},"properties":{"sourceId":"ais_par3.136172","a_type":5120,"hectares":0.076}},{"type":"Feature","id":"ais_par3.136177","geometry":{"type":"Polygon","coordinates":[[[12.3611,55.6107],[12.3609,55.6109],[12.3606,55.611],[12.3606,55.611],[12.3609,55.611],[12.3612,55.611],[12.3615,55.611],[12.3614,55.6108],[12.3611,55.6107],[12.3611,55.6107]]]},"properties":{"sourceId":"ais_par3.136177","a_type":5120,"hectares":0.108}},{"type":"Feature","id":"ais_par3.136181","geometry":{"type":"Polygon","coordinates":[[[12.364,55.6246],[12.364,55.6247],[12.3643,55.6248],[12.3646,55.6248],[12.3648,55.6249],[12.3651,55.6248],[12.365,55.6247],[12.3647,55.6246],[12.3645,55.6246],[12.3643,55.6245],[12.3641,55.6245],[12.364,55.6246],[12.364,55.6246]]]},"properties":{"sourceId":"ais_par3.136181","a_type":5120,"hectares":0.133}},{"type":"Feature","id":"ais_par3.136183","geometry":{"type":"Polygon","coordinates":[[[12.3401,55.6182],[12.3404,55.6183],[12.3406,55.6183],[12.3408,55.6183],[12.3409,55.6182],[12.3409,55.6181],[12.3408,55.618],[12.3406,55.618],[12.3404,55.618],[12.3402,55.618],[12.3401,55.6181],[12.3401,55.6181],[12.3401,55.6182]]]},"properties":{"sourceId":"ais_par3.136183","a_type":5120,"hectares":0.152}},{"type":"Feature","id":"ais_par3.136189","geometry":{"type":"Polygon","coordinates":[[[12.3595,55.6158],[12.3596,55.6159],[12.3599,55.6159],[12.36,55.6159],[12.36,55.6157],[12.3598,55.6156],[12.3597,55.6154],[12.3595,55.6153],[12.3593,55.6152],[12.3592,55.6151],[12.3591,55.615],[12.359,55.6151],[12.3592,55.6153],[12.3593,55.6155],[12.3594,55.6158],[12.3595,55.6158]]]},"properties":{"sourceId":"ais_par3.136189","a_type":5120,"hectares":0.258}},{"type":"Feature","id":"ais_par3.136190","geometry":{"type":"Polygon","coordinates":[[[12.3462,55.6151],[12.3462,55.6152],[12.3464,55.6152],[12.3465,55.6152],[12.3468,55.6151],[12.3469,55.6149],[12.3471,55.6147],[12.3471,55.6146],[12.3472,55.6145],[12.3471,55.6144],[12.3469,55.6144],[12.3467,55.6144],[12.3465,55.6145],[12.3464,55.6146],[12.3462,55.6148],[12.3461,55.6149],[12.3462,55.615],[12.3461,55.6151],[12.3462,55.6151],[12.3462,55.6151]]]},"properties":{"sourceId":"ais_par3.136190","a_type":5120,"hectares":0.362}},{"type":"Feature","id":"ais_par3.136192","geometry":{"type":"Polygon","coordinates":[[[12.3333,55.6081],[12.3336,55.6081],[12.3337,55.6082],[12.3339,55.6083],[12.3343,55.6085],[12.3344,55.6085],[12.3346,55.6086],[12.3349,55.6086],[12.3352,55.6086],[12.3355,55.6085],[12.3357,55.6085],[12.3359,55.6086],[12.336,55.6086],[12.3362,55.6087],[12.3362,55.6087],[12.3362,55.6089],[12.3363,55.609],[12.3362,55.6093],[12.3362,55.6095],[12.3361,55.6096],[12.336,55.6098],[12.3359,55.6099],[12.3358,55.61],[12.3359,55.61],[12.3362,55.6099],[12.3364,55.6098],[12.3366,55.6095],[12.3367,55.6093],[12.3368,55.609],[12.3371,55.6087],[12.3373,55.6085],[12.3374,55.6084],[12.3374,55.6083],[12.3373,55.6081],[12.3371,55.6081],[12.3366,55.608],[12.3362,55.608],[12.3356,55.608],[12.3351,55.608],[12.3347,55.6078],[12.3342,55.6078],[12.3339,55.6079],[12.3336,55.6079],[12.3333,55.6081],[12.3333,55.6081]]]},"properties":{"sourceId":"ais_par3.136192","a_type":5120,"hectares":2.047}},{"type":"Feature","id":"ais_par3.136193","geometry":{"type":"Polygon","coordinates":[[[12.3777,55.6082],[12.3775,55.6082],[12.377,55.6087],[12.3776,55.6091],[12.3782,55.6095],[12.3785,55.6097],[12.3788,55.6098],[12.3792,55.6098],[12.3797,55.61],[12.3799,55.6102],[12.3795,55.6103],[12.3796,55.6105],[12.3801,55.6102],[12.3805,55.6105],[12.3808,55.611],[12.3813,55.6114],[12.3819,55.6118],[12.3825,55.6122],[12.3831,55.6127],[12.383,55.6129],[12.3831,55.613],[12.3837,55.6127],[12.3831,55.6123],[12.3824,55.6118],[12.382,55.6115],[12.3815,55.6111],[12.3809,55.6106],[12.3803,55.6101],[12.3797,55.6097],[12.379,55.6092],[12.3784,55.6087],[12.378,55.6084],[12.3777,55.6082]]]},"properties":{"sourceId":"ais_par3.136193","a_type":5120,"hectares":2.425}},{"type":"Feature","id":"ais_par3.136602","geometry":{"type":"Polygon","coordinates":[[[12.3824,55.6113],[12.3824,55.6111],[12.3796,55.609],[12.3795,55.6089],[12.3794,55.609],[12.3797,55.6092],[12.3803,55.6096],[12.3807,55.61],[12.3812,55.6103],[12.3818,55.6108],[12.3821,55.611],[12.3824,55.6113],[12.3824,55.6113]]]},"properties":{"sourceId":"ais_par3.136602","a_type":4210,"hectares":0.237}},{"type":"Feature","id":"ais_par3.136603","geometry":{"type":"Polygon","coordinates":[[[12.3786,55.6083],[12.3785,55.6082],[12.3785,55.6082],[12.3784,55.6081],[12.3783,55.6082],[12.3784,55.6083],[12.3786,55.6084],[12.3787,55.6084],[12.3788,55.6085],[12.3788,55.6086],[12.379,55.6087],[12.3791,55.6087],[12.3791,55.6087],[12.3786,55.6083]]]},"properties":{"sourceId":"ais_par3.136603","a_type":4210,"hectares":0.066}},{"type":"Feature","id":"ais_par3.136612","geometry":{"type":"Polygon","coordinates":[[[12.3757,55.6076],[12.3754,55.6074],[12.3749,55.6073],[12.3746,55.607],[12.3745,55.6068],[12.3741,55.6066],[12.3739,55.6066],[12.3738,55.6065],[12.3733,55.6062],[12.3728,55.606],[12.3722,55.6056],[12.3717,55.6053],[12.3711,55.6051],[12.3711,55.6049],[12.3712,55.6046],[12.3709,55.6045],[12.3704,55.6044],[12.3701,55.6043],[12.3698,55.6043],[12.3698,55.6042],[12.3699,55.6041],[12.3696,55.6039],[12.3692,55.6038],[12.3691,55.604],[12.3691,55.6041],[12.3688,55.604],[12.3685,55.6038],[12.3681,55.6039],[12.3682,55.6037],[12.3679,55.6036],[12.3675,55.6035],[12.3674,55.6037],[12.367,55.6037],[12.3668,55.6036],[12.3666,55.6034],[12.3663,55.6038],[12.3662,55.6039],[12.3661,55.6041],[12.3658,55.6041],[12.3656,55.6041],[12.3655,55.6042],[12.3658,55.6044],[12.3657,55.6047],[12.3661,55.6049],[12.3667,55.605],[12.3674,55.6047],[12.3677,55.6047],[12.3678,55.6048],[12.3676,55.605],[12.3669,55.6052],[12.3665,55.6054],[12.367,55.6057],[12.3677,55.606],[12.3681,55.6063],[12.3686,55.6062],[12.3689,55.6061],[12.3691,55.6062],[12.3686,55.6064],[12.369,55.6067],[12.3692,55.6066],[12.3694,55.6068],[12.3697,55.6068],[12.3695,55.6071],[12.3699,55.6074],[12.3701,55.6075],[12.3702,55.6074],[12.3705,55.6074],[12.3707,55.6075],[12.3705,55.6076],[12.3708,55.6078],[12.3704,55.6079],[12.3707,55.6081],[12.3711,55.608],[12.3712,55.6081],[12.371,55.6082],[12.3711,55.6082],[12.3715,55.6082],[12.3716,55.6083],[12.3714,55.6084],[12.3714,55.6085],[12.3717,55.6084],[12.3719,55.6084],[12.3722,55.6085],[12.3723,55.6085],[12.3726,55.6087],[12.373,55.6088],[12.3737,55.6092],[12.3742,55.6094],[12.3752,55.61],[12.3759,55.6094],[12.3766,55.6089],[12.377,55.6087],[12.3775,55.6082],[12.3769,55.6082],[12.3765,55.6083],[12.376,55.6078],[12.3757,55.6076]]]},"properties":{"sourceId":"ais_par3.136612","a_type":4210,"hectares":18.868}},{"type":"Feature","id":"ais_par3.136616","geometry":{"type":"Polygon","coordinates":[[[12.3975,55.6134],[12.3975,55.6133],[12.3971,55.6134],[12.3968,55.6136],[12.3965,55.6138],[12.396,55.6143],[12.3957,55.6144],[12.3955,55.6145],[12.3952,55.6144],[12.3947,55.6142],[12.3947,55.6141],[12.3944,55.614],[12.3943,55.614],[12.3943,55.6141],[12.3948,55.6143],[12.3951,55.6144],[12.3954,55.6145],[12.3956,55.6145],[12.396,55.6144],[12.3963,55.6142],[12.3965,55.614],[12.3967,55.6138],[12.3969,55.6136],[12.3971,55.6135],[12.3973,55.6135],[12.3975,55.6134],[12.3975,55.6134]]]},"properties":{"sourceId":"ais_par3.136616","a_type":4210,"hectares":0.193}},{"type":"Feature","id":"ais_par3.136617","geometry":{"type":"Polygon","coordinates":[[[12.3933,55.615],[12.3933,55.6149],[12.3931,55.6148],[12.3929,55.6148],[12.3926,55.6148],[12.3916,55.6146],[12.391,55.6145],[12.3905,55.6144],[12.3901,55.6144],[12.3901,55.6142],[12.3902,55.614],[12.3902,55.6139],[12.3902,55.6137],[12.3897,55.6137],[12.389,55.6137],[12.3878,55.6137],[12.3874,55.6136],[12.3865,55.6134],[12.386,55.6132],[12.3856,55.6131],[12.3851,55.613],[12.3846,55.613],[12.3842,55.6129],[12.3839,55.6129],[12.3839,55.613],[12.3844,55.613],[12.3852,55.6131],[12.3855,55.6131],[12.3863,55.6134],[12.3869,55.6136],[12.3874,55.6137],[12.3879,55.6137],[12.3888,55.6137],[12.3894,55.6137],[12.3899,55.6138],[12.3901,55.6138],[12.3901,55.614],[12.39,55.6142],[12.39,55.6144],[12.3902,55.6145],[12.3917,55.6147],[12.3923,55.6148],[12.393,55.6149],[12.3933,55.615],[12.3933,55.615]]]},"properties":{"sourceId":"ais_par3.136617","a_type":4210,"hectares":0.477}},{"type":"Feature","id":"ais_par3.136618","geometry":{"type":"Polygon","coordinates":[[[12.3952,55.6148],[12.3945,55.6145],[12.3939,55.6143],[12.3933,55.614],[12.3927,55.6138],[12.3923,55.6136],[12.3918,55.6135],[12.3912,55.6134],[12.3912,55.6136],[12.3915,55.6139],[12.3921,55.6141],[12.3928,55.6143],[12.3936,55.6145],[12.3942,55.6146],[12.3954,55.6149],[12.3952,55.6148]]]},"properties":{"sourceId":"ais_par3.136618","a_type":4210,"hectares":0.865}},{"type":"Feature","id":"ais_par3.136622","geometry":{"type":"Polygon","coordinates":[[[12.3808,55.6144],[12.3813,55.6141],[12.3819,55.6137],[12.3824,55.6134],[12.3828,55.6131],[12.3831,55.613],[12.383,55.6129],[12.3831,55.6127],[12.3825,55.6122],[12.3819,55.6118],[12.3813,55.6114],[12.3808,55.611],[12.3805,55.6105],[12.3801,55.6102],[12.3796,55.6105],[12.3795,55.6103],[12.3799,55.6102],[12.3797,55.61],[12.3792,55.6098],[12.3787,55.6099],[12.3784,55.6098],[12.3779,55.6095],[12.3776,55.6092],[12.3773,55.6091],[12.3771,55.6092],[12.3766,55.6091],[12.3757,55.6099],[12.3754,55.61],[12.3754,55.6103],[12.3757,55.6106],[12.3766,55.6111],[12.377,55.6114],[12.3766,55.6118],[12.376,55.6122],[12.3756,55.6126],[12.3753,55.6128],[12.3759,55.6131],[12.3765,55.6134],[12.3773,55.6138],[12.3777,55.614],[12.3774,55.6143],[12.377,55.6146],[12.3767,55.6149],[12.3765,55.6151],[12.3761,55.6152],[12.3759,55.6153],[12.3754,55.6157],[12.3762,55.616],[12.3769,55.6162],[12.3779,55.6166],[12.3785,55.6167],[12.3792,55.6168],[12.3799,55.617],[12.3804,55.6172],[12.3812,55.6164],[12.3817,55.6161],[12.3821,55.6157],[12.3826,55.6153],[12.382,55.6151],[12.3814,55.6149],[12.381,55.6146],[12.3808,55.6144]]]},"properties":{"sourceId":"ais_par3.136622","a_type":4210,"hectares":26.281}},{"type":"Feature","id":"ais_par3.136919","geometry":{"type":"Polygon","coordinates":[[[12.3525,55.6322],[12.3531,55.6324],[12.3539,55.6327],[12.3548,55.633],[12.3554,55.6334],[12.3561,55.6328],[12.3555,55.6325],[12.3558,55.6322],[12.3561,55.6319],[12.3565,55.6316],[12.357,55.6312],[12.3576,55.631],[12.3584,55.6307],[12.3591,55.6305],[12.3589,55.63],[12.3588,55.6297],[12.3579,55.6299],[12.3569,55.63],[12.3561,55.63],[12.3557,55.63],[12.355,55.6298],[12.3548,55.63],[12.3545,55.6303],[12.3542,55.6305],[12.354,55.6307],[12.3536,55.631],[12.3531,55.6315],[12.3528,55.6318],[12.3525,55.6321],[12.3523,55.6322],[12.3525,55.6322]]]},"properties":{"sourceId":"ais_par3.136919","a_type":4120,"hectares":7.806}},{"type":"Feature","id":"ais_par3.137274","geometry":{"type":"Polygon","coordinates":[[[12.3673,55.6239],[12.3676,55.6237],[12.3679,55.6235],[12.3685,55.6229],[12.3687,55.6226],[12.3689,55.6224],[12.3691,55.6222],[12.3695,55.6219],[12.3691,55.6217],[12.3684,55.6213],[12.368,55.6211],[12.3677,55.6212],[12.3669,55.6215],[12.3666,55.6217],[12.3664,55.6219],[12.3661,55.6221],[12.3654,55.6226],[12.365,55.6227],[12.3647,55.6228],[12.364,55.6232],[12.3631,55.6235],[12.3626,55.6237],[12.3622,55.6239],[12.3625,55.624],[12.363,55.6241],[12.3634,55.6242],[12.3638,55.6243],[12.3643,55.6243],[12.365,55.6245],[12.3653,55.6247],[12.3654,55.6248],[12.3655,55.6249],[12.3658,55.6247],[12.3662,55.6245],[12.3666,55.6243],[12.3669,55.6241],[12.3673,55.6239],[12.3673,55.6239]]]},"properties":{"sourceId":"ais_par3.137274","a_type":4110,"hectares":8.045}},{"type":"Feature","id":"ais_par3.137344","geometry":{"type":"Polygon","coordinates":[[[12.3591,55.6305],[12.3599,55.6304],[12.3608,55.6302],[12.3616,55.6301],[12.3625,55.6301],[12.3635,55.63],[12.3635,55.6296],[12.3635,55.6291],[12.3626,55.6292],[12.3618,55.6293],[12.3607,55.6295],[12.3598,55.6296],[12.3588,55.6297],[12.3589,55.63],[12.3591,55.6305]]]},"properties":{"sourceId":"ais_par3.137344","a_type":4110,"hectares":2.587}},{"type":"Feature","id":"ais_par3.137345","geometry":{"type":"Polygon","coordinates":[[[12.3432,55.6355],[12.3443,55.6357],[12.3454,55.6359],[12.3463,55.6361],[12.3471,55.6362],[12.3479,55.6364],[12.3482,55.6361],[12.3485,55.6357],[12.3489,55.6354],[12.3492,55.6351],[12.3499,55.6346],[12.3502,55.6343],[12.3506,55.634],[12.3508,55.6337],[12.3511,55.6334],[12.3514,55.6331],[12.3523,55.6333],[12.3528,55.6335],[12.3537,55.6338],[12.3544,55.6341],[12.3542,55.6343],[12.3539,55.6347],[12.3535,55.635],[12.3527,55.6357],[12.3527,55.6358],[12.3532,55.6359],[12.3537,55.636],[12.3545,55.6363],[12.3554,55.6364],[12.356,55.6361],[12.3567,55.6357],[12.357,55.6353],[12.3575,55.635],[12.3581,55.6346],[12.3584,55.6344],[12.3588,55.6341],[12.3592,55.6336],[12.3595,55.6333],[12.3589,55.6331],[12.3582,55.6328],[12.3578,55.6326],[12.3574,55.6324],[12.3574,55.6323],[12.3589,55.6321],[12.3597,55.632],[12.3605,55.6319],[12.3613,55.6318],[12.3621,55.6317],[12.3626,55.6316],[12.3632,55.6316],[12.3633,55.6313],[12.3633,55.631],[12.3634,55.6307],[12.364,55.6307],[12.3647,55.6307],[12.3654,55.6307],[12.3662,55.6307],[12.3671,55.6308],[12.3675,55.6305],[12.3678,55.6302],[12.3671,55.6302],[12.3664,55.6302],[12.3656,55.6302],[12.3648,55.6302],[12.3642,55.6302],[12.3634,55.6301],[12.3626,55.6302],[12.3616,55.6304],[12.3607,55.6305],[12.3599,55.6307],[12.3592,55.6307],[12.3591,55.6305],[12.3584,55.6307],[12.3576,55.631],[12.357,55.6312],[12.3565,55.6316],[12.3561,55.6319],[12.3558,55.6322],[12.3555,55.6325],[12.3561,55.6328],[12.3554,55.6334],[12.3548,55.633],[12.3539,55.6327],[12.3531,55.6324],[12.3523,55.6322],[12.3525,55.6321],[12.3528,55.6318],[12.3531,55.6315],[12.3536,55.631],[12.354,55.6307],[12.3542,55.6305],[12.3545,55.6303],[12.3548,55.63],[12.355,55.6298],[12.3555,55.6292],[12.3557,55.6289],[12.356,55.6287],[12.3564,55.6284],[12.3569,55.6282],[12.3578,55.6277],[12.3589,55.6273],[12.3594,55.6271],[12.36,55.627],[12.3604,55.6269],[12.3599,55.6266],[12.3593,55.6264],[12.3586,55.6261],[12.3582,55.626],[12.3579,55.6258],[12.3574,55.6258],[12.3569,55.6259],[12.3565,55.6259],[12.356,55.626],[12.3556,55.626],[12.3551,55.6259],[12.3544,55.626],[12.3538,55.626],[12.3533,55.626],[12.3529,55.6261],[12.3525,55.6262],[12.352,55.6262],[12.3515,55.6264],[12.3513,55.6266],[12.3511,55.6268],[12.3509,55.627],[12.3506,55.6273],[12.3505,55.6275],[12.3504,55.6278],[12.3502,55.6282],[12.3502,55.6285],[12.3501,55.6288],[12.35,55.6292],[12.3499,55.6295],[12.3498,55.6297],[12.3497,55.63],[12.3496,55.6302],[12.3493,55.6304],[12.3485,55.6308],[12.3481,55.6309],[12.3477,55.6311],[12.3473,55.6313],[12.347,55.6315],[12.3466,55.6317],[12.3464,55.6318],[12.346,55.6323],[12.3458,55.6326],[12.3457,55.6328],[12.3455,55.6329],[12.3453,55.6331],[12.3447,55.6337],[12.3444,55.6339],[12.3442,55.6342],[12.3439,55.6345],[12.3437,55.6349],[12.3435,55.6352],[12.3432,55.6355],[12.3432,55.6355]],[[12.3559,55.6325],[12.3559,55.6324],[12.356,55.6324],[12.3561,55.6324],[12.356,55.6325],[12.3559,55.6325]],[[12.3523,55.6331],[12.3524,55.6331],[12.3525,55.6331],[12.3525,55.6332],[12.3524,55.6332],[12.3523,55.6331]]]},"properties":{"sourceId":"ais_par3.137345","a_type":4110,"hectares":64.249}},{"type":"Feature","id":"ais_par3.135314","geometry":{"type":"Polygon","coordinates":[[[12.3451,55.6476],[12.3452,55.6476],[12.3452,55.6475],[12.3452,55.6474],[12.345,55.6474],[12.345,55.6475],[12.3451,55.6476],[12.3451,55.6476]]]},"properties":{"sourceId":"ais_par3.135314","a_type":5120,"hectares":0.019}},{"type":"Feature","id":"ais_par3.135142","geometry":{"type":"Polygon","coordinates":[[[12.3656,55.6367],[12.3657,55.6368],[12.366,55.6369],[12.3662,55.6369],[12.3664,55.6369],[12.3664,55.6368],[12.3662,55.6367],[12.3661,55.6366],[12.3659,55.6366],[12.3657,55.6366],[12.3656,55.6367]]]},"properties":{"sourceId":"ais_par3.135142","a_type":5120,"hectares":0.112}},{"type":"Feature","id":"ais_par3.135143","geometry":{"type":"Polygon","coordinates":[[[12.3598,55.6533],[12.3597,55.6532],[12.3596,55.6531],[12.3597,55.6531],[12.3597,55.653],[12.3598,55.653],[12.3598,55.6529],[12.3596,55.653],[12.3594,55.653],[12.3593,55.653],[12.3592,55.6532],[12.3593,55.6533],[12.3594,55.6533],[12.3595,55.6534],[12.3596,55.6534],[12.3597,55.6534],[12.3598,55.6534],[12.3598,55.6533]]]},"properties":{"sourceId":"ais_par3.135143","a_type":5120,"hectares":0.141}},{"type":"Feature","id":"ais_par3.135144","geometry":{"type":"Polygon","coordinates":[[[12.369,55.6436],[12.3692,55.6436],[12.3696,55.6436],[12.3699,55.6436],[12.3701,55.6437],[12.3703,55.6437],[12.3708,55.6436],[12.3708,55.6435],[12.3707,55.6433],[12.3706,55.6432],[12.3702,55.6432],[12.3698,55.6432],[12.3694,55.6433],[12.3691,55.6433],[12.3689,55.6434],[12.3688,55.6435],[12.3688,55.6436],[12.369,55.6436]]]},"properties":{"sourceId":"ais_par3.135144","a_type":5120,"hectares":0.528}},{"type":"Feature","id":"ais_par3.135294","geometry":{"type":"Polygon","coordinates":[[[12.3432,55.6439],[12.3437,55.6437],[12.3442,55.6438],[12.3446,55.6439],[12.3451,55.6442],[12.3452,55.6444],[12.3452,55.6447],[12.3457,55.6447],[12.3462,55.6447],[12.3465,55.6448],[12.347,55.6447],[12.3474,55.6446],[12.3477,55.6446],[12.3478,55.6449],[12.3478,55.6453],[12.348,55.6455],[12.3483,55.6456],[12.3486,55.6456],[12.3492,55.6456],[12.3497,55.6456],[12.3501,55.6454],[12.3504,55.6452],[12.3507,55.645],[12.351,55.6446],[12.3512,55.6443],[12.3518,55.6437],[12.3519,55.6435],[12.352,55.6432],[12.3521,55.6429],[12.3515,55.6427],[12.3508,55.6426],[12.3501,55.6425],[12.3497,55.6428],[12.3493,55.6432],[12.3489,55.6434],[12.3484,55.6436],[12.3479,55.6437],[12.3475,55.6438],[12.347,55.6438],[12.3465,55.6437],[12.3459,55.6435],[12.3455,55.6434],[12.345,55.6433],[12.3449,55.643],[12.3449,55.6428],[12.3452,55.6427],[12.3457,55.6424],[12.3459,55.6422],[12.3456,55.642],[12.3451,55.6419],[12.3445,55.6419],[12.3431,55.6421],[12.3426,55.6422],[12.3422,55.6423],[12.3411,55.6425],[12.3407,55.6426],[12.3403,55.6428],[12.3399,55.6431],[12.3396,55.6432],[12.3392,55.6434],[12.339,55.6436],[12.3389,55.6438],[12.3387,55.644],[12.3386,55.6442],[12.3386,55.6443],[12.3391,55.6443],[12.3396,55.6442],[12.34,55.6443],[12.3405,55.6444],[12.3408,55.6445],[12.341,55.6447],[12.3413,55.6449],[12.3416,55.6448],[12.342,55.6448],[12.3424,55.6447],[12.3424,55.6445],[12.3425,55.6443],[12.3426,55.6442],[12.3427,55.6441],[12.3427,55.644],[12.3432,55.6439]],[[12.3399,55.6438],[12.34,55.644],[12.3399,55.6439],[12.3399,55.6437],[12.3397,55.6436],[12.3397,55.6436],[12.3399,55.6435],[12.3401,55.6433],[12.3402,55.6432],[12.3405,55.6431],[12.3407,55.6433],[12.3408,55.6434],[12.3408,55.6436],[12.3407,55.6437],[12.3405,55.6439],[12.3403,55.644],[12.34,55.644],[12.3399,55.6438]]]},"properties":{"sourceId":"ais_par3.135294","a_type":5120,"hectares":15.915}},{"type":"Feature","id":"ais_par3.135563","geometry":{"type":"Polygon","coordinates":[[[12.3849,55.6525],[12.3852,55.6526],[12.3856,55.6526],[12.3859,55.6527],[12.3861,55.6528],[12.3863,55.6528],[12.3865,55.6527],[12.3864,55.6526],[12.3863,55.6525],[12.3859,55.6524],[12.3856,55.6523],[12.3852,55.6523],[12.385,55.6523],[12.3848,55.6523],[12.3847,55.6524],[12.3848,55.6525],[12.3849,55.6525],[12.3849,55.6525]]]},"properties":{"sourceId":"ais_par3.135563","a_type":5120,"hectares":0.337}},{"type":"Feature","id":"ais_par3.136319","geometry":{"type":"Polygon","coordinates":[[[12.3524,55.6389],[12.3523,55.6387],[12.3513,55.6383],[12.3506,55.6381],[12.3499,55.6378],[12.3488,55.6375],[12.3483,55.6373],[12.348,55.6375],[12.3477,55.6375],[12.3475,55.6376],[12.3471,55.6376],[12.3468,55.6376],[12.3468,55.6373],[12.3467,55.6371],[12.3467,55.6371],[12.3466,55.637],[12.3458,55.6367],[12.3448,55.6365],[12.344,55.6364],[12.3433,55.6362],[12.3427,55.6361],[12.3424,55.6361],[12.3421,55.6361],[12.3417,55.6362],[12.3417,55.6364],[12.3417,55.6364],[12.3414,55.637],[12.3411,55.6374],[12.3412,55.6377],[12.3414,55.638],[12.3429,55.6386],[12.3442,55.639],[12.3453,55.6392],[12.3453,55.6392],[12.3453,55.6392],[12.3458,55.6394],[12.3465,55.6396],[12.3472,55.6397],[12.3479,55.6398],[12.3486,55.64],[12.3494,55.6402],[12.3502,55.6403],[12.3509,55.6404],[12.3512,55.6405],[12.3514,55.6402],[12.3516,55.6398],[12.3519,55.6396],[12.3521,55.6393],[12.3523,55.6391],[12.3524,55.6389]],[[12.3476,55.6383],[12.3475,55.6382],[12.3475,55.638],[12.3477,55.6378],[12.3481,55.6378],[12.3485,55.6378],[12.3488,55.6379],[12.3488,55.6381],[12.3488,55.6383],[12.3486,55.6384],[12.3482,55.6385],[12.3479,55.6384],[12.3476,55.6383]]]},"properties":{"sourceId":"ais_par3.136319","a_type":5120,"hectares":16.989}},{"type":"Feature","id":"ais_par3.136920","geometry":{"type":"Polygon","coordinates":[[[12.349,55.6362],[12.3504,55.6364],[12.3505,55.6367],[12.3512,55.6368],[12.3518,55.6369],[12.3524,55.637],[12.3528,55.637],[12.3534,55.6371],[12.3538,55.6372],[12.3542,55.6372],[12.3542,55.6374],[12.3545,55.6371],[12.3549,55.6368],[12.3554,55.6364],[12.3545,55.6363],[12.3537,55.636],[12.3532,55.6359],[12.3527,55.6358],[12.3527,55.6357],[12.3535,55.635],[12.3539,55.6347],[12.3542,55.6343],[12.3544,55.6341],[12.3537,55.6338],[12.3528,55.6335],[12.3523,55.6333],[12.3514,55.6331],[12.3511,55.6334],[12.3508,55.6337],[12.3506,55.634],[12.3502,55.6343],[12.3499,55.6346],[12.3492,55.6351],[12.3489,55.6354],[12.3485,55.6357],[12.3482,55.6361],[12.349,55.6362]]]},"properties":{"sourceId":"ais_par3.136920","a_type":4120,"hectares":10.466}},{"type":"Feature","id":"ais_par3.137155","geometry":{"type":"Polygon","coordinates":[[[12.3374,55.6404],[12.3376,55.6407],[12.3379,55.641],[12.3386,55.6411],[12.3393,55.6412],[12.3398,55.6411],[12.3404,55.6408],[12.3409,55.6406],[12.3414,55.6403],[12.3417,55.6401],[12.342,55.64],[12.3419,55.6398],[12.3413,55.6396],[12.3407,55.6395],[12.3402,55.6393],[12.3397,55.6391],[12.3393,55.6389],[12.3387,55.6391],[12.3382,55.6394],[12.3378,55.6397],[12.3376,55.6399],[12.3373,55.6401],[12.3374,55.6404]]]},"properties":{"sourceId":"ais_par3.137155","a_type":4120,"hectares":4.555}}]}
