{"type":"FeatureCollection","metadata":{"kommuneKode":"0269","kommuneNavn":"Solrød","source":"https://wfs2-miljoegis.mim.dk/natur/ows","layer":"natur:ais_par3","bbox":[12.093703604643391,55.507841525687496,12.254923494353694,55.56671068476658],"fetchedAt":"2026-06-12T20:55:37.374489+00:00"},"features":[{"type":"Feature","id":"ais_par3.83289","geometry":{"type":"Polygon","coordinates":[[[12.2022,55.5049],[12.2025,55.5057],[12.2031,55.5067],[12.2035,55.5072],[12.2038,55.5072],[12.204,55.5076],[12.2037,55.5077],[12.2046,55.5087],[12.2048,55.5087],[12.2053,55.5093],[12.2059,55.51],[12.2059,55.5103],[12.207,55.5107],[12.2077,55.5109],[12.2085,55.5114],[12.2096,55.5125],[12.2096,55.5125],[12.2116,55.5146],[12.2123,55.5153],[12.2125,55.5153],[12.2129,55.5156],[12.2132,55.5159],[12.2147,55.5173],[12.2151,55.5175],[12.2155,55.5176],[12.2158,55.518],[12.217,55.5191],[12.217,55.5192],[12.2175,55.5197],[12.2183,55.5209],[12.2183,55.521],[12.2187,55.5215],[12.2189,55.5215],[12.2197,55.5224],[12.2196,55.5224],[12.2199,55.5229],[12.2203,55.5229],[12.2208,55.5236],[12.2205,55.5236],[12.22,55.5234],[12.2199,55.5235],[12.2204,55.5237],[12.221,55.5243],[12.2214,55.5243],[12.2227,55.5258],[12.2236,55.5257],[12.2237,55.5258],[12.224,55.5258],[12.2241,55.5259],[12.2247,55.5258],[12.2232,55.5239],[12.223,55.5231],[12.2225,55.5226],[12.2225,55.5224],[12.2218,55.5217],[12.2205,55.5196],[12.2198,55.518],[12.2193,55.5169],[12.2191,55.5165],[12.2183,55.5149],[12.2169,55.5122],[12.2162,55.5107],[12.2154,55.5107],[12.215,55.5111],[12.2154,55.512],[12.2165,55.5129],[12.2167,55.5126],[12.217,55.5133],[12.2168,55.5136],[12.2167,55.5141],[12.2171,55.5145],[12.2175,55.5147],[12.2177,55.5149],[12.2177,55.5149],[12.2178,55.515],[12.2179,55.5151],[12.218,55.5152],[12.218,55.5153],[12.2182,55.5154],[12.2182,55.5154],[12.2182,55.5156],[12.2183,55.5157],[12.2184,55.5158],[12.2185,55.516],[12.2184,55.5161],[12.2185,55.5162],[12.2184,55.5162],[12.2184,55.5162],[12.2184,55.5163],[12.2183,55.5164],[12.2182,55.5165],[12.2183,55.5165],[12.2185,55.5165],[12.2186,55.5166],[12.2186,55.5166],[12.2187,55.5166],[12.2188,55.5167],[12.2187,55.5167],[12.2185,55.5168],[12.2188,55.5167],[12.2189,55.5169],[12.2192,55.5178],[12.2189,55.5175],[12.2187,55.5173],[12.2186,55.5175],[12.2183,55.5175],[12.2188,55.5181],[12.2193,55.518],[12.2198,55.5188],[12.22,55.519],[12.2201,55.5194],[12.2204,55.5198],[12.2204,55.5198],[12.2204,55.5199],[12.2205,55.5199],[12.2206,55.52],[12.2207,55.5201],[12.2206,55.5202],[12.2207,55.5204],[12.2207,55.5207],[12.2209,55.5209],[12.221,55.5209],[12.2211,55.5209],[12.2212,55.521],[12.2212,55.5212],[12.2214,55.5213],[12.2215,55.5214],[12.2216,55.5215],[12.2215,55.5217],[12.2215,55.5217],[12.2217,55.522],[12.2217,55.5223],[12.2221,55.5229],[12.2227,55.5232],[12.2228,55.5233],[12.2228,55.5233],[12.2229,55.5235],[12.2229,55.5235],[12.223,55.5237],[12.2229,55.5237],[12.223,55.5238],[12.2229,55.5239],[12.2229,55.524],[12.2227,55.524],[12.2228,55.5241],[12.2229,55.5241],[12.223,55.5242],[12.2229,55.5243],[12.2228,55.5243],[12.2226,55.5242],[12.2226,55.5241],[12.2225,55.5241],[12.2225,55.524],[12.2223,55.5239],[12.2221,55.5239],[12.222,55.5238],[12.222,55.5237],[12.222,55.5237],[12.2219,55.5236],[12.2218,55.5236],[12.2218,55.5235],[12.2217,55.5233],[12.2213,55.5229],[12.2215,55.5228],[12.2215,55.5228],[12.2214,55.5227],[12.2211,55.5227],[12.2207,55.5224],[12.2207,55.5226],[12.2205,55.5224],[12.2197,55.5214],[12.2198,55.5211],[12.2194,55.5212],[12.2193,55.5207],[12.2193,55.5207],[12.2193,55.5207],[12.2191,55.5207],[12.2185,55.5202],[12.218,55.5194],[12.2179,55.5194],[12.2179,55.5193],[12.2174,55.5192],[12.2174,55.5183],[12.2171,55.5184],[12.2172,55.5181],[12.217,55.518],[12.2169,55.5174],[12.2168,55.5173],[12.2173,55.5171],[12.2173,55.5171],[12.2174,55.517],[12.2174,55.5169],[12.2174,55.5168],[12.2173,55.5168],[12.2173,55.5167],[12.217,55.5168],[12.2166,55.5162],[12.2167,55.5161],[12.2175,55.516],[12.2172,55.5157],[12.2176,55.5158],[12.2178,55.5155],[12.2171,55.5155],[12.217,55.5154],[12.2168,55.5156],[12.2163,55.5159],[12.2166,55.516],[12.2165,55.5161],[12.2161,55.5161],[12.2156,55.5158],[12.2151,55.5159],[12.2153,55.5156],[12.2153,55.5156],[12.2153,55.5156],[12.2154,55.5155],[12.2152,55.5154],[12.2147,55.5155],[12.2141,55.5148],[12.214,55.5146],[12.2138,55.5144],[12.214,55.5142],[12.2139,55.5138],[12.2138,55.5137],[12.2137,55.5135],[12.2135,55.5133],[12.2133,55.5132],[12.213,55.5132],[12.2124,55.5127],[12.2123,55.5124],[12.2119,55.5124],[12.2113,55.5117],[12.211,55.5113],[12.2102,55.5117],[12.2101,55.5116],[12.21,55.5111],[12.21,55.5111],[12.21,55.5111],[12.21,55.5109],[12.2094,55.5109],[12.21,55.5105],[12.2097,55.5105],[12.2088,55.5105],[12.2088,55.5105],[12.2087,55.5105],[12.2086,55.5105],[12.2084,55.5105],[12.2085,55.5104],[12.2085,55.5103],[12.2086,55.5103],[12.2087,55.5102],[12.2086,55.5102],[12.2087,55.5099],[12.2086,55.5094],[12.2084,55.5094],[12.2086,55.5093],[12.2086,55.5092],[12.2091,55.5089],[12.2091,55.5087],[12.2077,55.5091],[12.2078,55.5087],[12.2068,55.5087],[12.2065,55.5088],[12.2059,55.5087],[12.2058,55.5088],[12.2057,55.5088],[12.2056,55.5087],[12.2055,55.5087],[12.2054,55.5086],[12.2054,55.5086],[12.2053,55.5086],[12.2051,55.5082],[12.205,55.5081],[12.2048,55.508],[12.2049,55.508],[12.2049,55.5079],[12.2049,55.5078],[12.2049,55.5078],[12.2047,55.5078],[12.2047,55.5077],[12.2046,55.5077],[12.2046,55.5076],[12.2045,55.5076],[12.2044,55.5075],[12.2043,55.5075],[12.2042,55.5074],[12.2042,55.5074],[12.2042,55.5073],[12.2043,55.5073],[12.2042,55.5072],[12.2043,55.5072],[12.2042,55.5071],[12.2043,55.5071],[12.2043,55.507],[12.2042,55.5069],[12.204,55.5069],[12.2041,55.5068],[12.2041,55.5067],[12.2042,55.5067],[12.2042,55.5067],[12.2041,55.5066],[12.204,55.5067],[12.2039,55.5067],[12.2038,55.5066],[12.2038,55.5066],[12.2038,55.5065],[12.2038,55.5063],[12.2039,55.5064],[12.2039,55.5065],[12.204,55.5066],[12.2041,55.5065],[12.2041,55.5065],[12.2041,55.5065],[12.2042,55.5063],[12.2042,55.5063],[12.2041,55.5062],[12.2041,55.5062],[12.2042,55.5061],[12.2042,55.5061],[12.204,55.5058],[12.204,55.5058],[12.2039,55.5058],[12.2038,55.5057],[12.2037,55.5057],[12.2038,55.5056],[12.2038,55.5055],[12.2036,55.5055],[12.2035,55.5054],[12.2035,55.5054],[12.2036,55.5053],[12.2037,55.5053],[12.2037,55.5053],[12.2041,55.5054],[12.2043,55.5054],[12.2044,55.5053],[12.2046,55.5053],[12.2047,55.5053],[12.2048,55.5053],[12.2049,55.5053],[12.2049,55.5053],[12.205,55.5052],[12.2051,55.5052],[12.2052,55.5052],[12.2052,55.5051],[12.2055,55.5052],[12.2057,55.5052],[12.206,55.5052],[12.206,55.5052],[12.2062,55.5051],[12.2062,55.5051],[12.2062,55.5051],[12.2062,55.505],[12.2062,55.505],[12.2062,55.5049],[12.2062,55.5049],[12.2061,55.5048],[12.2061,55.5047],[12.2062,55.5047],[12.2062,55.5047],[12.2062,55.5047],[12.2058,55.5044],[12.2058,55.5044],[12.2058,55.5044],[12.2057,55.5042],[12.2051,55.504],[12.2045,55.504],[12.2045,55.5039],[12.2045,55.5038],[12.2045,55.5039],[12.2045,55.5038],[12.2043,55.5037],[12.2038,55.5035],[12.2035,55.5034],[12.2031,55.5033],[12.2023,55.5029],[12.2026,55.5029],[12.2025,55.5028],[12.2023,55.5027],[12.202,55.5026],[12.2019,55.5026],[12.2018,55.5026],[12.2017,55.5026],[12.2018,55.5025],[12.2022,55.5026],[12.2022,55.5026],[12.2022,55.5026],[12.2023,55.5025],[12.2022,55.5025],[12.2021,55.5024],[12.2022,55.5024],[12.2022,55.5023],[12.2024,55.5023],[12.2026,55.5023],[12.2027,55.5022],[12.2027,55.5022],[12.2029,55.5022],[12.2029,55.5022],[12.2029,55.5022],[12.2031,55.5021],[12.2032,55.5021],[12.2036,55.5021],[12.2038,55.5022],[12.2039,55.5022],[12.204,55.5022],[12.2038,55.5018],[12.2036,55.5017],[12.2036,55.5017],[12.203,55.5017],[12.2029,55.5015],[12.2037,55.5016],[12.2035,55.5015],[12.2035,55.5015],[12.2035,55.5015],[12.2033,55.5012],[12.2025,55.5015],[12.2027,55.502],[12.202,55.5021],[12.2014,55.5014],[12.2024,55.5013],[12.2025,55.5013],[12.2024,55.5012],[12.2024,55.5012],[12.2024,55.5011],[12.2024,55.5011],[12.2024,55.5011],[12.2021,55.5008],[12.2019,55.5004],[12.2015,55.5003],[12.2016,55.5002],[12.2015,55.5002],[12.2014,55.5002],[12.2015,55.5001],[12.2015,55.5001],[12.2016,55.5001],[12.2017,55.5],[12.2017,55.4998],[12.2014,55.4996],[12.2017,55.4996],[12.2017,55.4995],[12.2017,55.4995],[12.2017,55.4994],[12.202,55.4994],[12.2021,55.4995],[12.2022,55.4994],[12.2022,55.4994],[12.2021,55.4993],[12.2021,55.4992],[12.202,55.4992],[12.202,55.4992],[12.2021,55.4992],[12.2022,55.4993],[12.2024,55.4993],[12.2026,55.4994],[12.2026,55.4994],[12.2028,55.4989],[12.2025,55.499],[12.2021,55.4988],[12.2022,55.4988],[12.2021,55.4987],[12.2021,55.4987],[12.2023,55.4986],[12.2025,55.4986],[12.2027,55.4986],[12.2026,55.4984],[12.2019,55.4985],[12.2005,55.4985],[12.2008,55.4983],[12.2007,55.4983],[12.2007,55.4982],[12.2009,55.4982],[12.201,55.4982],[12.2011,55.4982],[12.2012,55.4981],[12.2013,55.498],[12.2014,55.498],[12.2014,55.4979],[12.2015,55.4976],[12.2014,55.4976],[12.2014,55.4976],[12.2013,55.4976],[12.2012,55.4977],[12.201,55.4978],[12.2009,55.4977],[12.2009,55.4977],[12.2011,55.4976],[12.2013,55.4975],[12.2013,55.4975],[12.2013,55.4974],[12.2014,55.4973],[12.2015,55.4974],[12.2012,55.4968],[12.2014,55.4967],[12.2012,55.4967],[12.2011,55.4966],[12.2012,55.4966],[12.2012,55.4966],[12.2013,55.4965],[12.2014,55.4965],[12.2014,55.4965],[12.2015,55.4964],[12.2016,55.4964],[12.2017,55.4964],[12.2019,55.4962],[12.2013,55.4962],[12.2016,55.4961],[12.2016,55.496],[12.2017,55.496],[12.2017,55.496],[12.2016,55.4958],[12.2015,55.4953],[12.201,55.4953],[12.2009,55.4952],[12.2008,55.4951],[12.2008,55.4951],[12.2008,55.495],[12.2007,55.495],[12.2004,55.4948],[12.2005,55.4947],[12.2005,55.4947],[12.2004,55.4947],[12.2003,55.4947],[12.2001,55.4947],[12.2001,55.4946],[12.2003,55.4946],[12.2003,55.4946],[12.2001,55.4945],[12.2004,55.4944],[12.2004,55.4944],[12.2003,55.4944],[12.2001,55.4944],[12.2,55.4944],[12.1999,55.4944],[12.1998,55.4943],[12.1999,55.4943],[12.1999,55.4942],[12.2,55.4942],[12.2001,55.4942],[12.2003,55.4942],[12.2004,55.4942],[12.2005,55.4942],[12.2002,55.494],[12.2001,55.4941],[12.2001,55.494],[12.2001,55.494],[12.2001,55.494],[12.1999,55.4938],[12.2001,55.4935],[12.2004,55.4931],[12.2009,55.4927],[12.2009,55.4927],[12.2008,55.4927],[12.2005,55.4928],[12.2004,55.4928],[12.2005,55.4928],[12.2006,55.4927],[12.2007,55.4927],[12.2008,55.4926],[12.2007,55.4926],[12.2,55.4925],[12.2,55.4925],[12.1999,55.4925],[12.1997,55.4925],[12.1997,55.4926],[12.1994,55.4927],[12.1994,55.4927],[12.1992,55.4926],[12.1993,55.4924],[12.1994,55.4923],[12.1995,55.4921],[12.1996,55.4921],[12.1995,55.4915],[12.1998,55.491],[12.1999,55.4907],[12.1997,55.4906],[12.1989,55.4907],[12.1982,55.4908],[12.1981,55.4908],[12.198,55.4909],[12.1979,55.4909],[12.1979,55.4909],[12.1976,55.4909],[12.1975,55.4909],[12.1974,55.4909],[12.1974,55.4909],[12.1973,55.4909],[12.1974,55.4909],[12.1973,55.4909],[12.1972,55.4909],[12.1972,55.4908],[12.1972,55.4908],[12.1974,55.4908],[12.1975,55.4907],[12.1977,55.4907],[12.1979,55.4907],[12.198,55.4907],[12.1981,55.4906],[12.1983,55.4906],[12.1985,55.4906],[12.1986,55.4906],[12.1987,55.4906],[12.1987,55.4905],[12.1986,55.4903],[12.1983,55.4904],[12.1983,55.4904],[12.1983,55.4904],[12.1978,55.4905],[12.1976,55.4905],[12.1976,55.4905],[12.1976,55.4905],[12.1975,55.4905],[12.1974,55.4905],[12.1973,55.4905],[12.1972,55.4905],[12.197,55.4906],[12.197,55.4906],[12.197,55.4905],[12.1972,55.4903],[12.1973,55.4902],[12.1972,55.4902],[12.1973,55.4899],[12.1974,55.4898],[12.1974,55.4897],[12.1976,55.4897],[12.1974,55.4897],[12.1973,55.4897],[12.1973,55.4896],[12.1971,55.4896],[12.1971,55.4896],[12.197,55.4896],[12.197,55.4896],[12.1969,55.4895],[12.1967,55.4895],[12.1966,55.4896],[12.1965,55.4896],[12.1965,55.4896],[12.1954,55.4897],[12.1948,55.4898],[12.1946,55.4898],[12.1946,55.4898],[12.1947,55.4896],[12.1947,55.4895],[12.1947,55.4895],[12.1946,55.4894],[12.1946,55.4894],[12.1946,55.4892],[12.1943,55.4892],[12.1945,55.4889],[12.1945,55.4884],[12.1944,55.4885],[12.1945,55.4884],[12.1945,55.4884],[12.1945,55.4882],[12.1947,55.4881],[12.1948,55.488],[12.1948,55.488],[12.1948,55.4879],[12.1949,55.4878],[12.1949,55.4878],[12.1949,55.4877],[12.195,55.4876],[12.1951,55.4876],[12.1952,55.4876],[12.1953,55.4875],[12.1954,55.4875],[12.1955,55.4875],[12.1956,55.4875],[12.1957,55.4875],[12.1959,55.4875],[12.1962,55.4874],[12.1962,55.4873],[12.1964,55.4873],[12.1964,55.4873],[12.1965,55.4872],[12.1966,55.4871],[12.1966,55.487],[12.1966,55.487],[12.1966,55.4869],[12.1965,55.4869],[12.1963,55.4868],[12.1963,55.4869],[12.1964,55.4869],[12.1964,55.487],[12.1958,55.4871],[12.1957,55.4872],[12.1954,55.4872],[12.195,55.4873],[12.194,55.4872],[12.1933,55.4872],[12.1926,55.4873],[12.1917,55.4874],[12.1919,55.488],[12.1936,55.4879],[12.1944,55.4916],[12.1913,55.4921],[12.193,55.4953],[12.1958,55.4945],[12.1963,55.4952],[12.1972,55.4965],[12.1965,55.4967],[12.1968,55.497],[12.1975,55.4969],[12.1983,55.4982],[12.1981,55.4983],[12.1984,55.4989],[12.1995,55.4989],[12.1998,55.4998],[12.1982,55.5001],[12.1989,55.5012],[12.201,55.5038],[12.2029,55.5037],[12.203,55.504],[12.2027,55.5041],[12.2027,55.5045],[12.2016,55.5047],[12.2018,55.505],[12.2022,55.5049]],[[12.197,55.4969],[12.1968,55.4967],[12.197,55.4967],[12.1972,55.4968],[12.197,55.4969]]]},"properties":{"sourceId":"ais_par3.83289","a_type":4210,"hectares":83.952}},{"type":"Feature","id":"ais_par3.83294","geometry":{"type":"Polygon","coordinates":[[[12.2177,55.517],[12.2184,55.5168],[12.2182,55.5169],[12.2179,55.5168],[12.2178,55.5169],[12.2176,55.5169],[12.2177,55.517],[12.2177,55.517]]]},"properties":{"sourceId":"ais_par3.83294","a_type":4210,"hectares":0.031}},{"type":"Feature","id":"ais_par3.83295","geometry":{"type":"Polygon","coordinates":[[[12.2217,55.5227],[12.2217,55.5227],[12.2217,55.5227],[12.2217,55.5227]]]},"properties":{"sourceId":"ais_par3.83295","a_type":4210,"hectares":921207}},{"type":"Feature","id":"ais_par3.84492","geometry":{"type":"Polygon","coordinates":[[[12.1026,55.5237],[12.1023,55.5239],[12.1026,55.5241],[12.1029,55.524],[12.1026,55.5237]]]},"properties":{"sourceId":"ais_par3.84492","a_type":5120,"hectares":0.085}},{"type":"Feature","id":"ais_par3.84493","geometry":{"type":"Polygon","coordinates":[[[12.1102,55.5178],[12.1099,55.518],[12.1102,55.5181],[12.1106,55.518],[12.1102,55.5178]]]},"properties":{"sourceId":"ais_par3.84493","a_type":5120,"hectares":0.086}},{"type":"Feature","id":"ais_par3.84494","geometry":{"type":"Polygon","coordinates":[[[12.1066,55.518],[12.1064,55.5181],[12.1066,55.5182],[12.1069,55.5181],[12.1066,55.518]]]},"properties":{"sourceId":"ais_par3.84494","a_type":5120,"hectares":0.038}},{"type":"Feature","id":"ais_par3.84501","geometry":{"type":"Polygon","coordinates":[[[12.0999,55.5127],[12.0997,55.5128],[12.0998,55.5129],[12.1001,55.5128],[12.0999,55.5127]]]},"properties":{"sourceId":"ais_par3.84501","a_type":5120,"hectares":0.03}},{"type":"Feature","id":"ais_par3.84502","geometry":{"type":"Polygon","coordinates":[[[12.1079,55.51],[12.1077,55.5099],[12.1075,55.51],[12.1076,55.5101],[12.1079,55.51]]]},"properties":{"sourceId":"ais_par3.84502","a_type":5120,"hectares":0.023}},{"type":"Feature","id":"ais_par3.84503","geometry":{"type":"Polygon","coordinates":[[[12.1082,55.5105],[12.108,55.5106],[12.1081,55.5108],[12.1083,55.5108],[12.1082,55.5105]]]},"properties":{"sourceId":"ais_par3.84503","a_type":5120,"hectares":0.024}},{"type":"Feature","id":"ais_par3.84504","geometry":{"type":"Polygon","coordinates":[[[12.1202,55.5074],[12.12,55.5073],[12.1197,55.5074],[12.1198,55.5075],[12.1202,55.5074]]]},"properties":{"sourceId":"ais_par3.84504","a_type":5120,"hectares":0.045}},{"type":"Feature","id":"ais_par3.84505","geometry":{"type":"Polygon","coordinates":[[[12.1201,55.5134],[12.12,55.5135],[12.1201,55.5136],[12.1204,55.5135],[12.1201,55.5134]]]},"properties":{"sourceId":"ais_par3.84505","a_type":5120,"hectares":0.036}},{"type":"Feature","id":"ais_par3.84777","geometry":{"type":"Polygon","coordinates":[[[12.1773,55.5103],[12.1772,55.5103],[12.177,55.5102],[12.1769,55.5102],[12.1769,55.5103],[12.177,55.5103],[12.1773,55.5103]]]},"properties":{"sourceId":"ais_par3.84777","a_type":5120,"hectares":0.028}},{"type":"Feature","id":"ais_par3.84778","geometry":{"type":"Polygon","coordinates":[[[12.1819,55.5094],[12.1818,55.5094],[12.1818,55.5095],[12.1821,55.5096],[12.1822,55.5097],[12.1823,55.5096],[12.1823,55.5095],[12.1822,55.5094],[12.1822,55.5093],[12.1823,55.5092],[12.1823,55.5092],[12.1822,55.509],[12.1819,55.5091],[12.1818,55.5092],[12.1819,55.5093],[12.1819,55.5094]]]},"properties":{"sourceId":"ais_par3.84778","a_type":5120,"hectares":0.167}},{"type":"Feature","id":"ais_par3.84780","geometry":{"type":"Polygon","coordinates":[[[12.1856,55.5063],[12.1851,55.5064],[12.1848,55.5063],[12.1844,55.5062],[12.1843,55.5061],[12.1842,55.506],[12.1837,55.5061],[12.1835,55.5063],[12.1836,55.5066],[12.1841,55.5067],[12.1845,55.5068],[12.1855,55.5065],[12.1856,55.5063]]]},"properties":{"sourceId":"ais_par3.84780","a_type":5120,"hectares":0.636}},{"type":"Feature","id":"ais_par3.84873","geometry":{"type":"Polygon","coordinates":[[[12.0956,55.5118],[12.0953,55.5119],[12.0952,55.512],[12.0954,55.5121],[12.0956,55.5121],[12.0957,55.512],[12.0956,55.5118]]]},"properties":{"sourceId":"ais_par3.84873","a_type":5120,"hectares":0.058}},{"type":"Feature","id":"ais_par3.86179","geometry":{"type":"Polygon","coordinates":[[[12.1186,55.5245],[12.1188,55.5246],[12.119,55.5245],[12.119,55.5244],[12.1186,55.5245]]]},"properties":{"sourceId":"ais_par3.86179","a_type":5120,"hectares":0.03}},{"type":"Feature","id":"ais_par3.86180","geometry":{"type":"Polygon","coordinates":[[[12.1188,55.5269],[12.1185,55.527],[12.1186,55.5272],[12.1189,55.5271],[12.1188,55.5269]]]},"properties":{"sourceId":"ais_par3.86180","a_type":5120,"hectares":0.045}},{"type":"Feature","id":"ais_par3.86181","geometry":{"type":"Polygon","coordinates":[[[12.1203,55.5287],[12.1202,55.5288],[12.1203,55.5289],[12.1205,55.5288],[12.1203,55.5287]]]},"properties":{"sourceId":"ais_par3.86181","a_type":5120,"hectares":0.037}},{"type":"Feature","id":"ais_par3.86183","geometry":{"type":"Polygon","coordinates":[[[12.1274,55.5284],[12.1275,55.5287],[12.1278,55.5287],[12.1279,55.5286],[12.1274,55.5284]]]},"properties":{"sourceId":"ais_par3.86183","a_type":5120,"hectares":0.054}},{"type":"Feature","id":"ais_par3.86186","geometry":{"type":"Polygon","coordinates":[[[12.1379,55.5219],[12.1378,55.5221],[12.1384,55.5221],[12.1383,55.5219],[12.1379,55.5219]]]},"properties":{"sourceId":"ais_par3.86186","a_type":5120,"hectares":0.057}},{"type":"Feature","id":"ais_par3.86187","geometry":{"type":"Polygon","coordinates":[[[12.1417,55.5277],[12.1417,55.5279],[12.1419,55.528],[12.1421,55.5279],[12.1417,55.5277]]]},"properties":{"sourceId":"ais_par3.86187","a_type":5120,"hectares":0.042}},{"type":"Feature","id":"ais_par3.86190","geometry":{"type":"Polygon","coordinates":[[[12.1348,55.5186],[12.1346,55.5187],[12.1349,55.5189],[12.1348,55.5186]]]},"properties":{"sourceId":"ais_par3.86190","a_type":5120,"hectares":0.018}},{"type":"Feature","id":"ais_par3.86191","geometry":{"type":"Polygon","coordinates":[[[12.1545,55.5149],[12.1557,55.5149],[12.1557,55.5148],[12.1545,55.5149],[12.1545,55.5149]]]},"properties":{"sourceId":"ais_par3.86191","a_type":5120,"hectares":0.063}},{"type":"Feature","id":"ais_par3.86195","geometry":{"type":"Polygon","coordinates":[[[12.1892,55.5123],[12.1892,55.5128],[12.1895,55.5126],[12.1892,55.5123]]]},"properties":{"sourceId":"ais_par3.86195","a_type":5120,"hectares":0.049}},{"type":"Feature","id":"ais_par3.86196","geometry":{"type":"Polygon","coordinates":[[[12.1819,55.5171],[12.1823,55.5175],[12.1825,55.5175],[12.182,55.517],[12.1819,55.5171]]]},"properties":{"sourceId":"ais_par3.86196","a_type":5120,"hectares":0.079}},{"type":"Feature","id":"ais_par3.86197","geometry":{"type":"Polygon","coordinates":[[[12.1829,55.5174],[12.1831,55.5173],[12.1836,55.5172],[12.1839,55.5169],[12.1838,55.5167],[12.183,55.5172],[12.1829,55.5174]]]},"properties":{"sourceId":"ais_par3.86197","a_type":5120,"hectares":0.193}},{"type":"Feature","id":"ais_par3.86198","geometry":{"type":"Polygon","coordinates":[[[12.1834,55.5165],[12.1826,55.5168],[12.1827,55.5169],[12.1835,55.5167],[12.1834,55.5165]]]},"properties":{"sourceId":"ais_par3.86198","a_type":5120,"hectares":0.105}},{"type":"Feature","id":"ais_par3.86199","geometry":{"type":"Polygon","coordinates":[[[12.2014,55.5173],[12.2014,55.5171],[12.2011,55.5169],[12.2006,55.517],[12.2014,55.5173]]]},"properties":{"sourceId":"ais_par3.86199","a_type":5120,"hectares":0.078}},{"type":"Feature","id":"ais_par3.86223","geometry":{"type":"Polygon","coordinates":[[[12.194,55.5233],[12.1942,55.5233],[12.1942,55.5232],[12.1942,55.5231],[12.1941,55.5231],[12.1939,55.5231],[12.1938,55.5231],[12.1938,55.5232],[12.194,55.5233]]]},"properties":{"sourceId":"ais_par3.86223","a_type":5120,"hectares":0.052}},{"type":"Feature","id":"ais_par3.82062","geometry":{"type":"Polygon","coordinates":[[[12.1079,55.5678],[12.1077,55.5678],[12.1073,55.5678],[12.107,55.5679],[12.1071,55.568],[12.1071,55.5682],[12.1072,55.5683],[12.1072,55.5684],[12.1071,55.5684],[12.1069,55.5684],[12.1068,55.5683],[12.1068,55.5681],[12.1062,55.5681],[12.1062,55.5682],[12.1066,55.5689],[12.1076,55.5684],[12.108,55.5682],[12.108,55.5681],[12.1079,55.5678]]]},"properties":{"sourceId":"ais_par3.82062","a_type":4110,"hectares":0.676}},{"type":"Feature","id":"ais_par3.83010","geometry":{"type":"Polygon","coordinates":[[[12.1021,55.5716],[12.1025,55.5716],[12.1027,55.5715],[12.1031,55.5712],[12.1036,55.571],[12.1037,55.5708],[12.1039,55.5705],[12.1037,55.5704],[12.1037,55.5703],[12.1038,55.5701],[12.1039,55.5699],[12.1037,55.5699],[12.1035,55.5699],[12.1033,55.5699],[12.1031,55.57],[12.103,55.5702],[12.1028,55.5704],[12.1028,55.5706],[12.1023,55.5706],[12.1016,55.5713],[12.1013,55.5713],[12.101,55.5719],[12.1017,55.572],[12.1021,55.5716]],[[12.1018,55.5714],[12.1026,55.5708],[12.1029,55.5708],[12.1031,55.5709],[12.1031,55.5712],[12.1026,55.5715],[12.1024,55.5716],[12.1021,55.5716],[12.1018,55.5714]]]},"properties":{"sourceId":"ais_par3.83010","a_type":4120,"hectares":1.187}},{"type":"Feature","id":"ais_par3.83011","geometry":{"type":"Polygon","coordinates":[[[12.1084,55.5672],[12.1078,55.5672],[12.1077,55.5673],[12.1076,55.5673],[12.1074,55.5672],[12.107,55.5673],[12.1065,55.5676],[12.1057,55.5677],[12.1057,55.5678],[12.1079,55.5677],[12.1086,55.5675],[12.1084,55.5672]]]},"properties":{"sourceId":"ais_par3.83011","a_type":4120,"hectares":0.666}},{"type":"Feature","id":"ais_par3.83048","geometry":{"type":"Polygon","coordinates":[[[12.107,55.5599],[12.1068,55.5598],[12.1064,55.5598],[12.1063,55.56],[12.1061,55.5604],[12.106,55.5609],[12.1057,55.5615],[12.1055,55.5618],[12.1049,55.5623],[12.1048,55.5627],[12.1052,55.5626],[12.1053,55.5628],[12.1055,55.5626],[12.1055,55.5625],[12.1056,55.5623],[12.1057,55.5621],[12.1056,55.5619],[12.1057,55.5617],[12.106,55.5613],[12.107,55.5599]]]},"properties":{"sourceId":"ais_par3.83048","a_type":4120,"hectares":0.752}},{"type":"Feature","id":"ais_par3.85211","geometry":{"type":"Polygon","coordinates":[[[12.1114,55.5663],[12.1116,55.5665],[12.1118,55.5663],[12.1117,55.5663],[12.1114,55.5663]]]},"properties":{"sourceId":"ais_par3.85211","a_type":5120,"hectares":0.03}},{"type":"Feature","id":"ais_par3.85212","geometry":{"type":"Polygon","coordinates":[[[12.1077,55.5633],[12.1075,55.5633],[12.1076,55.5635],[12.1077,55.5633]]]},"properties":{"sourceId":"ais_par3.85212","a_type":5120,"hectares":0.02}},{"type":"Feature","id":"ais_par3.85259","geometry":{"type":"Polygon","coordinates":[[[12.101,55.551],[12.1005,55.551],[12.1005,55.5514],[12.101,55.5514],[12.101,55.551]]]},"properties":{"sourceId":"ais_par3.85259","a_type":5120,"hectares":0.132}},{"type":"Feature","id":"ais_par3.85260","geometry":{"type":"Polygon","coordinates":[[[12.0951,55.5522],[12.0948,55.5522],[12.0949,55.5524],[12.0952,55.5523],[12.0951,55.5522]]]},"properties":{"sourceId":"ais_par3.85260","a_type":5120,"hectares":0.029}},{"type":"Feature","id":"ais_par3.85262","geometry":{"type":"Polygon","coordinates":[[[12.0987,55.563],[12.0985,55.5631],[12.0986,55.5632],[12.0988,55.5632],[12.0987,55.563]]]},"properties":{"sourceId":"ais_par3.85262","a_type":5120,"hectares":0.027}},{"type":"Feature","id":"ais_par3.85263","geometry":{"type":"Polygon","coordinates":[[[12.0979,55.562],[12.0974,55.5621],[12.0976,55.5622],[12.098,55.5622],[12.0979,55.562]]]},"properties":{"sourceId":"ais_par3.85263","a_type":5120,"hectares":0.052}},{"type":"Feature","id":"ais_par3.85264","geometry":{"type":"Polygon","coordinates":[[[12.1041,55.5504],[12.1043,55.5504],[12.1045,55.5504],[12.1044,55.5503],[12.1041,55.5504]]]},"properties":{"sourceId":"ais_par3.85264","a_type":5120,"hectares":0.019}},{"type":"Feature","id":"ais_par3.85265","geometry":{"type":"Polygon","coordinates":[[[12.1121,55.555],[12.1119,55.5551],[12.1121,55.5553],[12.1123,55.5552],[12.1121,55.555]]]},"properties":{"sourceId":"ais_par3.85265","a_type":5120,"hectares":0.042}},{"type":"Feature","id":"ais_par3.85355","geometry":{"type":"Polygon","coordinates":[[[12.1066,55.5689],[12.1062,55.5682],[12.1057,55.5683],[12.106,55.5689],[12.1066,55.5689]]]},"properties":{"sourceId":"ais_par3.85355","a_type":5120,"hectares":0.246}},{"type":"Feature","id":"ais_par3.86162","geometry":{"type":"Polygon","coordinates":[[[12.1097,55.5503],[12.1096,55.5506],[12.11,55.5507],[12.1102,55.5505],[12.1097,55.5503]]]},"properties":{"sourceId":"ais_par3.86162","a_type":5120,"hectares":0.087}},{"type":"Feature","id":"ais_par3.82106","geometry":{"type":"Polygon","coordinates":[[[12.0989,55.5233],[12.0986,55.5224],[12.0967,55.5225],[12.0971,55.5232],[12.0989,55.5233]]]},"properties":{"sourceId":"ais_par3.82106","a_type":4110,"hectares":1.087}},{"type":"Feature","id":"ais_par3.84495","geometry":{"type":"Polygon","coordinates":[[[12.1034,55.5154],[12.1033,55.5154],[12.1033,55.5156],[12.1034,55.5156],[12.1037,55.5155],[12.1034,55.5154]]]},"properties":{"sourceId":"ais_par3.84495","a_type":5120,"hectares":0.039}},{"type":"Feature","id":"ais_par3.85293","geometry":{"type":"Polygon","coordinates":[[[12.0963,55.5379],[12.0974,55.5383],[12.0977,55.5383],[12.0977,55.5382],[12.0965,55.5377],[12.0963,55.5378],[12.0963,55.5379]]]},"properties":{"sourceId":"ais_par3.85293","a_type":5120,"hectares":0.18}},{"type":"Feature","id":"ais_par3.85294","geometry":{"type":"Polygon","coordinates":[[[12.0963,55.5368],[12.0956,55.5368],[12.0957,55.5372],[12.0964,55.5371],[12.0963,55.5368]]]},"properties":{"sourceId":"ais_par3.85294","a_type":5120,"hectares":0.18}},{"type":"Feature","id":"ais_par3.85295","geometry":{"type":"Polygon","coordinates":[[[12.0999,55.5426],[12.0992,55.5427],[12.0993,55.543],[12.0996,55.543],[12.0999,55.5429],[12.0999,55.5426]]]},"properties":{"sourceId":"ais_par3.85295","a_type":5120,"hectares":0.147}},{"type":"Feature","id":"ais_par3.85296","geometry":{"type":"Polygon","coordinates":[[[12.1023,55.547],[12.1023,55.5469],[12.1022,55.5467],[12.1021,55.5467],[12.102,55.5468],[12.102,55.5469],[12.1022,55.5469],[12.1023,55.547]]]},"properties":{"sourceId":"ais_par3.85296","a_type":5120,"hectares":0.035}},{"type":"Feature","id":"ais_par3.86163","geometry":{"type":"Polygon","coordinates":[[[12.1054,55.5395],[12.1053,55.5396],[12.1053,55.5398],[12.1055,55.5398],[12.1056,55.5397],[12.1054,55.5395]]]},"properties":{"sourceId":"ais_par3.86163","a_type":5120,"hectares":0.046}},{"type":"Feature","id":"ais_par3.86164","geometry":{"type":"Polygon","coordinates":[[[12.1075,55.5372],[12.1073,55.5373],[12.1074,55.5375],[12.1076,55.5374],[12.1075,55.5372]]]},"properties":{"sourceId":"ais_par3.86164","a_type":5120,"hectares":0.039}},{"type":"Feature","id":"ais_par3.86165","geometry":{"type":"Polygon","coordinates":[[[12.1115,55.5368],[12.1116,55.5367],[12.1116,55.5366],[12.1114,55.5366],[12.1113,55.5366],[12.1113,55.5367],[12.1113,55.5367],[12.1115,55.5368]]]},"properties":{"sourceId":"ais_par3.86165","a_type":5120,"hectares":0.036}},{"type":"Feature","id":"ais_par3.86166","geometry":{"type":"Polygon","coordinates":[[[12.1129,55.5404],[12.1128,55.5406],[12.113,55.5406],[12.1131,55.5405],[12.1129,55.5404]]]},"properties":{"sourceId":"ais_par3.86166","a_type":5120,"hectares":0.035}},{"type":"Feature","id":"ais_par3.86167","geometry":{"type":"Polygon","coordinates":[[[12.1107,55.5354],[12.1105,55.5355],[12.1106,55.5356],[12.1108,55.5356],[12.1107,55.5354]]]},"properties":{"sourceId":"ais_par3.86167","a_type":5120,"hectares":0.03}},{"type":"Feature","id":"ais_par3.86168","geometry":{"type":"Polygon","coordinates":[[[12.1147,55.5365],[12.1146,55.5368],[12.1148,55.5368],[12.115,55.5367],[12.1147,55.5365]]]},"properties":{"sourceId":"ais_par3.86168","a_type":5120,"hectares":0.041}},{"type":"Feature","id":"ais_par3.86176","geometry":{"type":"Polygon","coordinates":[[[12.11,55.5332],[12.1097,55.5333],[12.1099,55.5334],[12.1102,55.5334],[12.11,55.5332]]]},"properties":{"sourceId":"ais_par3.86176","a_type":5120,"hectares":0.04}},{"type":"Feature","id":"ais_par3.86177","geometry":{"type":"Polygon","coordinates":[[[12.0999,55.5303],[12.0998,55.5303],[12.0999,55.5305],[12.1001,55.5305],[12.1002,55.5304],[12.0999,55.5303]]]},"properties":{"sourceId":"ais_par3.86177","a_type":5120,"hectares":0.036}},{"type":"Feature","id":"ais_par3.86178","geometry":{"type":"Polygon","coordinates":[[[12.1022,55.5302],[12.1023,55.5302],[12.1023,55.5301],[12.1022,55.5302]]]},"properties":{"sourceId":"ais_par3.86178","a_type":5120,"hectares":0.004}},{"type":"Feature","id":"ais_par3.86220","geometry":{"type":"Polygon","coordinates":[[[12.1064,55.5327],[12.1061,55.5328],[12.1063,55.5329],[12.1065,55.5329],[12.1064,55.5327]]]},"properties":{"sourceId":"ais_par3.86220","a_type":5120,"hectares":0.038}},{"type":"Feature","id":"ais_par3.86221","geometry":{"type":"Polygon","coordinates":[[[12.1125,55.5383],[12.1123,55.5384],[12.1124,55.5385],[12.1127,55.5385],[12.1125,55.5383]]]},"properties":{"sourceId":"ais_par3.86221","a_type":5120,"hectares":0.041}},{"type":"Feature","id":"ais_par3.81951","geometry":{"type":"Polygon","coordinates":[[[12.2548,55.5574],[12.2559,55.5579],[12.2562,55.5578],[12.2553,55.5572],[12.2551,55.5572],[12.2548,55.5574]]]},"properties":{"sourceId":"ais_par3.81951","a_type":3210,"hectares":0.307}},{"type":"Feature","id":"ais_par3.82043","geometry":{"type":"Polygon","coordinates":[[[12.25,55.551],[12.2438,55.5466],[12.2433,55.5468],[12.2435,55.5468],[12.244,55.5474],[12.2444,55.5477],[12.2445,55.5478],[12.2439,55.548],[12.245,55.548],[12.2468,55.5495],[12.2473,55.5498],[12.2474,55.5497],[12.248,55.5501],[12.2479,55.5503],[12.2485,55.5506],[12.2483,55.5507],[12.2493,55.5514],[12.2496,55.5512],[12.2499,55.5511],[12.25,55.551]]]},"properties":{"sourceId":"ais_par3.82043","a_type":3210,"hectares":2.978}},{"type":"Feature","id":"ais_par3.82044","geometry":{"type":"Polygon","coordinates":[[[12.2402,55.5484],[12.2401,55.549],[12.2406,55.5495],[12.2408,55.5497],[12.2425,55.5507],[12.2425,55.5508],[12.244,55.5517],[12.2448,55.5522],[12.2444,55.5522],[12.2439,55.5522],[12.2437,55.5523],[12.2435,55.5526],[12.2437,55.5527],[12.2439,55.5528],[12.244,55.553],[12.2445,55.5533],[12.2453,55.5533],[12.2461,55.5538],[12.2466,55.5539],[12.2469,55.5539],[12.2473,55.5537],[12.2479,55.5534],[12.2447,55.5515],[12.2445,55.5515],[12.2443,55.5513],[12.2445,55.5512],[12.2429,55.5502],[12.2427,55.5503],[12.2423,55.5502],[12.2421,55.55],[12.2421,55.5498],[12.2422,55.5497],[12.2402,55.5484]],[[12.2452,55.5529],[12.2458,55.5529],[12.2462,55.5531],[12.246,55.5533],[12.2454,55.553],[12.2452,55.5529]]]},"properties":{"sourceId":"ais_par3.82044","a_type":3210,"hectares":5.582}},{"type":"Feature","id":"ais_par3.82055","geometry":{"type":"Polygon","coordinates":[[[12.2537,55.5538],[12.2499,55.5511],[12.2496,55.5512],[12.2493,55.5514],[12.2491,55.5516],[12.2477,55.5519],[12.2472,55.5517],[12.2463,55.5519],[12.2487,55.5536],[12.2498,55.5538],[12.2505,55.5543],[12.2536,55.5538],[12.2537,55.5538]]]},"properties":{"sourceId":"ais_par3.82055","a_type":3220,"hectares":8.003}},{"type":"Feature","id":"ais_par3.82056","geometry":{"type":"Polygon","coordinates":[[[12.2433,55.5468],[12.2397,55.5476],[12.2409,55.5487],[12.2413,55.5489],[12.2428,55.5484],[12.2428,55.5483],[12.2439,55.548],[12.2434,55.548],[12.2432,55.5478],[12.2432,55.5477],[12.2433,55.5476],[12.2433,55.5472],[12.2432,55.547],[12.2431,55.547],[12.2432,55.5469],[12.2433,55.5468]]]},"properties":{"sourceId":"ais_par3.82056","a_type":3220,"hectares":3.202}},{"type":"Feature","id":"ais_par3.82158","geometry":{"type":"Polygon","coordinates":[[[12.1862,55.5567],[12.1869,55.5562],[12.1877,55.556],[12.187,55.5555],[12.1859,55.556],[12.1862,55.5567]]]},"properties":{"sourceId":"ais_par3.82158","a_type":4110,"hectares":0.683}},{"type":"Feature","id":"ais_par3.82159","geometry":{"type":"Polygon","coordinates":[[[12.1832,55.5631],[12.1837,55.5638],[12.1845,55.5643],[12.1854,55.5642],[12.1847,55.5637],[12.1841,55.5632],[12.1832,55.5631]]]},"properties":{"sourceId":"ais_par3.82159","a_type":4110,"hectares":0.797}},{"type":"Feature","id":"ais_par3.82160","geometry":{"type":"Polygon","coordinates":[[[12.2033,55.5591],[12.2022,55.5593],[12.2027,55.56],[12.2037,55.56],[12.2033,55.5591]],[[12.2025,55.5592],[12.2028,55.5592],[12.2029,55.5594],[12.2026,55.5594],[12.2025,55.5592]]]},"properties":{"sourceId":"ais_par3.82160","a_type":4110,"hectares":0.607}},{"type":"Feature","id":"ais_par3.82161","geometry":{"type":"Polygon","coordinates":[[[12.2248,55.5491],[12.2252,55.5491],[12.2258,55.5479],[12.2261,55.5474],[12.2242,55.5467],[12.2223,55.5483],[12.2248,55.5491]]]},"properties":{"sourceId":"ais_par3.82161","a_type":4110,"hectares":3.783}},{"type":"Feature","id":"ais_par3.82163","geometry":{"type":"Polygon","coordinates":[[[12.2451,55.5539],[12.2458,55.5544],[12.2462,55.5544],[12.2461,55.5541],[12.2456,55.5539],[12.2451,55.5539]]]},"properties":{"sourceId":"ais_par3.82163","a_type":4110,"hectares":0.225}},{"type":"Feature","id":"ais_par3.82213","geometry":{"type":"Polygon","coordinates":[[[12.214,55.5613],[12.2147,55.5612],[12.2155,55.5608],[12.2154,55.5607],[12.2174,55.5591],[12.2187,55.5587],[12.219,55.5584],[12.2183,55.5583],[12.2176,55.5582],[12.216,55.5598],[12.2145,55.5608],[12.214,55.5613]]]},"properties":{"sourceId":"ais_par3.82213","a_type":4110,"hectares":1.737}},{"type":"Feature","id":"ais_par3.82233","geometry":{"type":"Polygon","coordinates":[[[12.2264,55.5596],[12.2271,55.5594],[12.2264,55.5591],[12.2264,55.5588],[12.225,55.5588],[12.224,55.5584],[12.2231,55.5583],[12.2228,55.5585],[12.2226,55.5585],[12.2221,55.5584],[12.2221,55.5583],[12.2218,55.5583],[12.2218,55.5584],[12.2215,55.5585],[12.2212,55.5586],[12.2214,55.5589],[12.2219,55.559],[12.2236,55.5593],[12.2248,55.5596],[12.2264,55.5596]]]},"properties":{"sourceId":"ais_par3.82233","a_type":4110,"hectares":2.925}},{"type":"Feature","id":"ais_par3.82390","geometry":{"type":"Polygon","coordinates":[[[12.2339,55.5572],[12.2351,55.557],[12.2352,55.5573],[12.2349,55.5575],[12.2349,55.5584],[12.2345,55.5584],[12.2342,55.5584],[12.2341,55.5586],[12.2329,55.5582],[12.2323,55.5583],[12.2318,55.5586],[12.2331,55.559],[12.2332,55.5594],[12.2338,55.5595],[12.2341,55.5598],[12.2344,55.5598],[12.2356,55.5601],[12.237,55.5606],[12.238,55.5601],[12.2409,55.5595],[12.2412,55.5585],[12.2468,55.5571],[12.245,55.5553],[12.241,55.5561],[12.2397,55.5539],[12.2375,55.5531],[12.2356,55.5534],[12.2353,55.5529],[12.2362,55.5526],[12.2358,55.5515],[12.2309,55.5521],[12.2308,55.5518],[12.2292,55.5519],[12.2292,55.5522],[12.2274,55.5526],[12.2278,55.5536],[12.2288,55.5539],[12.2278,55.5541],[12.2279,55.5548],[12.2296,55.5545],[12.2299,55.555],[12.2368,55.5541],[12.2369,55.5542],[12.2363,55.5546],[12.2348,55.5549],[12.2348,55.5551],[12.2357,55.5554],[12.2372,55.5555],[12.2378,55.5556],[12.2332,55.5564],[12.2339,55.5572]]]},"properties":{"sourceId":"ais_par3.82390","a_type":4110,"hectares":51.071}},{"type":"Feature","id":"ais_par3.82401","geometry":{"type":"Polygon","coordinates":[[[12.1529,55.5603],[12.1551,55.5601],[12.1557,55.56],[12.1562,55.5597],[12.1569,55.5593],[12.1577,55.5593],[12.1563,55.5583],[12.1524,55.5598],[12.1529,55.5603]]]},"properties":{"sourceId":"ais_par3.82401","a_type":4110,"hectares":3.525}},{"type":"Feature","id":"ais_par3.82408","geometry":{"type":"Polygon","coordinates":[[[12.1534,55.5627],[12.153,55.5628],[12.1526,55.5628],[12.1521,55.5625],[12.1523,55.5618],[12.152,55.5614],[12.1516,55.5611],[12.1534,55.5607],[12.1529,55.5603],[12.1524,55.5606],[12.1519,55.5607],[12.1504,55.561],[12.1511,55.5623],[12.1519,55.5631],[12.1535,55.563],[12.1534,55.5627]]]},"properties":{"sourceId":"ais_par3.82408","a_type":4110,"hectares":2.33}},{"type":"Feature","id":"ais_par3.82450","geometry":{"type":"Polygon","coordinates":[[[12.1563,55.5583],[12.1577,55.5593],[12.1569,55.5593],[12.1562,55.5597],[12.1557,55.56],[12.1551,55.5601],[12.1529,55.5603],[12.1534,55.5607],[12.1516,55.5611],[12.152,55.5614],[12.1523,55.5618],[12.1521,55.5625],[12.1526,55.5628],[12.153,55.5628],[12.1534,55.5627],[12.1537,55.5626],[12.1537,55.5623],[12.1541,55.5624],[12.1543,55.5625],[12.1547,55.5624],[12.1553,55.5625],[12.1574,55.562],[12.1573,55.5617],[12.1608,55.56],[12.1609,55.56],[12.1613,55.5597],[12.1609,55.5594],[12.1607,55.5595],[12.1602,55.5592],[12.1596,55.5582],[12.1597,55.558],[12.1597,55.5578],[12.1592,55.5578],[12.1588,55.5575],[12.1585,55.5576],[12.1583,55.5575],[12.1563,55.5583]],[[12.1594,55.5602],[12.1588,55.5605],[12.159,55.5607],[12.1587,55.5606],[12.1585,55.5608],[12.1581,55.5606],[12.1576,55.5606],[12.1574,55.5606],[12.1571,55.5607],[12.1567,55.5607],[12.1567,55.561],[12.1567,55.5613],[12.1566,55.5613],[12.156,55.561],[12.1553,55.5606],[12.1554,55.5607],[12.1553,55.5616],[12.1549,55.5614],[12.1546,55.5612],[12.1539,55.5615],[12.1538,55.5615],[12.1537,55.5612],[12.1539,55.5609],[12.1541,55.5607],[12.1545,55.5607],[12.1545,55.5605],[12.1548,55.5605],[12.155,55.5602],[12.1555,55.5606],[12.1556,55.5603],[12.156,55.5604],[12.1562,55.56],[12.1569,55.5595],[12.1575,55.5598],[12.1578,55.5601],[12.1585,55.5602],[12.1594,55.5602]]]},"properties":{"sourceId":"ais_par3.82450","a_type":4120,"hectares":12.974}},{"type":"Feature","id":"ais_par3.82457","geometry":{"type":"Polygon","coordinates":[[[12.1832,55.5518],[12.1842,55.5519],[12.1839,55.5515],[12.1832,55.5514],[12.183,55.5516],[12.1832,55.5518]],[[12.1833,55.5516],[12.1832,55.5515],[12.1835,55.5515],[12.1835,55.5516],[12.1833,55.5516]]]},"properties":{"sourceId":"ais_par3.82457","a_type":4120,"hectares":0.227}},{"type":"Feature","id":"ais_par3.82459","geometry":{"type":"Polygon","coordinates":[[[12.2107,55.5489],[12.2098,55.5489],[12.2087,55.5491],[12.2073,55.5491],[12.2063,55.5492],[12.2045,55.549],[12.2043,55.5493],[12.2057,55.5493],[12.2057,55.5495],[12.2063,55.5495],[12.207,55.5493],[12.2085,55.5493],[12.2097,55.5492],[12.2098,55.549],[12.2107,55.5489]]]},"properties":{"sourceId":"ais_par3.82459","a_type":4120,"hectares":0.949}},{"type":"Feature","id":"ais_par3.82460","geometry":{"type":"Polygon","coordinates":[[[12.2063,55.5466],[12.2052,55.5466],[12.2051,55.5471],[12.2059,55.5471],[12.2059,55.5475],[12.2063,55.5475],[12.2064,55.5468],[12.2063,55.5466]]]},"properties":{"sourceId":"ais_par3.82460","a_type":4120,"hectares":0.594}},{"type":"Feature","id":"ais_par3.82461","geometry":{"type":"Polygon","coordinates":[[[12.2439,55.548],[12.2445,55.5478],[12.2444,55.5477],[12.244,55.5474],[12.2435,55.5468],[12.2433,55.5468],[12.2432,55.5469],[12.2431,55.547],[12.2432,55.547],[12.2433,55.5472],[12.2433,55.5476],[12.2432,55.5477],[12.2432,55.5478],[12.2434,55.548],[12.2439,55.548]]]},"properties":{"sourceId":"ais_par3.82461","a_type":4120,"hectares":0.648}},{"type":"Feature","id":"ais_par3.82462","geometry":{"type":"Polygon","coordinates":[[[12.2292,55.5517],[12.2298,55.5515],[12.2318,55.5512],[12.232,55.5515],[12.235,55.5511],[12.2344,55.5495],[12.2337,55.5495],[12.2335,55.5492],[12.232,55.5494],[12.2317,55.5491],[12.2284,55.5496],[12.2279,55.5489],[12.2281,55.5488],[12.2276,55.5478],[12.2258,55.5479],[12.2252,55.5491],[12.2257,55.5493],[12.2259,55.5498],[12.2262,55.5498],[12.2263,55.5501],[12.2256,55.5505],[12.2267,55.5513],[12.2263,55.552],[12.2266,55.5536],[12.2278,55.5536],[12.2274,55.5526],[12.2292,55.5522],[12.2292,55.5519],[12.2292,55.5517]]]},"properties":{"sourceId":"ais_par3.82462","a_type":4120,"hectares":17.748}},{"type":"Feature","id":"ais_par3.83830","geometry":{"type":"Polygon","coordinates":[[[12.1899,55.5669],[12.1896,55.5669],[12.1896,55.5671],[12.1898,55.5671],[12.1899,55.5669]]]},"properties":{"sourceId":"ais_par3.83830","a_type":5120,"hectares":0.037}},{"type":"Feature","id":"ais_par3.82599","geometry":{"type":"Polygon","coordinates":[[[12.2039,55.5678],[12.2043,55.5676],[12.2044,55.5674],[12.204,55.5673],[12.2032,55.5673],[12.2029,55.5677],[12.2039,55.5678]]]},"properties":{"sourceId":"ais_par3.82599","a_type":4120,"hectares":0.365}},{"type":"Feature","id":"ais_par3.82600","geometry":{"type":"Polygon","coordinates":[[[12.2502,55.5642],[12.2475,55.5621],[12.2465,55.5625],[12.243,55.5624],[12.2419,55.5625],[12.2422,55.5636],[12.2431,55.5636],[12.2431,55.5641],[12.2502,55.5642]],[[12.2461,55.564],[12.2461,55.5639],[12.2462,55.5639],[12.2462,55.5638],[12.2462,55.5637],[12.2463,55.5637],[12.2465,55.5637],[12.2464,55.5639],[12.2463,55.5639],[12.2464,55.564],[12.2462,55.564],[12.2461,55.564]],[[12.2453,55.5634],[12.2452,55.5634],[12.2452,55.5633],[12.2453,55.5633],[12.2454,55.5632],[12.2455,55.5633],[12.2455,55.5634],[12.2453,55.5634]],[[12.2479,55.5639],[12.2478,55.5641],[12.2476,55.5641],[12.2476,55.564],[12.2479,55.5639]],[[12.2492,55.564],[12.2495,55.5638],[12.2497,55.564],[12.2494,55.5641],[12.2492,55.564]],[[12.2442,55.5634],[12.2427,55.5635],[12.2427,55.5632],[12.243,55.5632],[12.2433,55.563],[12.2436,55.5629],[12.2438,55.5629],[12.2437,55.5631],[12.2437,55.5632],[12.244,55.5633],[12.2442,55.5634]]]},"properties":{"sourceId":"ais_par3.82600","a_type":4120,"hectares":7.549}},{"type":"Feature","id":"ais_par3.82605","geometry":{"type":"Polygon","coordinates":[[[12.2087,55.5664],[12.2096,55.5658],[12.2101,55.5658],[12.2102,55.5656],[12.21,55.5655],[12.2098,55.5654],[12.2094,55.5653],[12.209,55.5653],[12.2089,55.5655],[12.2094,55.5657],[12.209,55.5658],[12.2085,55.5656],[12.2079,55.566],[12.2087,55.5664]]]},"properties":{"sourceId":"ais_par3.82605","a_type":4120,"hectares":0.79}},{"type":"Feature","id":"ais_par3.82618","geometry":{"type":"Polygon","coordinates":[[[12.247,55.5548],[12.2458,55.5551],[12.2472,55.5566],[12.2469,55.5568],[12.2471,55.5569],[12.2475,55.5567],[12.2489,55.5564],[12.2486,55.5561],[12.2478,55.5563],[12.2474,55.5559],[12.248,55.5558],[12.2481,55.5556],[12.248,55.5553],[12.2473,55.5552],[12.247,55.5548]]]},"properties":{"sourceId":"ais_par3.82618","a_type":4120,"hectares":1.851}},{"type":"Feature","id":"ais_par3.82619","geometry":{"type":"Polygon","coordinates":[[[12.237,55.5606],[12.2356,55.5601],[12.2344,55.5598],[12.2341,55.5598],[12.2336,55.5613],[12.2344,55.5617],[12.2352,55.5612],[12.2369,55.5609],[12.2383,55.561],[12.237,55.5606]]]},"properties":{"sourceId":"ais_par3.82619","a_type":4120,"hectares":2.64}},{"type":"Feature","id":"ais_par3.82711","geometry":{"type":"Polygon","coordinates":[[[12.2339,55.5572],[12.2332,55.5564],[12.2378,55.5556],[12.2372,55.5555],[12.2357,55.5554],[12.2348,55.5551],[12.2348,55.5549],[12.2363,55.5546],[12.2369,55.5542],[12.2368,55.5541],[12.2299,55.555],[12.2296,55.5545],[12.2279,55.5548],[12.2278,55.5541],[12.2266,55.5545],[12.2273,55.5558],[12.2277,55.556],[12.2276,55.5562],[12.2289,55.5581],[12.2286,55.5582],[12.2289,55.5585],[12.2296,55.5585],[12.2299,55.5585],[12.2307,55.5584],[12.2311,55.5585],[12.2313,55.5584],[12.2318,55.5586],[12.2323,55.5583],[12.2329,55.5582],[12.2341,55.5586],[12.2342,55.5584],[12.2345,55.5584],[12.2349,55.5584],[12.2349,55.5575],[12.2352,55.5573],[12.2351,55.557],[12.2339,55.5572]],[[12.2286,55.5575],[12.2286,55.5573],[12.2299,55.5572],[12.2297,55.5575],[12.2286,55.5575]]]},"properties":{"sourceId":"ais_par3.82711","a_type":4120,"hectares":19.548}},{"type":"Feature","id":"ais_par3.82712","geometry":{"type":"Polygon","coordinates":[[[12.228,55.5584],[12.2276,55.5579],[12.2273,55.558],[12.227,55.5575],[12.2262,55.5578],[12.2267,55.5586],[12.2266,55.5587],[12.2264,55.5588],[12.2264,55.5591],[12.2271,55.5594],[12.2276,55.5593],[12.2278,55.559],[12.228,55.5588],[12.2278,55.5585],[12.228,55.5584]]]},"properties":{"sourceId":"ais_par3.82712","a_type":4120,"hectares":1.44}},{"type":"Feature","id":"ais_par3.83012","geometry":{"type":"Polygon","coordinates":[[[12.148,55.5635],[12.1477,55.563],[12.1478,55.5627],[12.1479,55.5625],[12.1478,55.5621],[12.1475,55.5618],[12.1472,55.5617],[12.1468,55.5616],[12.1463,55.5616],[12.1456,55.5617],[12.1453,55.5619],[12.1447,55.562],[12.1441,55.5623],[12.1436,55.5628],[12.1435,55.5633],[12.1439,55.5638],[12.1439,55.5642],[12.1434,55.5645],[12.1434,55.5647],[12.1439,55.5651],[12.1448,55.5653],[12.1461,55.5651],[12.1464,55.565],[12.1469,55.5646],[12.1474,55.5644],[12.1476,55.5641],[12.1474,55.5637],[12.148,55.5635]],[[12.1467,55.5618],[12.1473,55.562],[12.1476,55.5623],[12.1474,55.5627],[12.1473,55.5629],[12.147,55.5632],[12.147,55.5634],[12.1469,55.5639],[12.147,55.5643],[12.1466,55.5643],[12.1463,55.5646],[12.1457,55.5649],[12.1454,55.5644],[12.1451,55.5642],[12.1447,55.5642],[12.1446,55.5641],[12.1447,55.5639],[12.1443,55.5637],[12.1439,55.5635],[12.1439,55.5631],[12.1442,55.5627],[12.1449,55.5623],[12.1456,55.562],[12.1467,55.5618]]]},"properties":{"sourceId":"ais_par3.83012","a_type":4120,"hectares":3.898}},{"type":"Feature","id":"ais_par3.83013","geometry":{"type":"Polygon","coordinates":[[[12.1466,55.5633],[12.1469,55.5631],[12.147,55.5629],[12.147,55.5623],[12.1465,55.562],[12.1453,55.5628],[12.1449,55.563],[12.145,55.5632],[12.1447,55.5635],[12.1449,55.5639],[12.1452,55.564],[12.1455,55.5639],[12.1458,55.5633],[12.1462,55.5633],[12.1466,55.5633]]]},"properties":{"sourceId":"ais_par3.83013","a_type":4120,"hectares":1.52}},{"type":"Feature","id":"ais_par3.83014","geometry":{"type":"Polygon","coordinates":[[[12.1578,55.5632],[12.1578,55.5629],[12.1558,55.5631],[12.155,55.5633],[12.1545,55.563],[12.1538,55.5633],[12.1529,55.5639],[12.1533,55.564],[12.1537,55.5638],[12.1539,55.5636],[12.1541,55.5636],[12.1544,55.5636],[12.1546,55.5637],[12.1548,55.5636],[12.1552,55.5635],[12.1556,55.5637],[12.156,55.5636],[12.1561,55.5635],[12.157,55.5633],[12.1578,55.5632]],[[12.1545,55.5631],[12.1546,55.5634],[12.1542,55.5634],[12.1542,55.5633],[12.1545,55.5631]]]},"properties":{"sourceId":"ais_par3.83014","a_type":4120,"hectares":1.267}},{"type":"Feature","id":"ais_par3.83043","geometry":{"type":"Polygon","coordinates":[[[12.1659,55.5625],[12.1662,55.5628],[12.166,55.5629],[12.1658,55.563],[12.1659,55.563],[12.1658,55.5631],[12.1658,55.5632],[12.1658,55.5633],[12.1659,55.5633],[12.166,55.5634],[12.1662,55.5634],[12.1673,55.5637],[12.1669,55.5636],[12.1667,55.5634],[12.1666,55.5633],[12.167,55.5632],[12.1672,55.5632],[12.167,55.5631],[12.1666,55.5628],[12.1659,55.5625]]]},"properties":{"sourceId":"ais_par3.83043","a_type":4120,"hectares":0.443}},{"type":"Feature","id":"ais_par3.83310","geometry":{"type":"Polygon","coordinates":[[[12.2541,55.5537],[12.2537,55.5538],[12.2536,55.5538],[12.2549,55.5546],[12.2548,55.5546],[12.2556,55.5552],[12.256,55.5552],[12.2571,55.5558],[12.2565,55.5561],[12.2566,55.5562],[12.2567,55.5561],[12.2568,55.5562],[12.2567,55.5564],[12.2567,55.5564],[12.2572,55.5563],[12.2574,55.5565],[12.2567,55.557],[12.257,55.5571],[12.2565,55.5572],[12.2565,55.5574],[12.2569,55.5575],[12.2585,55.5571],[12.2588,55.5572],[12.2588,55.5574],[12.2594,55.5574],[12.2605,55.5578],[12.2613,55.5584],[12.2638,55.5593],[12.2655,55.5601],[12.2668,55.5607],[12.2674,55.561],[12.2679,55.5609],[12.27,55.5616],[12.2715,55.5621],[12.271,55.5621],[12.2731,55.5629],[12.2735,55.5627],[12.2685,55.5608],[12.2639,55.5591],[12.2591,55.5569],[12.2547,55.5541],[12.2541,55.5537]]]},"properties":{"sourceId":"ais_par3.83310","a_type":4210,"hectares":6.138}},{"type":"Feature","id":"ais_par3.83752","geometry":{"type":"Polygon","coordinates":[[[12.2442,55.5634],[12.244,55.5633],[12.2437,55.5632],[12.2437,55.5631],[12.2438,55.5629],[12.2436,55.5629],[12.2433,55.563],[12.243,55.5632],[12.2427,55.5632],[12.2427,55.5635],[12.2442,55.5634]]]},"properties":{"sourceId":"ais_par3.83752","a_type":5120,"hectares":0.328}},{"type":"Feature","id":"ais_par3.83753","geometry":{"type":"Polygon","coordinates":[[[12.2479,55.5639],[12.2476,55.564],[12.2476,55.5641],[12.2478,55.5641],[12.2479,55.5639]]]},"properties":{"sourceId":"ais_par3.83753","a_type":5120,"hectares":0.035}},{"type":"Feature","id":"ais_par3.83754","geometry":{"type":"Polygon","coordinates":[[[12.2492,55.564],[12.2494,55.5641],[12.2497,55.564],[12.2495,55.5638],[12.2492,55.564]]]},"properties":{"sourceId":"ais_par3.83754","a_type":5120,"hectares":0.047}},{"type":"Feature","id":"ais_par3.83755","geometry":{"type":"Polygon","coordinates":[[[12.2453,55.5634],[12.2455,55.5634],[12.2455,55.5633],[12.2454,55.5632],[12.2453,55.5633],[12.2452,55.5633],[12.2452,55.5634],[12.2453,55.5634]]]},"properties":{"sourceId":"ais_par3.83755","a_type":5120,"hectares":0.027}},{"type":"Feature","id":"ais_par3.83756","geometry":{"type":"Polygon","coordinates":[[[12.2461,55.564],[12.2462,55.564],[12.2464,55.564],[12.2463,55.5639],[12.2464,55.5639],[12.2465,55.5637],[12.2463,55.5637],[12.2462,55.5637],[12.2462,55.5638],[12.2462,55.5639],[12.2461,55.5639],[12.2461,55.564]]]},"properties":{"sourceId":"ais_par3.83756","a_type":5120,"hectares":0.051}},{"type":"Feature","id":"ais_par3.83759","geometry":{"type":"Polygon","coordinates":[[[12.2567,55.5626],[12.2557,55.5623],[12.2552,55.5627],[12.2556,55.5633],[12.2563,55.5633],[12.2564,55.5628],[12.2567,55.5626]]]},"properties":{"sourceId":"ais_par3.83759","a_type":5120,"hectares":0.663}},{"type":"Feature","id":"ais_par3.83840","geometry":{"type":"Polygon","coordinates":[[[12.2106,55.5666],[12.2103,55.5665],[12.2101,55.5666],[12.2105,55.5667],[12.2106,55.5666]]]},"properties":{"sourceId":"ais_par3.83840","a_type":5120,"hectares":0.04}},{"type":"Feature","id":"ais_par3.83842","geometry":{"type":"Polygon","coordinates":[[[12.2229,55.5583],[12.2225,55.5583],[12.2225,55.5584],[12.2228,55.5584],[12.2229,55.5583]]]},"properties":{"sourceId":"ais_par3.83842","a_type":5120,"hectares":0.038}},{"type":"Feature","id":"ais_par3.83843","geometry":{"type":"Polygon","coordinates":[[[12.2322,55.56],[12.2319,55.5607],[12.232,55.5608],[12.2323,55.5607],[12.2324,55.5602],[12.2322,55.56]]]},"properties":{"sourceId":"ais_par3.83843","a_type":5120,"hectares":0.171}},{"type":"Feature","id":"ais_par3.83925","geometry":{"type":"Polygon","coordinates":[[[12.2107,55.5656],[12.2104,55.5655],[12.2102,55.5656],[12.2105,55.5657],[12.2107,55.5656]]]},"properties":{"sourceId":"ais_par3.83925","a_type":5120,"hectares":0.036}},{"type":"Feature","id":"ais_par3.85213","geometry":{"type":"Polygon","coordinates":[[[12.131,55.5697],[12.1313,55.5697],[12.1312,55.5695],[12.131,55.5696],[12.131,55.5697]]]},"properties":{"sourceId":"ais_par3.85213","a_type":5120,"hectares":0.035}},{"type":"Feature","id":"ais_par3.85214","geometry":{"type":"Polygon","coordinates":[[[12.1363,55.5687],[12.1361,55.5685],[12.1358,55.5685],[12.1359,55.5687],[12.1363,55.5687]]]},"properties":{"sourceId":"ais_par3.85214","a_type":5120,"hectares":0.038}},{"type":"Feature","id":"ais_par3.85215","geometry":{"type":"Polygon","coordinates":[[[12.1411,55.5687],[12.1411,55.5685],[12.1407,55.5686],[12.1407,55.5687],[12.1411,55.5687]]]},"properties":{"sourceId":"ais_par3.85215","a_type":5120,"hectares":0.034}},{"type":"Feature","id":"ais_par3.85222","geometry":{"type":"Polygon","coordinates":[[[12.1605,55.5666],[12.1605,55.5668],[12.1606,55.5669],[12.1608,55.5668],[12.1605,55.5666]]]},"properties":{"sourceId":"ais_par3.85222","a_type":5120,"hectares":0.028}},{"type":"Feature","id":"ais_par3.85223","geometry":{"type":"Polygon","coordinates":[[[12.1582,55.5651],[12.1581,55.5653],[12.1582,55.5653],[12.1584,55.5652],[12.1582,55.5651]]]},"properties":{"sourceId":"ais_par3.85223","a_type":5120,"hectares":0.021}},{"type":"Feature","id":"ais_par3.85224","geometry":{"type":"Polygon","coordinates":[[[12.155,55.5662],[12.1546,55.5661],[12.1546,55.5662],[12.1549,55.5663],[12.155,55.5662]]]},"properties":{"sourceId":"ais_par3.85224","a_type":5120,"hectares":0.02}},{"type":"Feature","id":"ais_par3.85225","geometry":{"type":"Polygon","coordinates":[[[12.1488,55.5657],[12.1488,55.5658],[12.1489,55.566],[12.1491,55.5659],[12.1488,55.5657]]]},"properties":{"sourceId":"ais_par3.85225","a_type":5120,"hectares":0.031}},{"type":"Feature","id":"ais_par3.85226","geometry":{"type":"Polygon","coordinates":[[[12.1464,55.5664],[12.1461,55.5666],[12.1464,55.5667],[12.1467,55.5664],[12.1464,55.5664]]]},"properties":{"sourceId":"ais_par3.85226","a_type":5120,"hectares":0.058}},{"type":"Feature","id":"ais_par3.85227","geometry":{"type":"Polygon","coordinates":[[[12.1596,55.5618],[12.1592,55.5617],[12.1594,55.5619],[12.1596,55.5618]]]},"properties":{"sourceId":"ais_par3.85227","a_type":5120,"hectares":0.024}},{"type":"Feature","id":"ais_par3.85228","geometry":{"type":"Polygon","coordinates":[[[12.1632,55.5615],[12.1631,55.5613],[12.1628,55.5614],[12.1628,55.5615],[12.1632,55.5615]]]},"properties":{"sourceId":"ais_par3.85228","a_type":5120,"hectares":0.037}},{"type":"Feature","id":"ais_par3.85229","geometry":{"type":"Polygon","coordinates":[[[12.1467,55.5618],[12.1456,55.562],[12.1449,55.5623],[12.1442,55.5627],[12.1439,55.5631],[12.1439,55.5635],[12.1443,55.5637],[12.1447,55.5639],[12.1446,55.5641],[12.1447,55.5642],[12.1451,55.5642],[12.1454,55.5644],[12.1457,55.5649],[12.1463,55.5646],[12.1466,55.5643],[12.147,55.5643],[12.1469,55.5639],[12.147,55.5634],[12.147,55.5632],[12.1473,55.5629],[12.1474,55.5627],[12.1476,55.5623],[12.1473,55.562],[12.1467,55.5618]],[[12.1466,55.5633],[12.1462,55.5633],[12.1458,55.5633],[12.1455,55.5639],[12.1452,55.564],[12.1449,55.5639],[12.1447,55.5635],[12.145,55.5632],[12.1449,55.563],[12.1453,55.5628],[12.1465,55.562],[12.147,55.5623],[12.147,55.5629],[12.1469,55.5631],[12.1466,55.5633]]]},"properties":{"sourceId":"ais_par3.85229","a_type":5120,"hectares":3.254}},{"type":"Feature","id":"ais_par3.85230","geometry":{"type":"Polygon","coordinates":[[[12.1545,55.5631],[12.1542,55.5633],[12.1542,55.5634],[12.1546,55.5634],[12.1545,55.5631]]]},"properties":{"sourceId":"ais_par3.85230","a_type":5120,"hectares":0.044}},{"type":"Feature","id":"ais_par3.85266","geometry":{"type":"Polygon","coordinates":[[[12.1338,55.5528],[12.1334,55.5528],[12.1335,55.553],[12.1339,55.5529],[12.1338,55.5528]]]},"properties":{"sourceId":"ais_par3.85266","a_type":5120,"hectares":0.045}},{"type":"Feature","id":"ais_par3.85267","geometry":{"type":"Polygon","coordinates":[[[12.1288,55.5602],[12.1292,55.5602],[12.1292,55.5599],[12.1288,55.56],[12.1288,55.5602]]]},"properties":{"sourceId":"ais_par3.85267","a_type":5120,"hectares":0.062}},{"type":"Feature","id":"ais_par3.85268","geometry":{"type":"Polygon","coordinates":[[[12.1354,55.5602],[12.1352,55.5603],[12.1353,55.5605],[12.1355,55.5605],[12.1354,55.5602]]]},"properties":{"sourceId":"ais_par3.85268","a_type":5120,"hectares":0.039}},{"type":"Feature","id":"ais_par3.85335","geometry":{"type":"Polygon","coordinates":[[[12.1689,55.568],[12.1685,55.568],[12.1685,55.5681],[12.1688,55.5681],[12.1689,55.568]]]},"properties":{"sourceId":"ais_par3.85335","a_type":5120,"hectares":0.035}},{"type":"Feature","id":"ais_par3.85336","geometry":{"type":"Polygon","coordinates":[[[12.1672,55.5632],[12.167,55.5632],[12.1666,55.5633],[12.1667,55.5634],[12.1669,55.5636],[12.1673,55.5637],[12.1676,55.5637],[12.1682,55.5637],[12.1686,55.5636],[12.1688,55.5635],[12.1688,55.563],[12.1685,55.5629],[12.1678,55.5631],[12.1675,55.5632],[12.1672,55.5632]]]},"properties":{"sourceId":"ais_par3.85336","a_type":5120,"hectares":0.815}},{"type":"Feature","id":"ais_par3.85337","geometry":{"type":"Polygon","coordinates":[[[12.1659,55.5625],[12.1644,55.5624],[12.1644,55.5628],[12.1646,55.5628],[12.1649,55.5628],[12.1656,55.5629],[12.1658,55.563],[12.166,55.5629],[12.1662,55.5628],[12.1659,55.5625]]]},"properties":{"sourceId":"ais_par3.85337","a_type":5120,"hectares":0.414}},{"type":"Feature","id":"ais_par3.85338","geometry":{"type":"Polygon","coordinates":[[[12.1694,55.5587],[12.1691,55.5586],[12.1691,55.5587],[12.1694,55.5589],[12.1694,55.5587]]]},"properties":{"sourceId":"ais_par3.85338","a_type":5120,"hectares":0.036}},{"type":"Feature","id":"ais_par3.85339","geometry":{"type":"Polygon","coordinates":[[[12.1803,55.5559],[12.18,55.5559],[12.18,55.5561],[12.1802,55.5561],[12.1803,55.5559]]]},"properties":{"sourceId":"ais_par3.85339","a_type":5120,"hectares":0.036}},{"type":"Feature","id":"ais_par3.86155","geometry":{"type":"Polygon","coordinates":[[[12.1594,55.5602],[12.1585,55.5602],[12.1578,55.5601],[12.1575,55.5598],[12.1569,55.5595],[12.1562,55.56],[12.156,55.5604],[12.1556,55.5603],[12.1555,55.5606],[12.155,55.5602],[12.1548,55.5605],[12.1545,55.5605],[12.1545,55.5607],[12.1541,55.5607],[12.1539,55.5609],[12.1537,55.5612],[12.1538,55.5615],[12.1539,55.5615],[12.1546,55.5612],[12.1549,55.5614],[12.1553,55.5616],[12.1554,55.5607],[12.1553,55.5606],[12.156,55.561],[12.1566,55.5613],[12.1567,55.5613],[12.1567,55.561],[12.1567,55.5607],[12.1571,55.5607],[12.1574,55.5606],[12.1576,55.5606],[12.1581,55.5606],[12.1585,55.5608],[12.1587,55.5606],[12.159,55.5607],[12.1588,55.5605],[12.1594,55.5602]]]},"properties":{"sourceId":"ais_par3.86155","a_type":5120,"hectares":2.877}},{"type":"Feature","id":"ais_par3.86156","geometry":{"type":"Polygon","coordinates":[[[12.1606,55.5573],[12.1611,55.5573],[12.1609,55.557],[12.1606,55.5573]]]},"properties":{"sourceId":"ais_par3.86156","a_type":5120,"hectares":0.045}},{"type":"Feature","id":"ais_par3.86157","geometry":{"type":"Polygon","coordinates":[[[12.1635,55.5586],[12.1634,55.5587],[12.1638,55.5591],[12.1641,55.5591],[12.1639,55.5588],[12.1637,55.5586],[12.1635,55.5586]]]},"properties":{"sourceId":"ais_par3.86157","a_type":5120,"hectares":0.119}},{"type":"Feature","id":"ais_par3.86158","geometry":{"type":"Polygon","coordinates":[[[12.1634,55.5585],[12.1633,55.5582],[12.1628,55.5581],[12.1624,55.5581],[12.1623,55.5581],[12.1622,55.5583],[12.1626,55.5585],[12.1629,55.5585],[12.1634,55.5585]]]},"properties":{"sourceId":"ais_par3.86158","a_type":5120,"hectares":0.275}},{"type":"Feature","id":"ais_par3.86159","geometry":{"type":"Polygon","coordinates":[[[12.1578,55.5518],[12.1578,55.552],[12.1582,55.5521],[12.1585,55.552],[12.1585,55.5519],[12.1578,55.5518]]]},"properties":{"sourceId":"ais_par3.86159","a_type":5120,"hectares":0.095}},{"type":"Feature","id":"ais_par3.86160","geometry":{"type":"Polygon","coordinates":[[[12.1601,55.5503],[12.1601,55.5503],[12.1603,55.5504],[12.1605,55.5504],[12.1604,55.5502],[12.1601,55.5503]]]},"properties":{"sourceId":"ais_par3.86160","a_type":5120,"hectares":0.036}},{"type":"Feature","id":"ais_par3.86161","geometry":{"type":"Polygon","coordinates":[[[12.1606,55.5518],[12.1603,55.5518],[12.1605,55.552],[12.1607,55.552],[12.1606,55.5518]]]},"properties":{"sourceId":"ais_par3.86161","a_type":5120,"hectares":0.039}},{"type":"Feature","id":"ais_par3.86201","geometry":{"type":"Polygon","coordinates":[[[12.1701,55.5498],[12.1701,55.5501],[12.1703,55.55],[12.1701,55.5498]]]},"properties":{"sourceId":"ais_par3.86201","a_type":5120,"hectares":0.034}},{"type":"Feature","id":"ais_par3.86202","geometry":{"type":"Polygon","coordinates":[[[12.1833,55.5516],[12.1835,55.5516],[12.1835,55.5515],[12.1832,55.5515],[12.1833,55.5516]]]},"properties":{"sourceId":"ais_par3.86202","a_type":5120,"hectares":0.018}},{"type":"Feature","id":"ais_par3.86204","geometry":{"type":"Polygon","coordinates":[[[12.2273,55.546],[12.2271,55.5461],[12.2273,55.5464],[12.2276,55.5462],[12.2273,55.546]]]},"properties":{"sourceId":"ais_par3.86204","a_type":5120,"hectares":0.055}},{"type":"Feature","id":"ais_par3.86205","geometry":{"type":"Polygon","coordinates":[[[12.1695,55.5556],[12.1691,55.5558],[12.1695,55.5558],[12.1696,55.5558],[12.1695,55.5556]]]},"properties":{"sourceId":"ais_par3.86205","a_type":5120,"hectares":0.035}},{"type":"Feature","id":"ais_par3.86206","geometry":{"type":"Polygon","coordinates":[[[12.1721,55.5553],[12.1718,55.5553],[12.1718,55.5554],[12.1721,55.5553]]]},"properties":{"sourceId":"ais_par3.86206","a_type":5120,"hectares":0.012}},{"type":"Feature","id":"ais_par3.86207","geometry":{"type":"Polygon","coordinates":[[[12.1756,55.5536],[12.1753,55.5537],[12.1752,55.5539],[12.1757,55.5538],[12.1756,55.5536]]]},"properties":{"sourceId":"ais_par3.86207","a_type":5120,"hectares":0.054}},{"type":"Feature","id":"ais_par3.86208","geometry":{"type":"Polygon","coordinates":[[[12.1788,55.553],[12.1787,55.5532],[12.179,55.5532],[12.1791,55.553],[12.1788,55.553]]]},"properties":{"sourceId":"ais_par3.86208","a_type":5120,"hectares":0.044}},{"type":"Feature","id":"ais_par3.86209","geometry":{"type":"Polygon","coordinates":[[[12.1895,55.5571],[12.1895,55.557],[12.1891,55.5568],[12.1891,55.5571],[12.1895,55.5571]]]},"properties":{"sourceId":"ais_par3.86209","a_type":5120,"hectares":0.05}},{"type":"Feature","id":"ais_par3.86210","geometry":{"type":"Polygon","coordinates":[[[12.1876,55.5574],[12.1879,55.5573],[12.1877,55.5572],[12.1874,55.5572],[12.1874,55.5575],[12.1876,55.5574]]]},"properties":{"sourceId":"ais_par3.86210","a_type":5120,"hectares":0.06}},{"type":"Feature","id":"ais_par3.86211","geometry":{"type":"Polygon","coordinates":[[[12.1881,55.5617],[12.1891,55.5615],[12.1891,55.5612],[12.1885,55.5613],[12.188,55.5614],[12.1881,55.5617]]]},"properties":{"sourceId":"ais_par3.86211","a_type":5120,"hectares":0.209}},{"type":"Feature","id":"ais_par3.86212","geometry":{"type":"Polygon","coordinates":[[[12.1907,55.561],[12.1904,55.5609],[12.1901,55.561],[12.1902,55.5612],[12.1904,55.5612],[12.1907,55.561]]]},"properties":{"sourceId":"ais_par3.86212","a_type":5120,"hectares":0.077}},{"type":"Feature","id":"ais_par3.86213","geometry":{"type":"Polygon","coordinates":[[[12.1858,55.5626],[12.186,55.5625],[12.1859,55.5624],[12.1857,55.5625],[12.1858,55.5626]]]},"properties":{"sourceId":"ais_par3.86213","a_type":5120,"hectares":0.019}},{"type":"Feature","id":"ais_par3.86214","geometry":{"type":"Polygon","coordinates":[[[12.1908,55.5648],[12.1912,55.565],[12.191,55.5647],[12.1908,55.5648]]]},"properties":{"sourceId":"ais_par3.86214","a_type":5120,"hectares":0.018}},{"type":"Feature","id":"ais_par3.86215","geometry":{"type":"Polygon","coordinates":[[[12.2025,55.5592],[12.2026,55.5594],[12.2029,55.5594],[12.2028,55.5592],[12.2025,55.5592]]]},"properties":{"sourceId":"ais_par3.86215","a_type":5120,"hectares":0.041}},{"type":"Feature","id":"ais_par3.86216","geometry":{"type":"Polygon","coordinates":[[[12.203,55.5617],[12.203,55.5621],[12.2032,55.5621],[12.2032,55.5619],[12.203,55.5617]]]},"properties":{"sourceId":"ais_par3.86216","a_type":5120,"hectares":0.048}},{"type":"Feature","id":"ais_par3.86217","geometry":{"type":"Polygon","coordinates":[[[12.1968,55.554],[12.1972,55.554],[12.1973,55.5538],[12.1969,55.5537],[12.1967,55.5538],[12.1968,55.554]]]},"properties":{"sourceId":"ais_par3.86217","a_type":5120,"hectares":0.1}},{"type":"Feature","id":"ais_par3.86218","geometry":{"type":"Polygon","coordinates":[[[12.2286,55.5575],[12.2297,55.5575],[12.2299,55.5572],[12.2286,55.5573],[12.2286,55.5575]]]},"properties":{"sourceId":"ais_par3.86218","a_type":5120,"hectares":0.232}},{"type":"Feature","id":"ais_par3.86222","geometry":{"type":"Polygon","coordinates":[[[12.1876,55.5636],[12.1876,55.5637],[12.1878,55.5638],[12.1878,55.5636],[12.1876,55.5636]]]},"properties":{"sourceId":"ais_par3.86222","a_type":5120,"hectares":0.021}},{"type":"Feature","id":"ais_par3.86224","geometry":{"type":"Polygon","coordinates":[[[12.155,55.5569],[12.155,55.5568],[12.155,55.5567],[12.155,55.5567],[12.1549,55.5567],[12.1549,55.5567],[12.1548,55.5567],[12.1549,55.5568],[12.1549,55.5568],[12.1549,55.5569],[12.1549,55.5569],[12.155,55.5569]]]},"properties":{"sourceId":"ais_par3.86224","a_type":5120,"hectares":0.025}},{"type":"Feature","id":"ais_par3.86281","geometry":{"type":"Polygon","coordinates":[[[12.2063,55.5466],[12.2064,55.5468],[12.2063,55.5475],[12.2064,55.5477],[12.2067,55.548],[12.2063,55.5486],[12.2057,55.5487],[12.2046,55.5487],[12.2046,55.5488],[12.2047,55.5489],[12.2054,55.5489],[12.2075,55.5488],[12.2092,55.5486],[12.2105,55.5486],[12.2119,55.5485],[12.2122,55.5484],[12.2102,55.5475],[12.2098,55.5474],[12.2096,55.5471],[12.2086,55.5465],[12.208,55.5465],[12.2063,55.5466]]]},"properties":{"sourceId":"ais_par3.86281","a_type":5120,"hectares":6.264}},{"type":"Feature","id":"ais_par3.86284","geometry":{"type":"Polygon","coordinates":[[[12.208,55.5464],[12.2079,55.5461],[12.2063,55.5464],[12.2063,55.5466],[12.2065,55.5466],[12.208,55.5464]]]},"properties":{"sourceId":"ais_par3.86284","a_type":5120,"hectares":0.274}},{"type":"Feature","id":"ais_par3.82042","geometry":{"type":"Polygon","coordinates":[[[12.2132,55.5159],[12.2129,55.516],[12.2135,55.5167],[12.2137,55.5166],[12.2141,55.5171],[12.2138,55.5172],[12.2142,55.5176],[12.2137,55.5178],[12.2142,55.5183],[12.2158,55.518],[12.2155,55.5176],[12.2148,55.5176],[12.2147,55.5173],[12.2132,55.5159]]]},"properties":{"sourceId":"ais_par3.82042","a_type":3210,"hectares":1.279}},{"type":"Feature","id":"ais_par3.82054","geometry":{"type":"Polygon","coordinates":[[[12.2126,55.518],[12.2112,55.5184],[12.2116,55.5188],[12.2119,55.5187],[12.2119,55.5185],[12.2122,55.5182],[12.2126,55.518]]]},"properties":{"sourceId":"ais_par3.82054","a_type":3220,"hectares":0.253}},{"type":"Feature","id":"ais_par3.82154","geometry":{"type":"Polygon","coordinates":[[[12.166,55.5373],[12.1648,55.5376],[12.1638,55.5385],[12.1638,55.5391],[12.1652,55.5396],[12.1654,55.5391],[12.166,55.5384],[12.167,55.5377],[12.1669,55.5374],[12.1662,55.5375],[12.166,55.5373]]]},"properties":{"sourceId":"ais_par3.82154","a_type":4110,"hectares":2.72}},{"type":"Feature","id":"ais_par3.82155","geometry":{"type":"Polygon","coordinates":[[[12.1363,55.5144],[12.1372,55.5138],[12.1378,55.5134],[12.1379,55.5133],[12.1377,55.5132],[12.1372,55.5133],[12.1369,55.5136],[12.1364,55.5139],[12.1358,55.5142],[12.1341,55.5156],[12.1341,55.5156],[12.1344,55.5157],[12.1352,55.5156],[12.1363,55.5144]]]},"properties":{"sourceId":"ais_par3.82155","a_type":4110,"hectares":1.364}},{"type":"Feature","id":"ais_par3.82156","geometry":{"type":"Polygon","coordinates":[[[12.1823,55.513],[12.1814,55.5133],[12.1813,55.5137],[12.1804,55.5144],[12.1798,55.5146],[12.1799,55.5147],[12.1797,55.5149],[12.1801,55.5153],[12.181,55.515],[12.1809,55.5148],[12.1831,55.5144],[12.1833,55.5145],[12.184,55.5143],[12.1823,55.513]]]},"properties":{"sourceId":"ais_par3.82156","a_type":4110,"hectares":2.775}},{"type":"Feature","id":"ais_par3.82157","geometry":{"type":"Polygon","coordinates":[[[12.1948,55.5152],[12.1954,55.5155],[12.1971,55.5149],[12.1963,55.5147],[12.1958,55.5133],[12.1945,55.513],[12.1944,55.513],[12.1942,55.5128],[12.1939,55.5129],[12.1936,55.5129],[12.1926,55.5131],[12.1921,55.5126],[12.1913,55.512],[12.1906,55.5119],[12.1896,55.512],[12.1911,55.513],[12.1887,55.5143],[12.1913,55.5156],[12.1906,55.5158],[12.1897,55.5159],[12.1875,55.5149],[12.1872,55.515],[12.1906,55.517],[12.1927,55.5162],[12.1948,55.5152]],[[12.1924,55.5144],[12.1924,55.5147],[12.1921,55.5144],[12.1924,55.5144]]]},"properties":{"sourceId":"ais_par3.82157","a_type":4110,"hectares":15.037}},{"type":"Feature","id":"ais_par3.82162","geometry":{"type":"Polygon","coordinates":[[[12.186,55.5204],[12.1877,55.5212],[12.1903,55.5198],[12.1894,55.5196],[12.1891,55.5194],[12.1889,55.5188],[12.1876,55.5194],[12.186,55.5204]]]},"properties":{"sourceId":"ais_par3.82162","a_type":4110,"hectares":3.233}},{"type":"Feature","id":"ais_par3.82195","geometry":{"type":"Polygon","coordinates":[[[12.1982,55.5165],[12.1952,55.5177],[12.1941,55.5182],[12.1938,55.5183],[12.1947,55.519],[12.1952,55.5193],[12.1961,55.5195],[12.1972,55.5193],[12.1978,55.5192],[12.1982,55.5192],[12.1986,55.5193],[12.1989,55.5195],[12.1991,55.5192],[12.1989,55.5178],[12.1982,55.5165]]]},"properties":{"sourceId":"ais_par3.82195","a_type":4110,"hectares":6.616}},{"type":"Feature","id":"ais_par3.82321","geometry":{"type":"Polygon","coordinates":[[[12.2025,55.5057],[12.2013,55.506],[12.2017,55.5066],[12.202,55.5069],[12.2031,55.5067],[12.2025,55.5057]]]},"properties":{"sourceId":"ais_par3.82321","a_type":4110,"hectares":0.92}},{"type":"Feature","id":"ais_par3.82389","geometry":{"type":"Polygon","coordinates":[[[12.1884,55.5114],[12.1878,55.511],[12.1845,55.5102],[12.1845,55.5099],[12.1848,55.51],[12.1845,55.5084],[12.1827,55.5086],[12.1821,55.5085],[12.18,55.5087],[12.1804,55.5092],[12.1818,55.509],[12.1831,55.509],[12.1833,55.5097],[12.184,55.5097],[12.1841,55.5099],[12.1837,55.5113],[12.1863,55.5123],[12.1878,55.5113],[12.1881,55.5115],[12.1884,55.5114]]]},"properties":{"sourceId":"ais_par3.82389","a_type":4110,"hectares":5.949}},{"type":"Feature","id":"ais_par3.82396","geometry":{"type":"Polygon","coordinates":[[[12.2024,55.5149],[12.2017,55.5146],[12.201,55.5148],[12.2,55.5141],[12.1979,55.515],[12.198,55.5149],[12.1985,55.5154],[12.1999,55.5153],[12.2009,55.5155],[12.1987,55.5164],[12.1997,55.5181],[12.2019,55.5175],[12.2017,55.5172],[12.2022,55.517],[12.2021,55.5165],[12.2034,55.5161],[12.2037,55.5162],[12.2039,55.5161],[12.204,55.5159],[12.2024,55.5149]],[[12.2014,55.5173],[12.2006,55.517],[12.2011,55.5169],[12.2014,55.5171],[12.2014,55.5173]]]},"properties":{"sourceId":"ais_par3.82396","a_type":4110,"hectares":7.9}},{"type":"Feature","id":"ais_par3.82409","geometry":{"type":"Polygon","coordinates":[[[12.2008,55.5139],[12.2024,55.5149],[12.2044,55.514],[12.204,55.5136],[12.2029,55.5135],[12.2017,55.5136],[12.2008,55.5139]]]},"properties":{"sourceId":"ais_par3.82409","a_type":4110,"hectares":1.932}},{"type":"Feature","id":"ais_par3.82451","geometry":{"type":"Polygon","coordinates":[[[12.1545,55.5149],[12.1545,55.5149],[12.1553,55.515],[12.1554,55.5152],[12.1556,55.5151],[12.1557,55.5149],[12.1557,55.5148],[12.1545,55.5149]],[[12.1545,55.5149],[12.1545,55.5149],[12.1557,55.5148],[12.1557,55.5149],[12.1545,55.5149]]]},"properties":{"sourceId":"ais_par3.82451","a_type":4120,"hectares":0.114}},{"type":"Feature","id":"ais_par3.82452","geometry":{"type":"Polygon","coordinates":[[[12.1796,55.5108],[12.1788,55.5109],[12.1776,55.511],[12.1771,55.5117],[12.1748,55.512],[12.1749,55.5122],[12.1741,55.5124],[12.1748,55.5133],[12.1753,55.5132],[12.1756,55.5134],[12.1756,55.5136],[12.1754,55.5138],[12.1752,55.514],[12.1757,55.5147],[12.1772,55.5143],[12.1775,55.5148],[12.1763,55.5153],[12.1769,55.5156],[12.1776,55.5154],[12.1782,55.516],[12.1787,55.5162],[12.1792,55.5166],[12.1801,55.5167],[12.1815,55.5163],[12.1809,55.5157],[12.1812,55.5154],[12.181,55.515],[12.1801,55.5153],[12.1797,55.5149],[12.1799,55.5147],[12.1798,55.5146],[12.1804,55.5144],[12.1813,55.5137],[12.1814,55.5133],[12.1823,55.513],[12.181,55.512],[12.1796,55.5108]],[[12.178,55.5131],[12.1781,55.5131],[12.1783,55.5134],[12.1784,55.5134],[12.1783,55.5131],[12.1784,55.5131],[12.1787,55.5134],[12.1788,55.5134],[12.1786,55.5131],[12.1787,55.513],[12.1792,55.5136],[12.1784,55.5138],[12.178,55.5131]]]},"properties":{"sourceId":"ais_par3.82452","a_type":4120,"hectares":18.035}},{"type":"Feature","id":"ais_par3.82453","geometry":{"type":"Polygon","coordinates":[[[12.1739,55.5139],[12.1727,55.5141],[12.1731,55.5146],[12.1741,55.5145],[12.1743,55.5142],[12.1739,55.5139]],[[12.1738,55.5139],[12.1738,55.514],[12.1729,55.5141],[12.1731,55.5145],[12.174,55.5144],[12.1741,55.5142],[12.1738,55.514],[12.1739,55.514],[12.1742,55.5142],[12.174,55.5144],[12.1731,55.5145],[12.1728,55.5141],[12.1738,55.5139]]]},"properties":{"sourceId":"ais_par3.82453","a_type":4120,"hectares":0.434}},{"type":"Feature","id":"ais_par3.82454","geometry":{"type":"Polygon","coordinates":[[[12.1933,55.5164],[12.1954,55.5155],[12.1948,55.5152],[12.1927,55.5162],[12.1933,55.5164]]]},"properties":{"sourceId":"ais_par3.82454","a_type":4120,"hectares":0.822}},{"type":"Feature","id":"ais_par3.82455","geometry":{"type":"Polygon","coordinates":[[[12.1836,55.5164],[12.1818,55.5171],[12.1822,55.5176],[12.1837,55.5172],[12.1841,55.5168],[12.1836,55.5164]],[[12.1819,55.5171],[12.182,55.517],[12.1825,55.5175],[12.1823,55.5175],[12.1819,55.5171]],[[12.1834,55.5165],[12.1835,55.5167],[12.1827,55.5169],[12.1826,55.5168],[12.1834,55.5165]],[[12.1829,55.5174],[12.183,55.5172],[12.1838,55.5167],[12.1839,55.5169],[12.1836,55.5172],[12.1831,55.5173],[12.1829,55.5174]]]},"properties":{"sourceId":"ais_par3.82455","a_type":4120,"hectares":0.613}},{"type":"Feature","id":"ais_par3.82456","geometry":{"type":"Polygon","coordinates":[[[12.1941,55.5182],[12.1952,55.5177],[12.195,55.5175],[12.194,55.5179],[12.1941,55.5182]]]},"properties":{"sourceId":"ais_par3.82456","a_type":4120,"hectares":0.222}},{"type":"Feature","id":"ais_par3.82458","geometry":{"type":"Polygon","coordinates":[[[12.1988,55.5435],[12.1981,55.5436],[12.1974,55.5443],[12.1976,55.5449],[12.198,55.5452],[12.1985,55.5445],[12.1985,55.5441],[12.1988,55.5435]],[[12.1981,55.5446],[12.1982,55.5445],[12.1984,55.5445],[12.1983,55.5447],[12.1981,55.5446]]]},"properties":{"sourceId":"ais_par3.82458","a_type":4120,"hectares":0.868}},{"type":"Feature","id":"ais_par3.82859","geometry":{"type":"Polygon","coordinates":[[[12.178,55.5106],[12.1775,55.51],[12.1764,55.5102],[12.1769,55.511],[12.1777,55.5108],[12.178,55.5106]],[[12.1773,55.5103],[12.177,55.5103],[12.1769,55.5103],[12.1769,55.5102],[12.177,55.5102],[12.1772,55.5103],[12.1773,55.5103]]]},"properties":{"sourceId":"ais_par3.82859","a_type":4120,"hectares":0.664}},{"type":"Feature","id":"ais_par3.82940","geometry":{"type":"Polygon","coordinates":[[[12.1796,55.51],[12.1807,55.5111],[12.1824,55.5124],[12.1848,55.5142],[12.1853,55.5142],[12.1855,55.5141],[12.1863,55.5144],[12.1867,55.5144],[12.1875,55.5149],[12.1897,55.5159],[12.1906,55.5158],[12.1913,55.5156],[12.1887,55.5143],[12.1911,55.513],[12.1896,55.512],[12.1884,55.5114],[12.1881,55.5115],[12.1878,55.5113],[12.1863,55.5123],[12.1837,55.5113],[12.1841,55.5099],[12.184,55.5097],[12.1833,55.5097],[12.1831,55.509],[12.1818,55.509],[12.1804,55.5092],[12.1807,55.5096],[12.1809,55.5096],[12.1796,55.51]],[[12.1892,55.5123],[12.1895,55.5126],[12.1892,55.5128],[12.1892,55.5123]],[[12.1819,55.5091],[12.1822,55.509],[12.1823,55.5092],[12.1823,55.5092],[12.1822,55.5093],[12.1822,55.5094],[12.1823,55.5095],[12.1823,55.5096],[12.1822,55.5097],[12.1821,55.5096],[12.1818,55.5095],[12.1818,55.5094],[12.1819,55.5094],[12.1819,55.5093],[12.1818,55.5092],[12.1819,55.5091]]]},"properties":{"sourceId":"ais_par3.82940","a_type":4120,"hectares":20.603}},{"type":"Feature","id":"ais_par3.83288","geometry":{"type":"Polygon","coordinates":[[[12.2181,55.5165],[12.218,55.5165],[12.2178,55.5165],[12.2176,55.5166],[12.2175,55.5167],[12.2176,55.5167],[12.2182,55.5166],[12.2182,55.5165],[12.2181,55.5165]]]},"properties":{"sourceId":"ais_par3.83288","a_type":4210,"hectares":0.045}},{"type":"Feature","id":"ais_par3.83283","geometry":{"type":"Polygon","coordinates":[[[12.2344,55.5374],[12.2337,55.5368],[12.2333,55.5368],[12.2339,55.5375],[12.2342,55.5375],[12.2344,55.5374]]]},"properties":{"sourceId":"ais_par3.83283","a_type":4210,"hectares":0.255}},{"type":"Feature","id":"ais_par3.83282","geometry":{"type":"Polygon","coordinates":[[[12.235,55.5382],[12.2347,55.5383],[12.2351,55.5388],[12.2355,55.5388],[12.235,55.5382]]]},"properties":{"sourceId":"ais_par3.83282","a_type":4210,"hectares":0.169}},{"type":"Feature","id":"ais_par3.84496","geometry":{"type":"Polygon","coordinates":[[[12.125,55.5177],[12.1248,55.5176],[12.1246,55.5177],[12.1245,55.5177],[12.1246,55.5178],[12.1246,55.5178],[12.1249,55.5178],[12.125,55.5177]]]},"properties":{"sourceId":"ais_par3.84496","a_type":5120,"hectares":0.05}},{"type":"Feature","id":"ais_par3.84776","geometry":{"type":"Polygon","coordinates":[[[12.169,55.5091],[12.1687,55.5091],[12.1688,55.5093],[12.1691,55.5093],[12.169,55.5091]]]},"properties":{"sourceId":"ais_par3.84776","a_type":5120,"hectares":0.035}},{"type":"Feature","id":"ais_par3.84779","geometry":{"type":"Polygon","coordinates":[[[12.1883,55.5083],[12.1877,55.5083],[12.1878,55.5085],[12.1884,55.5085],[12.1883,55.5083]]]},"properties":{"sourceId":"ais_par3.84779","a_type":5120,"hectares":0.058}},{"type":"Feature","id":"ais_par3.86169","geometry":{"type":"Polygon","coordinates":[[[12.1277,55.5433],[12.1283,55.5436],[12.1291,55.5435],[12.1295,55.5435],[12.1296,55.5434],[12.1284,55.5431],[12.128,55.5432],[12.1277,55.5433]]]},"properties":{"sourceId":"ais_par3.86169","a_type":5120,"hectares":0.372}},{"type":"Feature","id":"ais_par3.86170","geometry":{"type":"Polygon","coordinates":[[[12.1245,55.5333],[12.1244,55.5334],[12.1246,55.5335],[12.1249,55.5334],[12.1245,55.5333]]]},"properties":{"sourceId":"ais_par3.86170","a_type":5120,"hectares":0.053}},{"type":"Feature","id":"ais_par3.86171","geometry":{"type":"Polygon","coordinates":[[[12.1296,55.5343],[12.1293,55.5344],[12.1294,55.5346],[12.1297,55.5345],[12.1296,55.5343]]]},"properties":{"sourceId":"ais_par3.86171","a_type":5120,"hectares":0.048}},{"type":"Feature","id":"ais_par3.86172","geometry":{"type":"Polygon","coordinates":[[[12.1344,55.5355],[12.1343,55.5357],[12.1346,55.5358],[12.1348,55.5357],[12.1344,55.5355]]]},"properties":{"sourceId":"ais_par3.86172","a_type":5120,"hectares":0.043}},{"type":"Feature","id":"ais_par3.86173","geometry":{"type":"Polygon","coordinates":[[[12.144,55.5364],[12.1439,55.5365],[12.1439,55.5367],[12.1441,55.5367],[12.1442,55.5367],[12.1443,55.5366],[12.144,55.5364]]]},"properties":{"sourceId":"ais_par3.86173","a_type":5120,"hectares":0.072}},{"type":"Feature","id":"ais_par3.86174","geometry":{"type":"Polygon","coordinates":[[[12.1504,55.5339],[12.1501,55.5341],[12.1504,55.5342],[12.1506,55.5341],[12.1504,55.5339]]]},"properties":{"sourceId":"ais_par3.86174","a_type":5120,"hectares":0.054}},{"type":"Feature","id":"ais_par3.86175","geometry":{"type":"Polygon","coordinates":[[[12.1376,55.5341],[12.1375,55.5343],[12.138,55.5344],[12.138,55.5342],[12.1376,55.5341]]]},"properties":{"sourceId":"ais_par3.86175","a_type":5120,"hectares":0.06}},{"type":"Feature","id":"ais_par3.86182","geometry":{"type":"Polygon","coordinates":[[[12.1234,55.5291],[12.1236,55.5293],[12.1239,55.5291],[12.1236,55.529],[12.1234,55.5291]]]},"properties":{"sourceId":"ais_par3.86182","a_type":5120,"hectares":0.037}},{"type":"Feature","id":"ais_par3.86184","geometry":{"type":"Polygon","coordinates":[[[12.1358,55.5317],[12.1357,55.5319],[12.1358,55.532],[12.1361,55.5318],[12.1358,55.5317]]]},"properties":{"sourceId":"ais_par3.86184","a_type":5120,"hectares":0.055}},{"type":"Feature","id":"ais_par3.86185","geometry":{"type":"Polygon","coordinates":[[[12.1319,55.5238],[12.1318,55.524],[12.132,55.5241],[12.1323,55.524],[12.1319,55.5238]]]},"properties":{"sourceId":"ais_par3.86185","a_type":5120,"hectares":0.042}},{"type":"Feature","id":"ais_par3.86188","geometry":{"type":"Polygon","coordinates":[[[12.1471,55.529],[12.1471,55.5292],[12.1473,55.5292],[12.1473,55.5291],[12.1471,55.529]]]},"properties":{"sourceId":"ais_par3.86188","a_type":5120,"hectares":0.019}},{"type":"Feature","id":"ais_par3.86189","geometry":{"type":"Polygon","coordinates":[[[12.1512,55.5273],[12.1516,55.5274],[12.1515,55.5272],[12.1512,55.5272],[12.1512,55.5273]]]},"properties":{"sourceId":"ais_par3.86189","a_type":5120,"hectares":0.044}},{"type":"Feature","id":"ais_par3.86192","geometry":{"type":"Polygon","coordinates":[[[12.178,55.5131],[12.1784,55.5138],[12.1792,55.5136],[12.1787,55.513],[12.1786,55.5131],[12.1788,55.5134],[12.1787,55.5134],[12.1784,55.5131],[12.1783,55.5131],[12.1784,55.5134],[12.1783,55.5134],[12.1781,55.5131],[12.178,55.5131]]]},"properties":{"sourceId":"ais_par3.86192","a_type":5120,"hectares":0.288}},{"type":"Feature","id":"ais_par3.86193","geometry":{"type":"Polygon","coordinates":[[[12.1738,55.5139],[12.1728,55.5141],[12.1731,55.5145],[12.174,55.5144],[12.1742,55.5142],[12.1739,55.514],[12.1738,55.514],[12.1741,55.5142],[12.174,55.5144],[12.1731,55.5145],[12.1729,55.5141],[12.1738,55.514],[12.1738,55.5139]]]},"properties":{"sourceId":"ais_par3.86193","a_type":5120,"hectares":0.078}},{"type":"Feature","id":"ais_par3.86194","geometry":{"type":"Polygon","coordinates":[[[12.1924,55.5144],[12.1921,55.5144],[12.1924,55.5147],[12.1924,55.5144]]]},"properties":{"sourceId":"ais_par3.86194","a_type":5120,"hectares":0.033}},{"type":"Feature","id":"ais_par3.86200","geometry":{"type":"Polygon","coordinates":[[[12.1675,55.5461],[12.1674,55.5463],[12.1678,55.5468],[12.1682,55.5467],[12.1682,55.5464],[12.1678,55.546],[12.1675,55.5461]]]},"properties":{"sourceId":"ais_par3.86200","a_type":5120,"hectares":0.283}},{"type":"Feature","id":"ais_par3.86203","geometry":{"type":"Polygon","coordinates":[[[12.1981,55.5446],[12.1983,55.5447],[12.1984,55.5445],[12.1982,55.5445],[12.1981,55.5446]]]},"properties":{"sourceId":"ais_par3.86203","a_type":5120,"hectares":0.035}},{"type":"Feature","id":"ais_par3.86219","geometry":{"type":"Polygon","coordinates":[[[12.1824,55.5358],[12.1823,55.5358],[12.1825,55.536],[12.1827,55.5359],[12.1824,55.5358]]]},"properties":{"sourceId":"ais_par3.86219","a_type":5120,"hectares":0.033}}]}
